{"features":[{"geometry":{"coordinates":[525845.0,-1.412693e6],"type":"Point"},"properties":{"alt":"","lat":76.15,"lon":-24.583,"name":"A. B. Drachmann Bræ","source":"GeoNames 3424898","tier":3,"type":"glacier"},"type":"Feature"},{"geometry":{"coordinates":[107849.0,-707548.0],"type":"Point"},"properties":{"alt":"A. Harmsworth Brae, A. Harmsworth Bræ, Harmsworth Gletscher","lat":83.4,"lon":-36.333,"name":"A. Harmsworth Gletscher","source":"GeoNames 3424846","tier":3,"type":"glacier"},"type":"Feature"},{"geometry":{"coordinates":[667916.0,-1.607197e6],"type":"Point"},"properties":{"alt":"","lat":74.033,"lon":-22.433,"name":"A. Schmidt Gletscher","source":"GeoNames 3424442","tier":3,"type":"glacier"},"type":"Feature"},{"geometry":{"coordinates":[165112.0,-2.878163e6],"type":"Point"},"properties":{"alt":"","lat":63.833,"lon":-41.717,"name":"A.P. Bernstorf Gletscher","source":"GeoNames 3424522","tier":3,"type":"glacier"},"type":"Feature"},{"geometry":{"coordinates":[183898.0,-903889.0],"type":"Point"},"properties":{"alt":"Academy Brae, Academy Bræ, Academy Glacier","lat":81.5,"lon":-33.5,"name":"Academy Gletscher","source":"GeoNames 3424897","tier":3,"type":"glacier"},"type":"Feature"},{"geometry":{"coordinates":[-484631.0,-1.300431e6],"type":"Point"},"properties":{"alt":"","lat":77.24,"lon":-65.439,"name":"Academy Gletscher","source":"GeoNames 3831541","tier":3,"type":"glacier"},"type":"Feature"},{"geometry":{"coordinates":[76434.0,-831823.0],"type":"Point"},"properties":{"alt":"","lat":82.3,"lon":-39.75,"name":"Adams Gletscher","source":"GeoNames 3424892","tier":3,"type":"glacier"},"type":"Feature"},{"geometry":{"coordinates":[542645.0,-1.653702e6],"type":"Point"},"properties":{"alt":"Hoels Gletscher","lat":74.033,"lon":-26.833,"name":"Adolf Hoels Gletscher","source":"GeoNames 3424890","tier":3,"type":"glacier"},"type":"Feature"},{"geometry":{"coordinates":[486648.0,-1.678694e6],"type":"Point"},"properties":{"alt":"","lat":73.967,"lon":-28.833,"name":"Ajungilaq","source":"GeoNames 3424836","tier":3,"type":"glacier"},"type":"Feature"},{"geometry":{"coordinates":[-219643.0,-2.811723e6],"type":"Point"},"properties":{"alt":"","lat":64.383,"lon":-49.467,"name":"Akugdlerssûp Sermia","source":"GeoNames 3424805","tier":3,"type":"glacier"},"type":"Feature"},{"geometry":{"coordinates":[533937.0,-1.770351e6],"type":"Point"},"properties":{"alt":"Akuliarutsip Sermerssua, Nordenskiølds Gletscher, Nordenskiold Glacier, Nordenskiolds Gletscher","lat":73.05,"lon":-28.217,"name":"Akuliarutsip Sermerssua (Nordenskiølds Gletscher)","source":"GeoNames 3424740","tier":3,"type":"glacier"},"type":"Feature"},{"geometry":{"coordinates":[-204456.0,-3.064721e6],"type":"Point"},"properties":{"alt":"","lat":62.183,"lon":-48.817,"name":"Akulleq Bræ","source":"GeoNames 3424732","tier":3,"type":"glacier"},"type":"Feature"},{"geometry":{"coordinates":[-207765.0,-2.297748e6],"type":"Point"},"properties":{"alt":"Alangordlek, Alangordliup Sermia, Alángordliup Sermia","lat":68.933,"lon":-50.167,"name":"Alanngorliup Sermia","source":"GeoNames 3424715","tier":3,"type":"glacier"},"type":"Feature"},{"geometry":{"coordinates":[-318854.0,-1.808311e6],"type":"Point"},"properties":{"alt":"Alangorssup Sermia","lat":73.167,"lon":-55.0,"name":"Alángorssûp Sermia","source":"GeoNames 3424712","tier":3,"type":"glacier"},"type":"Feature"},{"geometry":{"coordinates":[-562321.0,-1.42026e6],"type":"Point"},"properties":{"alt":"Alussak, Alussaq, Alûssak","lat":75.967,"lon":-66.6,"name":"Alûssaq","source":"GeoNames 3831524","tier":3,"type":"glacier"},"type":"Feature"},{"geometry":{"coordinates":[369063.0,-2.651329e6],"type":"Point"},"properties":{"alt":"","lat":65.647,"lon":-37.075,"name":"Apusiaajik Glacier","source":"GeoNames 12207012","tier":3,"type":"glacier"},"type":"Feature"},{"geometry":{"coordinates":[157888.0,-2.979543e6],"type":"Point"},"properties":{"alt":"Apusikajip Ilivitarpia, Apusîkajîp Ilivítarpia","lat":62.95,"lon":-41.967,"name":"Apusiikajiip Ilivittarpia","source":"GeoNames 3424500","tier":3,"type":"glacier"},"type":"Feature"},{"geometry":{"coordinates":[667237.0,-1.927715e6],"type":"Point"},"properties":{"alt":"","lat":71.329,"lon":-25.908,"name":"Apusinikajik","source":"GeoNames 13156591","tier":3,"type":"glacier"},"type":"Feature"},{"geometry":{"coordinates":[318617.0,-2.594928e6],"type":"Point"},"properties":{"alt":"","lat":66.2,"lon":-38.0,"name":"Apusêrajik","source":"GeoNames 3424504","tier":3,"type":"glacier"},"type":"Feature"},{"geometry":{"coordinates":[397549.0,-2.603067e6],"type":"Point"},"properties":{"alt":"","lat":66.033,"lon":-36.317,"name":"Apusêrajik","source":"GeoNames 3424505","tier":3,"type":"glacier"},"type":"Feature"},{"geometry":{"coordinates":[616266.0,-1.786394e6],"type":"Point"},"properties":{"alt":"","lat":72.683,"lon":-25.967,"name":"Argand Gletscher","source":"GeoNames 3424468","tier":3,"type":"glacier"},"type":"Feature"},{"geometry":{"coordinates":[105116.0,-856102.0],"type":"Point"},"properties":{"alt":"Astrup Brae","lat":82.05,"lon":-38.0,"name":"Astrup Gletscher","source":"GeoNames 3424431","tier":3,"type":"glacier"},"type":"Feature"},{"geometry":{"coordinates":[-343462.0,-2.60885e6],"type":"Point"},"properties":{"alt":"","lat":66.05,"lon":-52.5,"name":"Avangnardliup Sermia","source":"GeoNames 3424363","tier":3,"type":"glacier"},"type":"Feature"},{"geometry":{"coordinates":[-212082.0,-3.058454e6],"type":"Point"},"properties":{"alt":"Avangnardleq Bra, Avangnardleq Bræ, Avannarleq Brae","lat":62.233,"lon":-48.967,"name":"Avannarleq Bræ","source":"GeoNames 3424349","tier":3,"type":"glacier"},"type":"Feature"},{"geometry":{"coordinates":[181518.0,-746502.0],"type":"Point"},"properties":{"alt":"","lat":82.917,"lon":-31.333,"name":"Balder Gletscher","source":"GeoNames 3424317","tier":3,"type":"glacier"},"type":"Feature"},{"geometry":{"coordinates":[-595631.0,-1.15649e6],"type":"Point"},"properties":{"alt":"Bamse Brae, Bamse Bræ","lat":78.033,"lon":-72.25,"name":"Bamse Gletscher","source":"GeoNames 3831509","tier":3,"type":"glacier"},"type":"Feature"},{"geometry":{"coordinates":[783240.0,-2.072784e6],"type":"Point"},"properties":{"alt":"Bartholin Brae, Bartholins Glacier","lat":69.75,"lon":-24.3,"name":"Bartholin Bræ","source":"GeoNames 3424312","tier":3,"type":"glacier"},"type":"Feature"},{"geometry":{"coordinates":[-253305.0,-945346.0],"type":"Point"},"properties":{"alt":"","lat":80.983,"lon":-60.0,"name":"Belgrave Gletscher","source":"GeoNames 3424297","tier":3,"type":"glacier"},"type":"Feature"},{"geometry":{"coordinates":[-583160.0,-1.290007e6],"type":"Point"},"properties":{"alt":"Berlingskes Brae","lat":76.985,"lon":-69.326,"name":"Berlingske Gletscher","source":"GeoNames 3831503","tier":3,"type":"glacier"},"type":"Feature"},{"geometry":{"coordinates":[679411.0,-1.828512e6],"type":"Point"},"properties":{"alt":"","lat":72.133,"lon":-24.617,"name":"Bersærkerbræ","source":"GeoNames 3424284","tier":3,"type":"glacier"},"type":"Feature"},{"geometry":{"coordinates":[219854.0,-686824.0],"type":"Point"},"properties":{"alt":"","lat":83.35,"lon":-27.25,"name":"Bertelsen Gletscher","source":"GeoNames 3424283","tier":3,"type":"glacier"},"type":"Feature"},{"geometry":{"coordinates":[181536.0,-2.940036e6],"type":"Point"},"properties":{"alt":"","lat":63.283,"lon":-41.467,"name":"Bjarke Gletscher","source":"GeoNames 3424272","tier":3,"type":"glacier"},"type":"Feature"},{"geometry":{"coordinates":[827469.0,-1.936854e6],"type":"Point"},"properties":{"alt":"","lat":70.733,"lon":-21.867,"name":"Bjerring Pedersen Gletscher","source":"GeoNames 3424271","tier":3,"type":"glacier"},"type":"Feature"},{"geometry":{"coordinates":[453257.0,-896002.0],"type":"Point"},"properties":{"alt":"","lat":80.75,"lon":-18.167,"name":"Bjørnegletscher","source":"GeoNames 2760361","tier":3,"type":"glacier"},"type":"Feature"},{"geometry":{"coordinates":[363818.0,-2.509209e6],"type":"Point"},"properties":{"alt":"","lat":66.9,"lon":-36.75,"name":"Bjørnegletscher","source":"GeoNames 3424266","tier":3,"type":"glacier"},"type":"Feature"},{"geometry":{"coordinates":[498563.0,-1.142073e6],"type":"Point"},"properties":{"alt":"","lat":78.533,"lon":-21.417,"name":"Blæsebræ","source":"GeoNames 3424253","tier":3,"type":"glacier"},"type":"Feature"},{"geometry":{"coordinates":[513289.0,-1.356383e6],"type":"Point"},"properties":{"alt":"Borg Glacier, Borg Jokel, Borg Jokel Glacier, Borg Jökel Glacier, Borgarjoekull, Borgarjökull","lat":76.67,"lon":-24.272,"name":"Borg Jøkel","source":"GeoNames 3424220","tier":3,"type":"glacier"},"type":"Feature"},{"geometry":{"coordinates":[657491.0,-1.893376e6],"type":"Point"},"properties":{"alt":"","lat":71.65,"lon":-25.85,"name":"Borgbjerg Gletscher","source":"GeoNames 3424226","tier":3,"type":"glacier"},"type":"Feature"},{"geometry":{"coordinates":[676651.0,-2.227122e6],"type":"Point"},"properties":{"alt":"Borggraven Glacier","lat":68.75,"lon":-28.1,"name":"Borggraven","source":"GeoNames 3424222","tier":3,"type":"glacier"},"type":"Feature"},{"geometry":{"coordinates":[195750.0,-694078.0],"type":"Point"},"properties":{"alt":"","lat":83.35,"lon":-29.25,"name":"Borup Gletscher","source":"GeoNames 3424215","tier":3,"type":"glacier"},"type":"Feature"},{"geometry":{"coordinates":[-533427.0,-1.223911e6],"type":"Point"},"properties":{"alt":"Bowdoin Brae","lat":77.721,"lon":-68.549,"name":"Bowdoin Gletscher","source":"GeoNames 3831492","tier":3,"type":"glacier"},"type":"Feature"},{"geometry":{"coordinates":[550096.0,-1.350213e6],"type":"Point"},"properties":{"alt":"Brede Glacier, Bredebrae","lat":76.6,"lon":-22.833,"name":"Bredebræ","source":"GeoNames 3424200","tier":3,"type":"glacier"},"type":"Feature"},{"geometry":{"coordinates":[-583761.0,-1.131826e6],"type":"Point"},"properties":{"alt":"Brother John Brae","lat":78.283,"lon":-72.283,"name":"Brother John Gletscher","source":"GeoNames 3831490","tier":3,"type":"glacier"},"type":"Feature"},{"geometry":{"coordinates":[-560046.0,-1.236525e6],"type":"Point"},"properties":{"alt":"","lat":77.517,"lon":-69.367,"name":"Bryant Gletscher","source":"GeoNames 3831488","tier":3,"type":"glacier"},"type":"Feature"},{"geometry":{"coordinates":[539109.0,-1.770714e6],"type":"Point"},"properties":{"alt":"","lat":73.033,"lon":-28.067,"name":"Brystværnene","source":"GeoNames 3424168","tier":3,"type":"glacier"},"type":"Feature"},{"geometry":{"coordinates":[301665.0,-2.627291e6],"type":"Point"},"properties":{"alt":"","lat":65.933,"lon":-38.45,"name":"Brückner Gletscher","source":"GeoNames 3424176","tier":3,"type":"glacier"},"type":"Feature"},{"geometry":{"coordinates":[-593794.0,-1.151279e6],"type":"Point"},"properties":{"alt":"Bu Brae, Bu Bræ","lat":78.083,"lon":-72.283,"name":"Bu Gletscher","source":"GeoNames 3831486","tier":3,"type":"glacier"},"type":"Feature"},{"geometry":{"coordinates":[520847.0,-1.393068e6],"type":"Point"},"properties":{"alt":"Budolfi Brae, Budolfi Glacier, Budolfi Isstrom","lat":76.333,"lon":-24.5,"name":"Budolfi Isstrøm","source":"GeoNames 3424164","tier":3,"type":"glacier"},"type":"Feature"},{"geometry":{"coordinates":[291757.0,-2.656858e6],"type":"Point"},"properties":{"alt":"Bussemanadgletscher","lat":65.683,"lon":-38.733,"name":"Bussemandgletscher","source":"GeoNames 3424159","tier":3,"type":"glacier"},"type":"Feature"},{"geometry":{"coordinates":[13072.0,-898716.0],"type":"Point"},"properties":{"alt":"Ostenfeld Gletscher","lat":81.717,"lon":-44.167,"name":"C. H. Ostenfeld Gletscher","source":"GeoNames 3424124","tier":3,"type":"glacier"},"type":"Feature"},{"geometry":{"coordinates":[600492.0,-1.464152e6],"type":"Point"},"properties":{"alt":"","lat":75.467,"lon":-22.7,"name":"Canongletscher","source":"GeoNames 3424147","tier":3,"type":"glacier"},"type":"Feature"},{"geometry":{"coordinates":[-281922.0,-959950.0],"type":"Point"},"properties":{"alt":"","lat":80.783,"lon":-61.367,"name":"Cecil Gletscher","source":"GeoNames 3831477","tier":3,"type":"glacier"},"type":"Feature"},{"geometry":{"coordinates":[-573333.0,-1.329259e6],"type":"Point"},"properties":{"alt":"Chamberlin Brae, Chamberlin Bræ","lat":76.694,"lon":-68.331,"name":"Chamberlin Gletscher","source":"GeoNames 3831475","tier":3,"type":"glacier"},"type":"Feature"},{"geometry":{"coordinates":[396192.0,-2.525216e6],"type":"Point"},"properties":{"alt":"Champs Elysees Gletscher, Glacier des Champs-Elysees, Glacier des Champs-Elysées","lat":66.717,"lon":-36.083,"name":"Champs Élysées Gletscher","source":"GeoNames 3424131","tier":3,"type":"glacier"},"type":"Feature"},{"geometry":{"coordinates":[544875.0,-1.776658e6],"type":"Point"},"properties":{"alt":"","lat":72.967,"lon":-27.95,"name":"Charpentier Gletscher","source":"GeoNames 3424126","tier":3,"type":"glacier"},"type":"Feature"},{"geometry":{"coordinates":[-598636.0,-1.146707e6],"type":"Point"},"properties":{"alt":"Child Brae, Child Bræ","lat":78.1,"lon":-72.567,"name":"Chield Gletscher","source":"GeoNames 3831473","tier":3,"type":"glacier"},"type":"Feature"},{"geometry":{"coordinates":[578123.0,-2.235434e6],"type":"Point"},"properties":{"alt":"Christian IV's Gletscher, Christian IV’s Gletscher, Christian den Fjerde Gletscher, Christian den IVs Gletscher","lat":68.917,"lon":-30.5,"name":"Christian IV Gletscher","source":"GeoNames 3424117","tier":3,"type":"glacier"},"type":"Feature"},{"geometry":{"coordinates":[-589817.0,-1.16764e6],"type":"Point"},"properties":{"alt":"Markham Brae, Markham Bræ","lat":77.967,"lon":-71.8,"name":"Clements Markham Gletscher","source":"GeoNames 3831471","tier":3,"type":"glacier"},"type":"Feature"},{"geometry":{"coordinates":[645021.0,-1.547028e6],"type":"Point"},"properties":{"alt":"Copeland Gletsher","lat":74.617,"lon":-22.367,"name":"Copeland Gletscher","source":"GeoNames 3426148","tier":3,"type":"glacier"},"type":"Feature"},{"geometry":{"coordinates":[-327884.0,-1.686817e6],"type":"Point"},"properties":{"alt":"Cornell Brae, Cornell Bræ, Cornell Glacier, Ikigssup Sermerssua, Ikigssûp Sermerssua","lat":74.233,"lon":-56.0,"name":"Cornell Gletscher","source":"GeoNames 3424095","tier":3,"type":"glacier"},"type":"Feature"},{"geometry":{"coordinates":[527386.0,-2.284359e6],"type":"Point"},"properties":{"alt":"Courtaulds Gletscher","lat":68.6,"lon":-32.0,"name":"Courtauld Gletscher","source":"GeoNames 3424090","tier":3,"type":"glacier"},"type":"Feature"},{"geometry":{"coordinates":[540528.0,-1.916566e6],"type":"Point"},"properties":{"alt":"Daugaard-Jensen Gletscher, Daugard-Jensen Gletscher","lat":71.767,"lon":-29.25,"name":"Daugård-Jensen Gletscher","source":"GeoNames 3424063","tier":3,"type":"glacier"},"type":"Feature"},{"geometry":{"coordinates":[493431.0,-934559.0],"type":"Point"},"properties":{"alt":"","lat":80.267,"lon":-17.167,"name":"Depotgletscher","source":"GeoNames 2760344","tier":3,"type":"glacier"},"type":"Feature"},{"geometry":{"coordinates":[-586215.0,-1.171497e6],"type":"Point"},"properties":{"alt":"","lat":77.95,"lon":-71.583,"name":"Diebitsch Gletscher","source":"GeoNames 3831460","tier":3,"type":"glacier"},"type":"Feature"},{"geometry":{"coordinates":[-355987.0,-1.541949e6],"type":"Point"},"properties":{"alt":"Dietrichson Brae, Dietrichson Bræ","lat":75.467,"lon":-58.0,"name":"Dietrichson Gletscher","source":"GeoNames 3424035","tier":3,"type":"glacier"},"type":"Feature"},{"geometry":{"coordinates":[-597246.0,-1.139195e6],"type":"Point"},"properties":{"alt":"Crystal Palace Brae, Crystal Palace Bræ, Dodge Brae","lat":78.167,"lon":-72.667,"name":"Dodge Gletscher","source":"GeoNames 3831456","tier":3,"type":"glacier"},"type":"Feature"},{"geometry":{"coordinates":[430809.0,-921073.0],"type":"Point"},"properties":{"alt":"Draabegletscher, Drabegletscher","lat":80.633,"lon":-19.933,"name":"Dråbegletscher","source":"GeoNames 2760339","tier":3,"type":"glacier"},"type":"Feature"},{"geometry":{"coordinates":[429737.0,-921574.0],"type":"Point"},"properties":{"alt":"","lat":80.633,"lon":-20.0,"name":"Dråben Gletscher","source":"GeoNames 2760338","tier":3,"type":"glacier"},"type":"Feature"},{"geometry":{"coordinates":[582290.0,-1.659666e6],"type":"Point"},"properties":{"alt":"","lat":73.867,"lon":-25.667,"name":"Dukkegletscher","source":"GeoNames 3423994","tier":3,"type":"glacier"},"type":"Feature"},{"geometry":{"coordinates":[-357335.0,-2.591784e6],"type":"Point"},"properties":{"alt":"","lat":66.183,"lon":-52.85,"name":"Dybe Rende","source":"GeoNames 3423985","tier":3,"type":"glacier"},"type":"Feature"},{"geometry":{"coordinates":[-434521.0,-1.429629e6],"type":"Point"},"properties":{"alt":"Docker Smith Gletscher, Docker Smiths Brae, Docker Smiths Bræ","lat":76.27,"lon":-61.906,"name":"Døcker Smith Gletscher","source":"GeoNames 3831458","tier":3,"type":"glacier"},"type":"Feature"},{"geometry":{"coordinates":[663506.0,-1.944184e6],"type":"Point"},"properties":{"alt":"","lat":71.2,"lon":-26.156,"name":"Edward Bailey Glacier","source":"GeoNames 13156584","tier":3,"type":"glacier"},"type":"Feature"},{"geometry":{"coordinates":[564706.0,-1.969363e6],"type":"Point"},"properties":{"alt":"","lat":71.25,"lon":-29.0,"name":"Eielson Gletscher","source":"GeoNames 3423972","tier":3,"type":"glacier"},"type":"Feature"},{"geometry":{"coordinates":[598019.0,-1.441375e6],"type":"Point"},"properties":{"alt":"Ejnar Mikkelsens Gletscher","lat":75.667,"lon":-22.467,"name":"Ejnar Mikkelsen Gletscher","source":"GeoNames 3423965","tier":3,"type":"glacier"},"type":"Feature"},{"geometry":{"coordinates":[821247.0,-1.925386e6],"type":"Point"},"properties":{"alt":"Emmanual Gletscher","lat":70.85,"lon":-21.9,"name":"Emmanuel Gletscher","source":"GeoNames 3423949","tier":3,"type":"glacier"},"type":"Feature"},{"geometry":{"coordinates":[-195034.0,-2.199753e6],"type":"Point"},"properties":{"alt":"Eqip Glacier","lat":69.817,"lon":-50.067,"name":"Eqip Sermia","source":"GeoNames 3423889","tier":3,"type":"glacier"},"type":"Feature"},{"geometry":{"coordinates":[481923.0,-1.718327e6],"type":"Point"},"properties":{"alt":"","lat":73.633,"lon":-29.333,"name":"Evers Gletscher","source":"GeoNames 3423862","tier":3,"type":"glacier"},"type":"Feature"},{"geometry":{"coordinates":[536812.0,-1.644e6],"type":"Point"},"properties":{"alt":"","lat":74.133,"lon":-26.917,"name":"Eyvind Fjeld Gletscher","source":"GeoNames 3423858","tier":3,"type":"glacier"},"type":"Feature"},{"geometry":{"coordinates":[-278806.0,-951391.0],"type":"Point"},"properties":{"alt":"","lat":80.867,"lon":-61.333,"name":"Faith Gletscher","source":"GeoNames 3831441","tier":3,"type":"glacier"},"type":"Feature"},{"geometry":{"coordinates":[-564227.0,-1.228597e6],"type":"Point"},"properties":{"alt":"","lat":77.567,"lon":-69.667,"name":"Fan Gletscher","source":"GeoNames 3831440","tier":3,"type":"glacier"},"type":"Feature"},{"geometry":{"coordinates":[-485448.0,-1.246272e6],"type":"Point"},"properties":{"alt":"Farquhar Brae, Farquhar Bræ","lat":77.699,"lon":-66.282,"name":"Farquhar Gletscher","source":"GeoNames 3831439","tier":3,"type":"glacier"},"type":"Feature"},{"geometry":{"coordinates":[371550.0,-2.536561e6],"type":"Point"},"properties":{"alt":"Femstjernen Gletscher","lat":66.65,"lon":-36.667,"name":"Femstjernen","source":"GeoNames 3423837","tier":3,"type":"glacier"},"type":"Feature"},{"geometry":{"coordinates":[331117.0,-2.561117e6],"type":"Point"},"properties":{"alt":"","lat":66.483,"lon":-37.633,"name":"Fenrisgletscher","source":"GeoNames 3423836","tier":3,"type":"glacier"},"type":"Feature"},{"geometry":{"coordinates":[174466.0,-2.866197e6],"type":"Point"},"properties":{"alt":"","lat":63.933,"lon":-41.517,"name":"Fimbulgletscher","source":"GeoNames 3423832","tier":3,"type":"glacier"},"type":"Feature"},{"geometry":{"coordinates":[553226.0,-2.328202e6],"type":"Point"},"properties":{"alt":"Forbindelsesgletscher","lat":68.167,"lon":-31.633,"name":"Forbindelsegletscher","source":"GeoNames 3423801","tier":3,"type":"glacier"},"type":"Feature"},{"geometry":{"coordinates":[367660.0,-2.540922e6],"type":"Point"},"properties":{"alt":"Franche Comte Gletscher, Glacier de Franche-Comte, Glacier de Franche-Comté","lat":66.617,"lon":-36.767,"name":"Franche Comté Gletscher","source":"GeoNames 3423783","tier":3,"type":"glacier"},"type":"Feature"},{"geometry":{"coordinates":[543445.0,-2.295945e6],"type":"Point"},"properties":{"alt":"Frederiksborg Glacier","lat":68.467,"lon":-31.683,"name":"Frederiksborg Gletscher","source":"GeoNames 3423773","tier":3,"type":"glacier"},"type":"Feature"},{"geometry":{"coordinates":[-264381.0,-3.018851e6],"type":"Point"},"properties":{"alt":"Frederickshaab Isblink, Frederikshaab Ice Field, Frederikshaabs Glacier, Frederikshab Isblink","lat":62.542,"lon":-50.005,"name":"Frederikshåb Isblink","source":"GeoNames 3423770","tier":3,"type":"glacier"},"type":"Feature"},{"geometry":{"coordinates":[574883.0,-1.771063e6],"type":"Point"},"properties":{"alt":"","lat":72.933,"lon":-27.017,"name":"Fulach Gletscher","source":"GeoNames 3423753","tier":3,"type":"glacier"},"type":"Feature"},{"geometry":{"coordinates":[-454305.0,-1.412291e6],"type":"Point"},"properties":{"alt":"Gade Glacier, Gades Brae, Gades Bræ","lat":76.367,"lon":-62.832,"name":"Gade Gletscher","source":"GeoNames 3831423","tier":3,"type":"glacier"},"type":"Feature"},{"geometry":{"coordinates":[428533.0,-928142.0],"type":"Point"},"properties":{"alt":"","lat":80.583,"lon":-20.217,"name":"Gaflen","source":"GeoNames 3423738","tier":3,"type":"glacier"},"type":"Feature"},{"geometry":{"coordinates":[478618.0,-1.136738e6],"type":"Point"},"properties":{"alt":"","lat":78.65,"lon":-22.167,"name":"Gammel Hellerup Gletscher","source":"GeoNames 3423733","tier":3,"type":"glacier"},"type":"Feature"},{"geometry":{"coordinates":[130348.0,-2.965621e6],"type":"Point"},"properties":{"alt":"","lat":63.083,"lon":-42.483,"name":"Garm","source":"GeoNames 3423722","tier":3,"type":"glacier"},"type":"Feature"},{"geometry":{"coordinates":[537453.0,-1.695983e6],"type":"Point"},"properties":{"alt":"De Geer Gletscher, Gerard De Gee Gletscher","lat":73.683,"lon":-27.417,"name":"Gerard De Geer Gletscher","source":"GeoNames 3423702","tier":3,"type":"glacier"},"type":"Feature"},{"geometry":{"coordinates":[208048.0,-2.890611e6],"type":"Point"},"properties":{"alt":"","lat":63.7,"lon":-40.883,"name":"Gerd Gletscher","source":"GeoNames 3423701","tier":3,"type":"glacier"},"type":"Feature"},{"geometry":{"coordinates":[-318546.0,-1.761583e6],"type":"Point"},"properties":{"alt":"Giesecke Braeer, Gieseckes Braer, Gieseckes Bræer, Gieseckes Glacier","lat":73.583,"lon":-55.25,"name":"Giesecke Bræer","source":"GeoNames 3423694","tier":3,"type":"glacier"},"type":"Feature"},{"geometry":{"coordinates":[599394.0,-2.224029e6],"type":"Point"},"properties":{"alt":"","lat":68.967,"lon":-29.917,"name":"Gino Gletscher","source":"GeoNames 3423690","tier":3,"type":"glacier"},"type":"Feature"},{"geometry":{"coordinates":[218113.0,-2.878438e6],"type":"Point"},"properties":{"alt":"","lat":63.8,"lon":-40.667,"name":"Gjallerbroen","source":"GeoNames 3423689","tier":3,"type":"glacier"},"type":"Feature"},{"geometry":{"coordinates":[394499.0,-2.548309e6],"type":"Point"},"properties":{"alt":"","lat":66.517,"lon":-36.2,"name":"Glacier de France","source":"GeoNames 3423784","tier":3,"type":"glacier"},"type":"Feature"},{"geometry":{"coordinates":[641888.0,-1.582103e6],"type":"Point"},"properties":{"alt":"","lat":74.333,"lon":-22.917,"name":"Grantagletscher","source":"GeoNames 3423660","tier":3,"type":"glacier"},"type":"Feature"},{"geometry":{"coordinates":[526118.0,-1.75922e6],"type":"Point"},"properties":{"alt":"","lat":73.167,"lon":-28.35,"name":"Gregory Gletscher","source":"GeoNames 3423649","tier":3,"type":"glacier"},"type":"Feature"},{"geometry":{"coordinates":[825610.0,-1.949744e6],"type":"Point"},"properties":{"alt":"","lat":70.633,"lon":-22.05,"name":"Grete Gletscher","source":"GeoNames 3423646","tier":3,"type":"glacier"},"type":"Feature"},{"geometry":{"coordinates":[561754.0,-2.179988e6],"type":"Point"},"properties":{"alt":"","lat":69.433,"lon":-30.55,"name":"Gronau Gletscher","source":"GeoNames 3423638","tier":3,"type":"glacier"},"type":"Feature"},{"geometry":{"coordinates":[171584.0,-2.818859e6],"type":"Point"},"properties":{"alt":"Graaulv, Graulv","lat":64.35,"lon":-41.517,"name":"Gråulv","source":"GeoNames 3423656","tier":3,"type":"glacier"},"type":"Feature"},{"geometry":{"coordinates":[591434.0,-2.164399e6],"type":"Point"},"properties":{"alt":"","lat":69.5,"lon":-29.717,"name":"Grønlands Styrelse Gletscher","source":"GeoNames 3423636","tier":3,"type":"glacier"},"type":"Feature"},{"geometry":{"coordinates":[128819.0,-2.950431e6],"type":"Point"},"properties":{"alt":"","lat":63.217,"lon":-42.5,"name":"Guldfaxe","source":"GeoNames 3423622","tier":3,"type":"glacier"},"type":"Feature"},{"geometry":{"coordinates":[662452.0,-1.836682e6],"type":"Point"},"properties":{"alt":"","lat":72.117,"lon":-25.167,"name":"Gullygletscher","source":"GeoNames 3423617","tier":3,"type":"glacier"},"type":"Feature"},{"geometry":{"coordinates":[214773.0,-2.890119e6],"type":"Point"},"properties":{"alt":"","lat":63.7,"lon":-40.75,"name":"Gymer Gletscher","source":"GeoNames 3423604","tier":3,"type":"glacier"},"type":"Feature"},{"geometry":{"coordinates":[494956.0,-1.726116e6],"type":"Point"},"properties":{"alt":"","lat":73.533,"lon":-29.0,"name":"Hamberg Gletscher","source":"GeoNames 3423590","tier":3,"type":"glacier"},"type":"Feature"},{"geometry":{"coordinates":[306354.0,-2.63433e6],"type":"Point"},"properties":{"alt":"","lat":65.867,"lon":-38.367,"name":"Hann Gletscher","source":"GeoNames 3423574","tier":3,"type":"glacier"},"type":"Feature"},{"geometry":{"coordinates":[679380.0,-1.942699e6],"type":"Point"},"properties":{"alt":"","lat":71.166,"lon":-25.725,"name":"Hannes Glacier","source":"GeoNames 13156588","tier":3,"type":"glacier"},"type":"Feature"},{"geometry":{"coordinates":[821329.0,-1.947515e6],"type":"Point"},"properties":{"alt":"","lat":70.667,"lon":-22.133,"name":"Hans Gletscher","source":"GeoNames 3423570","tier":3,"type":"glacier"},"type":"Feature"},{"geometry":{"coordinates":[15528.0,-889607.0],"type":"Point"},"properties":{"alt":"","lat":81.8,"lon":-44.0,"name":"Harder Gletscher","source":"GeoNames 3423564","tier":3,"type":"glacier"},"type":"Feature"},{"geometry":{"coordinates":[-504791.0,-1.239841e6],"type":"Point"},"properties":{"alt":"","lat":77.688,"lon":-67.153,"name":"Hart Gletscher","source":"GeoNames 3831407","tier":3,"type":"glacier"},"type":"Feature"},{"geometry":{"coordinates":[664406.0,-1.606657e6],"type":"Point"},"properties":{"alt":"","lat":74.05,"lon":-22.533,"name":"Hausmann Gletscher","source":"GeoNames 3423547","tier":3,"type":"glacier"},"type":"Feature"},{"geometry":{"coordinates":[-343179.0,-1.603065e6],"type":"Point"},"properties":{"alt":"Hayes Brae, Hayes Braeer, Hayes Bræer","lat":74.95,"lon":-57.083,"name":"Hayes Gletscher","source":"GeoNames 3423543","tier":3,"type":"glacier"},"type":"Feature"},{"geometry":{"coordinates":[-478845.0,-1.269277e6],"type":"Point"},"properties":{"alt":"Heilprin Brae","lat":77.524,"lon":-65.669,"name":"Heilprin Gletscher","source":"GeoNames 3831402","tier":3,"type":"glacier"},"type":"Feature"},{"geometry":{"coordinates":[301020.0,-2.621676e6],"type":"Point"},"properties":{"alt":"","lat":65.983,"lon":-38.45,"name":"Heim Gletscher","source":"GeoNames 3423535","tier":3,"type":"glacier"},"type":"Feature"},{"geometry":{"coordinates":[117215.0,-2.983331e6],"type":"Point"},"properties":{"alt":"","lat":62.933,"lon":-42.75,"name":"Heimdal Gletscher","source":"GeoNames 3423536","tier":3,"type":"glacier"},"type":"Feature"},{"geometry":{"coordinates":[612412.0,-1.496935e6],"type":"Point"},"properties":{"alt":"Heinkels Gletscher","lat":75.15,"lon":-22.75,"name":"Heinkel Gletscher","source":"GeoNames 3423534","tier":3,"type":"glacier"},"type":"Feature"},{"geometry":{"coordinates":[307552.0,-2.579205e6],"type":"Point"},"properties":{"alt":"Helheim, Helheim Glacier","lat":66.35,"lon":-38.2,"name":"Helheimgletscher","source":"GeoNames 3423529","tier":3,"type":"glacier"},"type":"Feature"},{"geometry":{"coordinates":[-508574.0,-1.412944e6],"type":"Point"},"properties":{"alt":"Hellands Brae","lat":76.202,"lon":-64.796,"name":"Helland Gletscher","source":"GeoNames 3831400","tier":3,"type":"glacier"},"type":"Feature"},{"geometry":{"coordinates":[67519.0,-827136.0],"type":"Point"},"properties":{"alt":"","lat":82.35,"lon":-40.333,"name":"Henson Gletscher","source":"GeoNames 3423514","tier":3,"type":"glacier"},"type":"Feature"},{"geometry":{"coordinates":[-455595.0,-1.125154e6],"type":"Point"},"properties":{"alt":"Hiawatha Brae","lat":78.828,"lon":-67.044,"name":"Hiawatha Gletscher","source":"GeoNames 3831396","tier":3,"type":"glacier"},"type":"Feature"},{"geometry":{"coordinates":[555572.0,-1.798463e6],"type":"Point"},"properties":{"alt":"","lat":72.75,"lon":-27.833,"name":"Hisinger Gletscher","source":"GeoNames 3423495","tier":3,"type":"glacier"},"type":"Feature"},{"geometry":{"coordinates":[190822.0,-2.937537e6],"type":"Point"},"properties":{"alt":"","lat":63.3,"lon":-41.283,"name":"Hjalte Gletscher","source":"GeoNames 3423493","tier":3,"type":"glacier"},"type":"Feature"},{"geometry":{"coordinates":[423037.0,-910659.0],"type":"Point"},"properties":{"alt":"","lat":80.75,"lon":-20.083,"name":"Hjørne Gletscher","source":"GeoNames 3423483","tier":3,"type":"glacier"},"type":"Feature"},{"geometry":{"coordinates":[129368.0,-865618.0],"type":"Point"},"properties":{"alt":"Hobbs Brae","lat":81.933,"lon":-36.5,"name":"Hobbs Gletscher","source":"GeoNames 3423480","tier":3,"type":"glacier"},"type":"Feature"},{"geometry":{"coordinates":[312828.0,-2.643067e6],"type":"Point"},"properties":{"alt":"","lat":65.783,"lon":-38.25,"name":"Hobbs Gletscher","source":"GeoNames 3423481","tier":3,"type":"glacier"},"type":"Feature"},{"geometry":{"coordinates":[-522966.0,-1.246791e6],"type":"Point"},"properties":{"alt":"Hubbard Brae, Hubbard Bræ","lat":77.566,"lon":-67.756,"name":"Hubbard Gletscher","source":"GeoNames 3831393","tier":3,"type":"glacier"},"type":"Feature"},{"geometry":{"coordinates":[-250565.0,-951712.0],"type":"Point"},"properties":{"alt":"","lat":80.933,"lon":-59.75,"name":"Hubert Gletscher","source":"GeoNames 3423434","tier":3,"type":"glacier"},"type":"Feature"},{"geometry":{"coordinates":[236348.0,-842716.0],"type":"Point"},"properties":{"alt":"Hugh Lee Braeen, Hugh Lee Bræen, Lee Gletscher","lat":81.933,"lon":-29.333,"name":"Hugh Lee Gletscher","source":"GeoNames 3423432","tier":3,"type":"glacier"},"type":"Feature"},{"geometry":{"coordinates":[-536449.0,-1.264819e6],"type":"Point"},"properties":{"alt":"Hurlbut Brae, Hurlbut Bræ","lat":77.367,"lon":-67.983,"name":"Hurlbut Gletscher","source":"GeoNames 3831391","tier":3,"type":"glacier"},"type":"Feature"},{"geometry":{"coordinates":[502116.0,-2.345495e6],"type":"Point"},"properties":{"alt":"Hutchinsons Gletscher","lat":68.117,"lon":-32.917,"name":"Hutchinson Gletscher","source":"GeoNames 3423415","tier":3,"type":"glacier"},"type":"Feature"},{"geometry":{"coordinates":[400365.0,-2.566436e6],"type":"Point"},"properties":{"alt":"","lat":66.35,"lon":-36.133,"name":"Håbet Gletscher","source":"GeoNames 3423603","tier":3,"type":"glacier"},"type":"Feature"},{"geometry":{"coordinates":[405933.0,-2.592234e6],"type":"Point"},"properties":{"alt":"","lat":66.117,"lon":-36.1,"name":"Idrac Gletscher","source":"GeoNames 3423397","tier":3,"type":"glacier"},"type":"Feature"},{"geometry":{"coordinates":[-581459.0,-1.192167e6],"type":"Point"},"properties":{"alt":"","lat":77.8,"lon":-71.0,"name":"Igdluluarssuit Gletscher","source":"GeoNames 3831386","tier":3,"type":"glacier"},"type":"Feature"},{"geometry":{"coordinates":[-410194.0,-1.46081e6],"type":"Point"},"properties":{"alt":"","lat":76.06,"lon":-60.685,"name":"Igssûssarssuit Sermia","source":"GeoNames 3831385","tier":3,"type":"glacier"},"type":"Feature"},{"geometry":{"coordinates":[411706.0,-2.560834e6],"type":"Point"},"properties":{"alt":"Ilectak","lat":66.383,"lon":-35.867,"name":"Ilertak","source":"GeoNames 3423205","tier":3,"type":"glacier"},"type":"Feature"},{"geometry":{"coordinates":[-324376.0,-1.668768e6],"type":"Point"},"properties":{"alt":"Igdlugdlip Sermia","lat":74.4,"lon":-56.0,"name":"Illullip Sermia","source":"GeoNames 3423172","tier":3,"type":"glacier"},"type":"Feature"},{"geometry":{"coordinates":[-280064.0,-1.943513e6],"type":"Point"},"properties":{"alt":"Ingia, Íngia","lat":72.017,"lon":-53.2,"name":"Inngia","source":"GeoNames 3423069","tier":3,"type":"glacier"},"type":"Feature"},{"geometry":{"coordinates":[-252924.0,-1.934189e6],"type":"Point"},"properties":{"alt":"Ingia Isbra, Ingia Isbræ, Inngia Isbrae","lat":72.133,"lon":-52.45,"name":"Inngia Isbræ","source":"GeoNames 3423066","tier":3,"type":"glacier"},"type":"Feature"},{"geometry":{"coordinates":[-211357.0,-2.45696e6],"type":"Point"},"properties":{"alt":"Inugpait Quat, Inugpait Qûat","lat":67.517,"lon":-49.917,"name":"Inuppaat Quuat","source":"GeoNames 3423040","tier":3,"type":"glacier"},"type":"Feature"},{"geometry":{"coordinates":[632789.0,-1.599605e6],"type":"Point"},"properties":{"alt":"","lat":74.217,"lon":-23.417,"name":"Irisgletscher","source":"GeoNames 3423012","tier":3,"type":"glacier"},"type":"Feature"},{"geometry":{"coordinates":[561097.0,-2.253234e6],"type":"Point"},"properties":{"alt":"","lat":68.8,"lon":-31.017,"name":"Isfaldgletscher","source":"GeoNames 3422998","tier":3,"type":"glacier"},"type":"Feature"},{"geometry":{"coordinates":[-225453.0,-2.49337e6],"type":"Point"},"properties":{"alt":"Isunnguata Sermia, Russell Glacier, Isunguata Sermia, Isúnguata Sermia","lat":67.183,"lon":-50.167,"name":"Isunnguata Sermia (Russell Glacier)","source":"GeoNames 3422961","tier":3,"type":"glacier"},"type":"Feature"},{"geometry":{"coordinates":[-545917.0,-1.20525e6],"type":"Point"},"properties":{"alt":"Iterdlagssûp Qíngua, Sun Gletscher, Iterdlagssup Qingua, Sun Brae, Sun Bræ","lat":77.83,"lon":-69.368,"name":"Iterdlagssûp Qíngua (Sun Gletscher)","source":"GeoNames 3831366","tier":3,"type":"glacier"},"type":"Feature"},{"geometry":{"coordinates":[-602632.0,-1.286855e6],"type":"Point"},"properties":{"alt":"Ivar Berendsens Brae, Ivar Berendsens Bræ","lat":76.937,"lon":-70.094,"name":"Ivar Berendsen Gletscher","source":"GeoNames 3831363","tier":3,"type":"glacier"},"type":"Feature"},{"geometry":{"coordinates":[-221910.0,-2.392116e6],"type":"Point"},"properties":{"alt":"","lat":68.083,"lon":-50.3,"name":"J. P. Koch Gletscher","source":"GeoNames 3422754","tier":3,"type":"glacier"},"type":"Feature"},{"geometry":{"coordinates":[33164.0,-3.257448e6],"type":"Point"},"properties":{"alt":"","lat":60.567,"lon":-44.417,"name":"James Gletscher","source":"GeoNames 3422801","tier":3,"type":"glacier"},"type":"Feature"},{"geometry":{"coordinates":[0.0,-3.207613e6],"type":"Point"},"properties":{"alt":"","lat":61.0,"lon":-45.0,"name":"Jespersen Bræ","source":"GeoNames 12524875","tier":3,"type":"glacier"},"type":"Feature"},{"geometry":{"coordinates":[-232380.0,-1.998227e6],"type":"Point"},"properties":{"alt":"","lat":71.583,"lon":-51.633,"name":"Johannes Bræ","source":"GeoNames 3422778","tier":3,"type":"glacier"},"type":"Feature"},{"geometry":{"coordinates":[164947.0,-2.904812e6],"type":"Point"},"properties":{"alt":"","lat":63.6,"lon":-41.75,"name":"Jomfruen","source":"GeoNames 3422767","tier":3,"type":"glacier"},"type":"Feature"},{"geometry":{"coordinates":[241247.0,-841327.0],"type":"Point"},"properties":{"alt":"","lat":81.933,"lon":-29.0,"name":"Josephine Gletscher","source":"GeoNames 3422759","tier":3,"type":"glacier"},"type":"Feature"},{"geometry":{"coordinates":[47871.0,-843033.0],"type":"Point"},"properties":{"alt":"Jungersens Gletscher","lat":82.217,"lon":-41.75,"name":"Jungersen Gletscher","source":"GeoNames 3422746","tier":3,"type":"glacier"},"type":"Feature"},{"geometry":{"coordinates":[350807.0,-2.52813e6],"type":"Point"},"properties":{"alt":"Glacier du Jura","lat":66.75,"lon":-37.1,"name":"Juragletscheren","source":"GeoNames 3422745","tier":3,"type":"glacier"},"type":"Feature"},{"geometry":{"coordinates":[529852.0,-1.733069e6],"type":"Point"},"properties":{"alt":"","lat":73.383,"lon":-28.0,"name":"Jættegletscher","source":"GeoNames 3422815","tier":3,"type":"glacier"},"type":"Feature"},{"geometry":{"coordinates":[449497.0,-2.527728e6],"type":"Point"},"properties":{"alt":"K.I.V. Steenstrups Nordre Brae, K.I.V. Steenstrups North Glacier, Steenstrups Nordre Bra, Steenstrups Nordre Bræ","lat":66.617,"lon":-34.917,"name":"K.I.V. Steenstrups Nordre Bræ","source":"GeoNames 3422371","tier":3,"type":"glacier"},"type":"Feature"},{"geometry":{"coordinates":[442469.0,-2.53088e6],"type":"Point"},"properties":{"alt":"K.I.V. Steenstrups Sondre Brae, K.I.V. Steenstrups South Glacier, Steenstrups Sondre Brae, Sulugsut, Sulugsût","lat":66.6,"lon":-35.083,"name":"K.I.V. Steenstrups Søndre Bræ","source":"GeoNames 3422370","tier":3,"type":"glacier"},"type":"Feature"},{"geometry":{"coordinates":[379038.0,-2.59821e6],"type":"Point"},"properties":{"alt":"Karale Gletscher, Kârale Gletscher","lat":66.1,"lon":-36.7,"name":"Kaarali Gletscher","source":"GeoNames 3422741","tier":3,"type":"glacier"},"type":"Feature"},{"geometry":{"coordinates":[420909.0,-2.551708e6],"type":"Point"},"properties":{"alt":"","lat":66.45,"lon":-35.633,"name":"Kagtilersarpia","source":"GeoNames 3422733","tier":3,"type":"glacier"},"type":"Feature"},{"geometry":{"coordinates":[-320512.0,-1.772457e6],"type":"Point"},"properties":{"alt":"","lat":73.483,"lon":-55.25,"name":"Kakivfait Sermiat","source":"GeoNames 3422724","tier":3,"type":"glacier"},"type":"Feature"},{"geometry":{"coordinates":[836070.0,-2.011825e6],"type":"Point"},"properties":{"alt":"","lat":70.083,"lon":-22.433,"name":"Kamelgletscher","source":"GeoNames 3422712","tier":3,"type":"glacier"},"type":"Feature"},{"geometry":{"coordinates":[-235741.0,-2.837052e6],"type":"Point"},"properties":{"alt":"","lat":64.15,"lon":-49.75,"name":"Kangaussarssûp Sermia","source":"GeoNames 3422675","tier":3,"type":"glacier"},"type":"Feature"},{"geometry":{"coordinates":[-228782.0,-2.039638e6],"type":"Point"},"properties":{"alt":"Kangerdluarssup Sermia, Kangerdluarssûp Sermia","lat":71.217,"lon":-51.4,"name":"Kangerluarsuup Sermia","source":"GeoNames 3422648","tier":3,"type":"glacier"},"type":"Feature"},{"geometry":{"coordinates":[492108.0,-2.292217e6],"type":"Point"},"properties":{"alt":"Kangerdlugssuaqs Gletscher","lat":68.6,"lon":-32.883,"name":"Kangerlussuaq Gletscher","source":"GeoNames 3422597","tier":3,"type":"glacier"},"type":"Feature"},{"geometry":{"coordinates":[-222467.0,-2.82671e6],"type":"Point"},"properties":{"alt":"","lat":64.25,"lon":-49.5,"name":"Kangiata Nunâta Sermia","source":"GeoNames 3422578","tier":3,"type":"glacier"},"type":"Feature"},{"geometry":{"coordinates":[-196427.0,-2.186564e6],"type":"Point"},"properties":{"alt":"Kangilerngata Sermia","lat":69.933,"lon":-50.133,"name":"Kangilernata Sermia","source":"GeoNames 3422562","tier":3,"type":"glacier"},"type":"Feature"},{"geometry":{"coordinates":[-205530.0,-2.096155e6],"type":"Point"},"properties":{"alt":"Kangigdleq Glacier, Kangigdleq Isbrae","lat":70.733,"lon":-50.6,"name":"Kangilleq","source":"GeoNames 3422550","tier":3,"type":"glacier"},"type":"Feature"},{"geometry":{"coordinates":[-219260.0,-1.975503e6],"type":"Point"},"properties":{"alt":"Kangilliup Sermia, Rink Isbræ, Kangigdleq, Kangigdliup Sermia, Rink Brae, Rink Isbrae","lat":71.8,"lon":-51.333,"name":"Kangilliup Sermia (Rink Isbræ)","source":"GeoNames 3420295","tier":3,"type":"glacier"},"type":"Feature"},{"geometry":{"coordinates":[-233965.0,-2.757361e6],"type":"Point"},"properties":{"alt":"","lat":64.85,"lon":-49.85,"name":"Kangilínguata Sermia","source":"GeoNames 3422552","tier":3,"type":"glacier"},"type":"Feature"},{"geometry":{"coordinates":[-14788.0,-3.176848e6],"type":"Point"},"properties":{"alt":"Kiagtut Sermiat, Kiagtût Sermiat, Kiatut Brae, Kiatût Brae","lat":61.267,"lon":-45.267,"name":"Kiattuut Sermiat","source":"GeoNames 3422471","tier":3,"type":"glacier"},"type":"Feature"},{"geometry":{"coordinates":[-625015.0,-1.215276e6],"type":"Point"},"properties":{"alt":"","lat":77.433,"lon":-72.217,"name":"Kissel Gletscher","source":"GeoNames 3831335","tier":3,"type":"glacier"},"type":"Feature"},{"geometry":{"coordinates":[-356264.0,-1.585165e6],"type":"Point"},"properties":{"alt":"Kjaers Brae, Kjærs Bræ","lat":75.083,"lon":-57.667,"name":"Kjer Gletscher","source":"GeoNames 3422368","tier":3,"type":"glacier"},"type":"Feature"},{"geometry":{"coordinates":[649333.0,-1.547219e6],"type":"Point"},"properties":{"alt":"","lat":74.6,"lon":-22.233,"name":"Kløftgletscher","source":"GeoNames 3426147","tier":3,"type":"glacier"},"type":"Feature"},{"geometry":{"coordinates":[400833.0,-2.589221e6],"type":"Point"},"properties":{"alt":"Knud Rasmussen Glacier, Knud Rasmussens Gletscher","lat":66.15,"lon":-36.2,"name":"Knud Rasmussen Gletscher","source":"GeoNames 3422344","tier":3,"type":"glacier"},"type":"Feature"},{"geometry":{"coordinates":[-559554.0,-1.330131e6],"type":"Point"},"properties":{"alt":"Knud Rasmussens Brae, Knud Rasmussens Bræ","lat":76.736,"lon":-67.815,"name":"Knud Rasmussen Gletscher","source":"GeoNames 3831331","tier":3,"type":"glacier"},"type":"Feature"},{"geometry":{"coordinates":[531157.0,-1.241274e6],"type":"Point"},"properties":{"alt":"Hansens Bra, Hansens Bræ, Kofoed Hansen Brae, Kofoed-Hansen Brae, Kofoed-Hansen Glacier","lat":77.583,"lon":-21.833,"name":"Kofoed-Hansen Bræ","source":"GeoNames 3422333","tier":3,"type":"glacier"},"type":"Feature"},{"geometry":{"coordinates":[-390122.0,-1.473085e6],"type":"Point"},"properties":{"alt":"Kong Oscar Brae, Kong Oscar Bræ","lat":76.0,"lon":-59.833,"name":"Kong Oscar Gletscher","source":"GeoNames 3422317","tier":3,"type":"glacier"},"type":"Feature"},{"geometry":{"coordinates":[594940.0,-2.24647e6],"type":"Point"},"properties":{"alt":"","lat":68.783,"lon":-30.167,"name":"Korridoren","source":"GeoNames 3422306","tier":3,"type":"glacier"},"type":"Feature"},{"geometry":{"coordinates":[398394.0,-2.515362e6],"type":"Point"},"properties":{"alt":"Glacier Kristian, Kristians Gletscher","lat":66.8,"lon":-36.0,"name":"Kristian Gletscher","source":"GeoNames 3422297","tier":3,"type":"glacier"},"type":"Feature"},{"geometry":{"coordinates":[656540.0,-2.233133e6],"type":"Point"},"properties":{"alt":"Kronborg Glacier","lat":68.75,"lon":-28.617,"name":"Kronborg Gletscher","source":"GeoNames 3422295","tier":3,"type":"glacier"},"type":"Feature"},{"geometry":{"coordinates":[510007.0,-1.371178e6],"type":"Point"},"properties":{"alt":"","lat":76.555,"lon":-24.597,"name":"Kursbræen","source":"GeoNames 3422216","tier":3,"type":"glacier"},"type":"Feature"},{"geometry":{"coordinates":[510531.0,-2.318804e6],"type":"Point"},"properties":{"alt":"","lat":68.333,"lon":-32.583,"name":"Kælvegletscher","source":"GeoNames 3422739","tier":3,"type":"glacier"},"type":"Feature"},{"geometry":{"coordinates":[554503.0,-1.389872e6],"type":"Point"},"properties":{"alt":"L. Bistrup Brae, L. Bistrup Glacier, L. Bistrups Bra, L. Bistrups Bræ","lat":76.25,"lon":-23.25,"name":"L. Bistrup Bræ","source":"GeoNames 3422122","tier":3,"type":"glacier"},"type":"Feature"},{"geometry":{"coordinates":[568598.0,-1.792447e6],"type":"Point"},"properties":{"alt":"","lat":72.767,"lon":-27.4,"name":"Langenthaler Gletscher","source":"GeoNames 3422142","tier":3,"type":"glacier"},"type":"Feature"},{"geometry":{"coordinates":[474764.0,-2.484866e6],"type":"Point"},"properties":{"alt":"Laubes Glacier","lat":66.95,"lon":-34.183,"name":"Laubes Gletscher","source":"GeoNames 3422129","tier":3,"type":"glacier"},"type":"Feature"},{"geometry":{"coordinates":[533738.0,-1.753074e6],"type":"Point"},"properties":{"alt":"","lat":73.2,"lon":-28.067,"name":"Lavinegletscher","source":"GeoNames 3422124","tier":3,"type":"glacier"},"type":"Feature"},{"geometry":{"coordinates":[-497222.0,-1.29244e6],"type":"Point"},"properties":{"alt":"","lat":77.267,"lon":-66.042,"name":"Leidy Gletscher","source":"GeoNames 3831326","tier":3,"type":"glacier"},"type":"Feature"},{"geometry":{"coordinates":[534701.0,-1.74893e6],"type":"Point"},"properties":{"alt":"","lat":73.233,"lon":-28.0,"name":"Lejrgletscher","source":"GeoNames 3422117","tier":3,"type":"glacier"},"type":"Feature"},{"geometry":{"coordinates":[215076.0,-2.774078e6],"type":"Point"},"properties":{"alt":"Lemon Brae, Lemons Bra, Lemons Bræ","lat":64.717,"lon":-40.567,"name":"Lemon Bræ","source":"GeoNames 3422111","tier":3,"type":"glacier"},"type":"Feature"},{"geometry":{"coordinates":[-203827.0,-2.116827e6],"type":"Point"},"properties":{"alt":"Lille Karajak Brae, Lille Karajak Bræ, Lille Karajaks Isbrae, Lille Karajaks Isbræ, Lille Qarajaq Brae, Lille Qarajaq Bræ","lat":70.55,"lon":-50.5,"name":"Lille Gletscher","source":"GeoNames 3422094","tier":3,"type":"glacier"},"type":"Feature"},{"geometry":{"coordinates":[586611.0,-1.410401e6],"type":"Point"},"properties":{"alt":"","lat":75.967,"lon":-22.417,"name":"Lillegletscher","source":"GeoNames 3422093","tier":3,"type":"glacier"},"type":"Feature"},{"geometry":{"coordinates":[541964.0,-1.711938e6],"type":"Point"},"properties":{"alt":"Louises Glacier","lat":73.533,"lon":-27.433,"name":"Louise Gletscher","source":"GeoNames 3422070","tier":3,"type":"glacier"},"type":"Feature"},{"geometry":{"coordinates":[82767.0,-787480.0],"type":"Point"},"properties":{"alt":"","lat":82.7,"lon":-39.0,"name":"Lurgletscher","source":"GeoNames 3422059","tier":3,"type":"glacier"},"type":"Feature"},{"geometry":{"coordinates":[-351547.0,-2.588768e6],"type":"Point"},"properties":{"alt":"","lat":66.217,"lon":-52.733,"name":"Lyngbræ","source":"GeoNames 3422054","tier":3,"type":"glacier"},"type":"Feature"},{"geometry":{"coordinates":[-338958.0,-2.236844e6],"type":"Point"},"properties":{"alt":"Lyngksbraeen, Lyngmarkbraeen, Lyngmarks Glacier, Lyngmarksbra, Lyngmarksbræ","lat":69.333,"lon":-53.617,"name":"Lyngmarkbræen","source":"GeoNames 3422052","tier":3,"type":"glacier"},"type":"Feature"},{"geometry":{"coordinates":[541312.0,-1.746895e6],"type":"Point"},"properties":{"alt":"","lat":73.233,"lon":-27.783,"name":"Lystergletscher","source":"GeoNames 3422049","tier":3,"type":"glacier"},"type":"Feature"},{"geometry":{"coordinates":[142692.0,-701352.0],"type":"Point"},"properties":{"alt":"","lat":83.4,"lon":-33.5,"name":"MacMillan Gletscher","source":"GeoNames 3422043","tier":3,"type":"glacier"},"type":"Feature"},{"geometry":{"coordinates":[494443.0,-929912.0],"type":"Point"},"properties":{"alt":"","lat":80.3,"lon":-17.0,"name":"Mallemukgletscher","source":"GeoNames 2760268","tier":3,"type":"glacier"},"type":"Feature"},{"geometry":{"coordinates":[-500262.0,-1.298611e6],"type":"Point"},"properties":{"alt":"Marre Gletscher","lat":77.205,"lon":-66.068,"name":"Marie Gletscher","source":"GeoNames 3831309","tier":3,"type":"glacier"},"type":"Feature"},{"geometry":{"coordinates":[154502.0,-876225.0],"type":"Point"},"properties":{"alt":"Marie Sophia Braeen, Marie Sophia Bræen","lat":81.8,"lon":-35.0,"name":"Marie Sophie Gletscher","source":"GeoNames 3421955","tier":3,"type":"glacier"},"type":"Feature"},{"geometry":{"coordinates":[678381.0,-1.94081e6],"type":"Point"},"properties":{"alt":"","lat":71.185,"lon":-25.734,"name":"Marmot Valley Glacier","source":"GeoNames 13156590","tier":3,"type":"glacier"},"type":"Feature"},{"geometry":{"coordinates":[-561168.0,-1.191777e6],"type":"Point"},"properties":{"alt":"Meehan Brae, Meehan Bræ, Meehan Glacier","lat":77.883,"lon":-70.214,"name":"Meehan Gletscher","source":"GeoNames 3831303","tier":3,"type":"glacier"},"type":"Feature"},{"geometry":{"coordinates":[-492079.0,-1.239321e6],"type":"Point"},"properties":{"alt":"Melville Brae","lat":77.736,"lon":-66.656,"name":"Melville Gletscher","source":"GeoNames 3831300","tier":3,"type":"glacier"},"type":"Feature"},{"geometry":{"coordinates":[545858.0,-1.772501e6],"type":"Point"},"properties":{"alt":"","lat":73.0,"lon":-27.883,"name":"Mercanton Gletscher","source":"GeoNames 3421914","tier":3,"type":"glacier"},"type":"Feature"},{"geometry":{"coordinates":[366207.0,-2.567736e6],"type":"Point"},"properties":{"alt":"Midgaardgletscher, Midgardgletscher, Midgardsgletscher, Midgârdgletscher","lat":66.383,"lon":-36.883,"name":"Midgårdsgletscher","source":"GeoNames 3421899","tier":3,"type":"glacier"},"type":"Feature"},{"geometry":{"coordinates":[819656.0,-2.018568e6],"type":"Point"},"properties":{"alt":"","lat":70.083,"lon":-22.9,"name":"Milano Gletscher","source":"GeoNames 3421890","tier":3,"type":"glacier"},"type":"Feature"},{"geometry":{"coordinates":[-586422.0,-1.259629e6],"type":"Point"},"properties":{"alt":"Misumassok Gletscher, Misumassoq, Misumassoq Gletscher, Misûmassok Gletscher","lat":77.225,"lon":-69.964,"name":"Misûmassoq","source":"GeoNames 3831295","tier":3,"type":"glacier"},"type":"Feature"},{"geometry":{"coordinates":[333573.0,-2.650735e6],"type":"Point"},"properties":{"alt":"","lat":65.694,"lon":-37.828,"name":"Mittivakkat Glacier","source":"GeoNames 12207011","tier":3,"type":"glacier"},"type":"Feature"},{"geometry":{"coordinates":[-478586.0,-1.415777e6],"type":"Point"},"properties":{"alt":"Mohn Brae, Mohn Bræ","lat":76.268,"lon":-63.677,"name":"Mohn Gletscher","source":"GeoNames 3831293","tier":3,"type":"glacier"},"type":"Feature"},{"geometry":{"coordinates":[207311.0,-688818.0],"type":"Point"},"properties":{"alt":"","lat":83.367,"lon":-28.25,"name":"Moore Gletscher","source":"GeoNames 3421856","tier":3,"type":"glacier"},"type":"Feature"},{"geometry":{"coordinates":[-449514.0,-1.423293e6],"type":"Point"},"properties":{"alt":"Morell Brae, Morell Bræ","lat":76.285,"lon":-62.528,"name":"Morell Gletscher","source":"GeoNames 3831291","tier":3,"type":"glacier"},"type":"Feature"},{"geometry":{"coordinates":[-572993.0,-1.180017e6],"type":"Point"},"properties":{"alt":"Jesup Brae","lat":77.934,"lon":-70.9,"name":"Morris Jesup Gletscher","source":"GeoNames 3831288","tier":3,"type":"glacier"},"type":"Feature"},{"geometry":{"coordinates":[481643.0,-905839.0],"type":"Point"},"properties":{"alt":"","lat":80.55,"lon":-17.0,"name":"Mågegletscher","source":"GeoNames 2760270","tier":3,"type":"glacier"},"type":"Feature"},{"geometry":{"coordinates":[771524.0,-2.027502e6],"type":"Point"},"properties":{"alt":"","lat":70.167,"lon":-24.167,"name":"Månegletscher","source":"GeoNames 3422001","tier":3,"type":"glacier"},"type":"Feature"},{"geometry":{"coordinates":[-237358.0,-2.960883e6],"type":"Point"},"properties":{"alt":"Naujarssuit, Naujarsuit","lat":63.067,"lon":-49.583,"name":"Nakaissorssuaq","source":"GeoNames 3421789","tier":3,"type":"glacier"},"type":"Feature"},{"geometry":{"coordinates":[-368734.0,-1.506891e6],"type":"Point"},"properties":{"alt":"Nansen Brae, Nansen Bræ","lat":75.75,"lon":-58.75,"name":"Nansen Gletscher","source":"GeoNames 3421759","tier":3,"type":"glacier"},"type":"Feature"},{"geometry":{"coordinates":[-230720.0,-2.776627e6],"type":"Point"},"properties":{"alt":"Narssap Sermia","lat":64.683,"lon":-49.75,"name":"Narsap Sermia","source":"GeoNames 3421724","tier":3,"type":"glacier"},"type":"Feature"},{"geometry":{"coordinates":[-200617.0,-3.074553e6],"type":"Point"},"properties":{"alt":"Nigerdlikasik Bra, Nigerdlikasik Bræ, Nigerlikasik Brae","lat":62.1,"lon":-48.733,"name":"Nigerlikasik Bræ","source":"GeoNames 3421546","tier":3,"type":"glacier"},"type":"Feature"},{"geometry":{"coordinates":[454774.0,-1.045909e6],"type":"Point"},"properties":{"alt":"Nioghalvfjerdsfjord, Nioghalvfjerdsfjorden, Seventy-nine Fjord","lat":79.5,"lon":-21.5,"name":"Nioghalvfjerdsbrae","source":"GeoNames 3421535","tier":3,"type":"glacier"},"type":"Feature"},{"geometry":{"coordinates":[666045.0,-1.607974e6],"type":"Point"},"properties":{"alt":"","lat":74.033,"lon":-22.5,"name":"Nippoldt Gletscher","source":"GeoNames 3421528","tier":3,"type":"glacier"},"type":"Feature"},{"geometry":{"coordinates":[537870.0,-1.863496e6],"type":"Point"},"properties":{"alt":"","lat":72.233,"lon":-28.9,"name":"Nord Gletscher","source":"GeoNames 3421488","tier":3,"type":"glacier"},"type":"Feature"},{"geometry":{"coordinates":[-373975.0,-1.499934e6],"type":"Point"},"properties":{"alt":"Nordenskiold Brae, Nordenskiold Gletscher, Nordenskiolds Gletscher, Nordenskiöld Brae, Nordenskiölds Gletscher","lat":75.8,"lon":-59.0,"name":"Nordenskiöld Gletscher","source":"GeoNames 3421501","tier":3,"type":"glacier"},"type":"Feature"},{"geometry":{"coordinates":[-255055.0,-2.360602e6],"type":"Point"},"properties":{"alt":"Akuliarutsip Sermerssua, Nordenskiold Gletscher, Nordenskjolds Glacier, Nordenskjolds Isbrae, Nordenskjölds Isbrae","lat":68.333,"lon":-51.167,"name":"Nordenskiöld Gletscher","source":"GeoNames 3421502","tier":3,"type":"glacier"},"type":"Feature"},{"geometry":{"coordinates":[498377.0,-2.279397e6],"type":"Point"},"properties":{"alt":"","lat":68.7,"lon":-32.667,"name":"Nordfjord Gletscher","source":"GeoNames 3421492","tier":3,"type":"glacier"},"type":"Feature"},{"geometry":{"coordinates":[517677.0,-2.319127e6],"type":"Point"},"properties":{"alt":"","lat":68.317,"lon":-32.417,"name":"Nordre Syenitgletscher","source":"GeoNames 3421466","tier":3,"type":"glacier"},"type":"Feature"},{"geometry":{"coordinates":[-542537.0,-1.339459e6],"type":"Point"},"properties":{"alt":"","lat":76.717,"lon":-67.05,"name":"Nordre Tvillinggletscher","source":"GeoNames 3831267","tier":3,"type":"glacier"},"type":"Feature"},{"geometry":{"coordinates":[-326993.0,-1.643904e6],"type":"Point"},"properties":{"alt":"","lat":74.617,"lon":-56.25,"name":"Nunatakavsaup Sermia","source":"GeoNames 3421374","tier":3,"type":"glacier"},"type":"Feature"},{"geometry":{"coordinates":[-316934.0,-1.79742e6],"type":"Point"},"properties":{"alt":"","lat":73.267,"lon":-55.0,"name":"Nunatakavsaup Sermia","source":"GeoNames 3421375","tier":3,"type":"glacier"},"type":"Feature"},{"geometry":{"coordinates":[565436.0,-1.649935e6],"type":"Point"},"properties":{"alt":"","lat":74.0,"lon":-26.083,"name":"Nunatakgletscher","source":"GeoNames 3421373","tier":3,"type":"glacier"},"type":"Feature"},{"geometry":{"coordinates":[135351.0,-879387.0],"type":"Point"},"properties":{"alt":"Nyeboes Gletscher","lat":81.8,"lon":-36.25,"name":"Nyeboe Gletscher","source":"GeoNames 3421289","tier":3,"type":"glacier"},"type":"Feature"},{"geometry":{"coordinates":[359770.0,-2.517386e6],"type":"Point"},"properties":{"alt":"Glacier de Paris","lat":66.833,"lon":-36.867,"name":"Paris Gletscher","source":"GeoNames 3421140","tier":3,"type":"glacier"},"type":"Feature"},{"geometry":{"coordinates":[-621949.0,-1.218891e6],"type":"Point"},"properties":{"alt":"","lat":77.417,"lon":-72.033,"name":"Parish Gletscher","source":"GeoNames 3831241","tier":3,"type":"glacier"},"type":"Feature"},{"geometry":{"coordinates":[635919.0,-1.542855e6],"type":"Point"},"properties":{"alt":"","lat":74.683,"lon":-22.6,"name":"Pasterze","source":"GeoNames 3421131","tier":3,"type":"glacier"},"type":"Feature"},{"geometry":{"coordinates":[584823.0,-1.744482e6],"type":"Point"},"properties":{"alt":"","lat":73.133,"lon":-26.467,"name":"Payer Gletscher","source":"GeoNames 3421121","tier":3,"type":"glacier"},"type":"Feature"},{"geometry":{"coordinates":[-402865.0,-1.455724e6],"type":"Point"},"properties":{"alt":"Peary Brae, Peary Bræ, Pearys Gletscher","lat":76.122,"lon":-60.469,"name":"Peary Gletscher","source":"GeoNames 3831235","tier":3,"type":"glacier"},"type":"Feature"},{"geometry":{"coordinates":[-211236.0,-2.067623e6],"type":"Point"},"properties":{"alt":"Perlerfiup Sermia, Ingnerit Bræ, Ingerits Isbrae, Ingnerit, Ingnerit Brae, Perdlerfiup Sermia","lat":70.983,"lon":-50.833,"name":"Perlerfiup Sermia (Ingnerit Bræ)","source":"GeoNames 3421104","tier":3,"type":"glacier"},"type":"Feature"},{"geometry":{"coordinates":[-258237.0,-998527.0],"type":"Point"},"properties":{"alt":"Petermann Glacier, Petermanns Gletscher","lat":80.5,"lon":-59.5,"name":"Petermann Gletscher","source":"GeoNames 3421093","tier":3,"type":"glacier"},"type":"Feature"},{"geometry":{"coordinates":[-582837.0,-1.325156e6],"type":"Point"},"properties":{"alt":"Pinguarsuit Sermiat, Salisbury Gletscher, Pinguarssuit Sermiat, Salesbury Brae, Salesbury Bræ, Salesbury Gletscher","lat":76.694,"lon":-68.741,"name":"Pinguarsuit Sermiat (Salisbury Gletscher)","source":"GeoNames 3831228","tier":3,"type":"glacier"},"type":"Feature"},{"geometry":{"coordinates":[-603029.0,-1.370416e6],"type":"Point"},"properties":{"alt":"Petowick Glacier, Petowik Brae, Petowik Gletscher, Pitugfik, Pitugfik Gletscher","lat":76.242,"lon":-68.751,"name":"Pituffik Gletscher","source":"GeoNames 3831223","tier":3,"type":"glacier"},"type":"Feature"},{"geometry":{"coordinates":[-587921.0,-1.276214e6],"type":"Point"},"properties":{"alt":"","lat":77.082,"lon":-69.734,"name":"Politiken Bræ","source":"GeoNames 3831219","tier":3,"type":"glacier"},"type":"Feature"},{"geometry":{"coordinates":[501660.0,-1.381976e6],"type":"Point"},"properties":{"alt":"","lat":76.488,"lon":-25.049,"name":"Pony Gletscher","source":"GeoNames 12104924","tier":3,"type":"glacier"},"type":"Feature"},{"geometry":{"coordinates":[-245556.0,-984873.0],"type":"Point"},"properties":{"alt":"","lat":80.65,"lon":-59.0,"name":"Porsild Gletscher","source":"GeoNames 3421038","tier":3,"type":"glacier"},"type":"Feature"},{"geometry":{"coordinates":[540909.0,-1.752807e6],"type":"Point"},"properties":{"alt":"","lat":73.183,"lon":-27.85,"name":"Portgletscher","source":"GeoNames 3421033","tier":3,"type":"glacier"},"type":"Feature"},{"geometry":{"coordinates":[401334.0,-2.533926e6],"type":"Point"},"properties":{"alt":"","lat":66.633,"lon":-36.0,"name":"Pourquoi Pas Gletscher","source":"GeoNames 3421018","tier":3,"type":"glacier"},"type":"Feature"},{"geometry":{"coordinates":[146852.0,-3.094827e6],"type":"Point"},"properties":{"alt":"Puisortok, Puisortok Glacier","lat":61.95,"lon":-42.283,"name":"Puisortoq","source":"GeoNames 3420988","tier":3,"type":"glacier"},"type":"Feature"},{"geometry":{"coordinates":[-557917.0,-1.239494e6],"type":"Point"},"properties":{"alt":"Kanad Gletscher, Kanâd Gletscher, Qanaq Gletscher, Qânâq Gletscher","lat":77.5,"lon":-69.233,"name":"Qaanaaq Gletscher","source":"GeoNames 3831207","tier":3,"type":"glacier"},"type":"Feature"},{"geometry":{"coordinates":[-220385.0,-2.800262e6],"type":"Point"},"properties":{"alt":"","lat":64.483,"lon":-49.5,"name":"Qamanârssûp Sermia","source":"GeoNames 3420889","tier":3,"type":"glacier"},"type":"Feature"},{"geometry":{"coordinates":[-336413.0,-2.662982e6],"type":"Point"},"properties":{"alt":"","lat":65.583,"lon":-52.2,"name":"Qapiarfiup Sermia","source":"GeoNames 3420868","tier":3,"type":"glacier"},"type":"Feature"},{"geometry":{"coordinates":[-544039.0,-1.227694e6],"type":"Point"},"properties":{"alt":"Kankoklah Brae, Kankoklah Bræ, Kankoklah Gletscher, Kankolah Gletscher, Krakokta Glacier","lat":77.65,"lon":-68.9,"name":"Qaqortaq Gletscher","source":"GeoNames 3831202","tier":3,"type":"glacier"},"type":"Feature"},{"geometry":{"coordinates":[-230457.0,-2.734883e6],"type":"Point"},"properties":{"alt":"Kavdlunatsiait, Qavdlunatsiait","lat":65.05,"lon":-49.817,"name":"Qavdlunâtsiait","source":"GeoNames 3420717","tier":3,"type":"glacier"},"type":"Feature"},{"geometry":{"coordinates":[-325893.0,-1.758362e6],"type":"Point"},"properties":{"alt":"Qeqertarssup Sermia, Qeqertarssûp Sermia","lat":73.6,"lon":-55.5,"name":"Qeqertarsuup Sermia","source":"GeoNames 3420624","tier":3,"type":"glacier"},"type":"Feature"},{"geometry":{"coordinates":[62135.0,-3.285924e6],"type":"Point"},"properties":{"alt":"","lat":60.317,"lon":-43.917,"name":"Qiporqaq","source":"GeoNames 3420489","tier":3,"type":"glacier"},"type":"Feature"},{"geometry":{"coordinates":[-283839.0,-2.019621e6],"type":"Point"},"properties":{"alt":"Qungulertussup Sermia","lat":71.333,"lon":-53.0,"name":"Qungulertusup Sermia","source":"GeoNames 3420381","tier":3,"type":"glacier"},"type":"Feature"},{"geometry":{"coordinates":[-539618.0,-1.333609e6],"type":"Point"},"properties":{"alt":"","lat":76.776,"lon":-67.03,"name":"Rampen","source":"GeoNames 3831170","tier":3,"type":"glacier"},"type":"Feature"},{"geometry":{"coordinates":[551895.0,-1.762899e6],"type":"Point"},"properties":{"alt":"","lat":73.067,"lon":-27.617,"name":"Riddergletscher","source":"GeoNames 3420307","tier":3,"type":"glacier"},"type":"Feature"},{"geometry":{"coordinates":[132679.0,-2.940737e6],"type":"Point"},"properties":{"alt":"","lat":63.3,"lon":-42.417,"name":"Rimfaxe","source":"GeoNames 3420302","tier":3,"type":"glacier"},"type":"Feature"},{"geometry":{"coordinates":[-417795.0,-1.442682e6],"type":"Point"},"properties":{"alt":"Rink Brae, Rink Bræ, Rinks Gletscher","lat":76.199,"lon":-61.151,"name":"Rink Gletscher","source":"GeoNames 3831165","tier":3,"type":"glacier"},"type":"Feature"},{"geometry":{"coordinates":[-619467.0,-1.220154e6],"type":"Point"},"properties":{"alt":"","lat":77.417,"lon":-71.917,"name":"Robin Gletscher","source":"GeoNames 3831162","tier":3,"type":"glacier"},"type":"Feature"},{"geometry":{"coordinates":[585663.0,-2.042448e6],"type":"Point"},"properties":{"alt":"Rolige Brae, Rolige Gletscher","lat":70.567,"lon":-29.0,"name":"Rolige Bræ","source":"GeoNames 3420264","tier":3,"type":"glacier"},"type":"Feature"},{"geometry":{"coordinates":[826227.0,-2.017888e6],"type":"Point"},"properties":{"alt":"","lat":70.067,"lon":-22.733,"name":"Roma Gletscher","source":"GeoNames 3420263","tier":3,"type":"glacier"},"type":"Feature"},{"geometry":{"coordinates":[625029.0,-2.253782e6],"type":"Point"},"properties":{"alt":"Rosenborg Glacier","lat":68.65,"lon":-29.5,"name":"Rosenborg Gletscher","source":"GeoNames 3420255","tier":3,"type":"glacier"},"type":"Feature"},{"geometry":{"coordinates":[155818.0,-2.924362e6],"type":"Point"},"properties":{"alt":"","lat":63.433,"lon":-41.95,"name":"Rumleren","source":"GeoNames 3420246","tier":3,"type":"glacier"},"type":"Feature"},{"geometry":{"coordinates":[661363.0,-1.609905e6],"type":"Point"},"properties":{"alt":"","lat":74.033,"lon":-22.667,"name":"Rungstedsgletscher","source":"GeoNames 3420242","tier":3,"type":"glacier"},"type":"Feature"},{"geometry":{"coordinates":[-65966.0,-905491.0],"type":"Point"},"properties":{"alt":"","lat":81.633,"lon":-49.167,"name":"Ryder Gletscher","source":"GeoNames 3420235","tier":3,"type":"glacier"},"type":"Feature"},{"geometry":{"coordinates":[536549.0,-1.773411e6],"type":"Point"},"properties":{"alt":"","lat":73.017,"lon":-28.167,"name":"Rypegletscher","source":"GeoNames 3420225","tier":3,"type":"glacier"},"type":"Feature"},{"geometry":{"coordinates":[200030.0,-2.896892e6],"type":"Point"},"properties":{"alt":"","lat":63.65,"lon":-41.05,"name":"Røskva Gletscher","source":"GeoNames 3420253","tier":3,"type":"glacier"},"type":"Feature"},{"geometry":{"coordinates":[-214792.0,-2.300846e6],"type":"Point"},"properties":{"alt":"Sarqardliup Glacier, Sarqardliup Sermia","lat":68.9,"lon":-50.333,"name":"Saqqarliup Sermia","source":"GeoNames 3420047","tier":3,"type":"glacier"},"type":"Feature"},{"geometry":{"coordinates":[-571669.0,-1.269159e6],"type":"Point"},"properties":{"alt":"","lat":77.202,"lon":-69.248,"name":"Savage Gletscher","source":"GeoNames 3831149","tier":3,"type":"glacier"},"type":"Feature"},{"geometry":{"coordinates":[-520245.0,-1.409239e6],"type":"Point"},"properties":{"alt":"Savigssuak Gletscher, Savigssuaq Gletscher, Saviksuak Brae, Saviksuak Bræ, Saviksuak Gletscher","lat":76.197,"lon":-65.262,"name":"Savissuaq Gletscher","source":"GeoNames 3831145","tier":3,"type":"glacier"},"type":"Feature"},{"geometry":{"coordinates":[-554845.0,-1.221273e6],"type":"Point"},"properties":{"alt":"Gletscher of the Scarlet Heart","lat":77.663,"lon":-69.433,"name":"Scarlet Heart Gletscher","source":"GeoNames 3831143","tier":3,"type":"glacier"},"type":"Feature"},{"geometry":{"coordinates":[577339.0,-2.312709e6],"type":"Point"},"properties":{"alt":"","lat":68.25,"lon":-30.983,"name":"Schjelderup Gletscher","source":"GeoNames 3420008","tier":3,"type":"glacier"},"type":"Feature"},{"geometry":{"coordinates":[658975.0,-1.843822e6],"type":"Point"},"properties":{"alt":"","lat":72.067,"lon":-25.333,"name":"Sefstrøm Gletscher","source":"GeoNames 3419994","tier":3,"type":"glacier"},"type":"Feature"},{"geometry":{"coordinates":[385322.0,-2.578248e6],"type":"Point"},"properties":{"alt":"16 September Gletscher, 16. September Gletscher","lat":66.267,"lon":-36.5,"name":"Sekstende September Gletscher","source":"GeoNames 3419989","tier":3,"type":"glacier"},"type":"Feature"},{"geometry":{"coordinates":[-210670.0,-2.06209e6],"type":"Point"},"properties":{"alt":"Sermeq Avangnardleq","lat":71.033,"lon":-50.833,"name":"Sermeq Avannarleq","source":"GeoNames 3424350","tier":3,"type":"glacier"},"type":"Feature"},{"geometry":{"coordinates":[-197118.0,-2.16596e6],"type":"Point"},"properties":{"alt":"Avangnardleq Glacier, Sermeq Avangnardleq","lat":70.117,"lon":-50.2,"name":"Sermeq Avannarleq","source":"GeoNames 3424351","tier":3,"type":"glacier"},"type":"Feature"},{"geometry":{"coordinates":[-206329.0,-2.245465e6],"type":"Point"},"properties":{"alt":"Sermeq Avangnardleq","lat":69.4,"lon":-50.25,"name":"Sermeq Avannarleq","source":"GeoNames 3424352","tier":3,"type":"glacier"},"type":"Feature"},{"geometry":{"coordinates":[95926.0,-3.296682e6],"type":"Point"},"properties":{"alt":"Sermeq Avangnardleq","lat":60.217,"lon":-43.333,"name":"Sermeq Avannarleq","source":"GeoNames 3424353","tier":3,"type":"glacier"},"type":"Feature"},{"geometry":{"coordinates":[85695.0,-3.304499e6],"type":"Point"},"properties":{"alt":"Sermeq Avangnardleq","lat":60.152,"lon":-43.514,"name":"Sermeq Avannarleq","source":"GeoNames 3424354","tier":3,"type":"glacier"},"type":"Feature"},{"geometry":{"coordinates":[-195296.0,-2.181065e6],"type":"Point"},"properties":{"alt":"Kujatdleq Glacier, Sermeq Kujatdleq","lat":69.983,"lon":-50.117,"name":"Sermeq Kujalleq","source":"GeoNames 3422243","tier":3,"type":"glacier"},"type":"Feature"},{"geometry":{"coordinates":[100601.0,-3.292689e6],"type":"Point"},"properties":{"alt":"Sermeq Kujatdleq","lat":60.25,"lon":-43.25,"name":"Sermeq Kujalleq","source":"GeoNames 3422244","tier":3,"type":"glacier"},"type":"Feature"},{"geometry":{"coordinates":[94226.0,-3.309605e6],"type":"Point"},"properties":{"alt":"Sermeq Kujatdleq","lat":60.106,"lon":-43.369,"name":"Sermeq Kujalleq","source":"GeoNames 3422245","tier":3,"type":"glacier"},"type":"Feature"},{"geometry":{"coordinates":[-195499.0,-2.272615e6],"type":"Point"},"properties":{"alt":"Sermeq Kujalleq, Jakobshavn Isbræ, Jakobshavn Bra, Jakobshavn Bræ, Jakobshavn Isbrae, Sermeq Kujatdleq","lat":69.167,"lon":-49.917,"name":"Sermeq Kujalleq (Jakobshavn Isbræ)","source":"GeoNames 3422808","tier":3,"type":"glacier"},"type":"Feature"},{"geometry":{"coordinates":[99699.0,-3.294649e6],"type":"Point"},"properties":{"alt":"","lat":60.233,"lon":-43.267,"name":"Sermeq Qerqardleq","source":"GeoNames 3420580","tier":3,"type":"glacier"},"type":"Feature"},{"geometry":{"coordinates":[-284096.0,-2.021448e6],"type":"Point"},"properties":{"alt":"Sermeq Qiterdleq","lat":71.317,"lon":-53.0,"name":"Sermeq Qiterleq","source":"GeoNames 3420481","tier":3,"type":"glacier"},"type":"Feature"},{"geometry":{"coordinates":[-209902.0,-2.084535e6],"type":"Point"},"properties":{"alt":"Sermeq Silarleq, Itivdliarsuk Bræ, Itivdliarsuk Brae, Itivdliarsuks Isbrae, Itivdliarsuks Isbræ, Sigssortartoq","lat":70.833,"lon":-50.75,"name":"Sermeq Silarleq (Itivdliarsuk Bræ)","source":"GeoNames 3419903","tier":3,"type":"glacier"},"type":"Feature"},{"geometry":{"coordinates":[-352217.0,-1.931741e6],"type":"Point"},"properties":{"alt":"","lat":72.017,"lon":-55.333,"name":"Sermerssuaq","source":"GeoNames 3419974","tier":3,"type":"glacier"},"type":"Feature"},{"geometry":{"coordinates":[-564926.0,-1.343945e6],"type":"Point"},"properties":{"alt":"Sermersuak, Harald Moltke Bræ, Harald Moltke Brae, Moltke Glacier, Moltkes Brae, Moltkes Gletsjer, Sermerssuak, Uvdlip Sermia","lat":76.601,"lon":-67.799,"name":"Sermersuak (Harald Moltke Bræ)","source":"GeoNames 3831409","tier":3,"type":"glacier"},"type":"Feature"},{"geometry":{"coordinates":[-352399.0,-1.084694e6],"type":"Point"},"properties":{"alt":"Sermersuaq, Humboldt Gletscher, Humboldt Brae, Humboldt Glacier","lat":79.5,"lon":-62.998,"name":"Sermersuaq (Humboldt Gletscher)","source":"GeoNames 3831392","tier":3,"type":"glacier"},"type":"Feature"},{"geometry":{"coordinates":[-544108.0,-1.414004e6],"type":"Point"},"properties":{"alt":"","lat":76.08,"lon":-66.047,"name":"Sermiarssuk","source":"GeoNames 3831136","tier":3,"type":"glacier"},"type":"Feature"},{"geometry":{"coordinates":[-241838.0,-2.058668e6],"type":"Point"},"properties":{"alt":"Sermikavsak","lat":71.033,"lon":-51.7,"name":"Sermikassak","source":"GeoNames 3419965","tier":3,"type":"glacier"},"type":"Feature"},{"geometry":{"coordinates":[-301787.0,-1.927169e6],"type":"Point"},"properties":{"alt":"","lat":72.133,"lon":-53.9,"name":"Sermikavsak","source":"GeoNames 3419963","tier":3,"type":"glacier"},"type":"Feature"},{"geometry":{"coordinates":[-242216.0,-2.021296e6],"type":"Point"},"properties":{"alt":"","lat":71.367,"lon":-51.833,"name":"Sermikavsak","source":"GeoNames 3419964","tier":3,"type":"glacier"},"type":"Feature"},{"geometry":{"coordinates":[-203804.0,-2.103773e6],"type":"Point"},"properties":{"alt":"Sermilik Brae","lat":70.667,"lon":-50.533,"name":"Sermilik","source":"GeoNames 3419951","tier":3,"type":"glacier"},"type":"Feature"},{"geometry":{"coordinates":[-253579.0,-2.89842e6],"type":"Point"},"properties":{"alt":"","lat":63.6,"lon":-50.0,"name":"Sermilik","source":"GeoNames 3419952","tier":3,"type":"glacier"},"type":"Feature"},{"geometry":{"coordinates":[-283277.0,-2.032786e6],"type":"Point"},"properties":{"alt":"Sermikavsak, Sermikavsâk, Serminguaq, Sermínguaq","lat":71.217,"lon":-52.933,"name":"Serminnguaq","source":"GeoNames 3419944","tier":3,"type":"glacier"},"type":"Feature"},{"geometry":{"coordinates":[-278457.0,-2.0372e6],"type":"Point"},"properties":{"alt":"Serminguak, Serminguaq, Sermínguaq","lat":71.183,"lon":-52.783,"name":"Serminnguaq","source":"GeoNames 3419945","tier":3,"type":"glacier"},"type":"Feature"},{"geometry":{"coordinates":[-592589.0,-1.394118e6],"type":"Point"},"properties":{"alt":"Agpat Sermipalaut, Agpat Sermipaluat","lat":76.082,"lon":-68.029,"name":"Sermipaluk","source":"GeoNames 3831133","tier":3,"type":"glacier"},"type":"Feature"},{"geometry":{"coordinates":[-534458.0,-1.423162e6],"type":"Point"},"properties":{"alt":"","lat":76.033,"lon":-65.583,"name":"Sermipaluk","source":"GeoNames 3831134","tier":3,"type":"glacier"},"type":"Feature"},{"geometry":{"coordinates":[-561503.0,-1.423774e6],"type":"Point"},"properties":{"alt":"Sernipaluk","lat":75.94,"lon":-66.523,"name":"Sermipaluk","source":"GeoNames 3831135","tier":3,"type":"glacier"},"type":"Feature"},{"geometry":{"coordinates":[-323260.0,-2.607639e6],"type":"Point"},"properties":{"alt":"","lat":66.083,"lon":-52.067,"name":"Sermitsiaq","source":"GeoNames 3419939","tier":3,"type":"glacier"},"type":"Feature"},{"geometry":{"coordinates":[-273264.0,-2.927199e6],"type":"Point"},"properties":{"alt":"","lat":63.333,"lon":-50.333,"name":"Sermitsiaq","source":"GeoNames 3419940","tier":3,"type":"glacier"},"type":"Feature"},{"geometry":{"coordinates":[37972.0,-3.263172e6],"type":"Point"},"properties":{"alt":"Sermitsiaq, Dana Gletscher","lat":60.517,"lon":-44.333,"name":"Sermitsiaq (Dana Gletscher)","source":"GeoNames 3419941","tier":3,"type":"glacier"},"type":"Feature"},{"geometry":{"coordinates":[-341286.0,-2.574958e6],"type":"Point"},"properties":{"alt":"","lat":66.35,"lon":-52.55,"name":"Sermínguaq","source":"GeoNames 3419946","tier":3,"type":"glacier"},"type":"Feature"},{"geometry":{"coordinates":[836321.0,-2.015743e6],"type":"Point"},"properties":{"alt":"","lat":70.05,"lon":-22.467,"name":"Sfinxgletscher","source":"GeoNames 3419929","tier":3,"type":"glacier"},"type":"Feature"},{"geometry":{"coordinates":[668355.0,-1.937066e6],"type":"Point"},"properties":{"alt":"","lat":71.246,"lon":-25.964,"name":"Shark’s Teeth Glacier","source":"GeoNames 13156587","tier":3,"type":"glacier"},"type":"Feature"},{"geometry":{"coordinates":[-500304.0,-1.239698e6],"type":"Point"},"properties":{"alt":"","lat":77.705,"lon":-66.978,"name":"Sharp Gletscher","source":"GeoNames 3831132","tier":3,"type":"glacier"},"type":"Feature"},{"geometry":{"coordinates":[538397.0,-2.31057e6],"type":"Point"},"properties":{"alt":"","lat":68.35,"lon":-31.883,"name":"Sidegletscher","source":"GeoNames 3419921","tier":3,"type":"glacier"},"type":"Feature"},{"geometry":{"coordinates":[168774.0,-702993.0],"type":"Point"},"properties":{"alt":"","lat":83.333,"lon":-31.5,"name":"Sif Glacier","source":"GeoNames 3419919","tier":3,"type":"glacier"},"type":"Feature"},{"geometry":{"coordinates":[-250047.0,-966862.0],"type":"Point"},"properties":{"alt":"Berg Gletscher","lat":80.8,"lon":-59.5,"name":"Sigurd Berg Gletscher","source":"GeoNames 3419910","tier":3,"type":"glacier"},"type":"Feature"},{"geometry":{"coordinates":[190414.0,-2.905163e6],"type":"Point"},"properties":{"alt":"","lat":63.583,"lon":-41.25,"name":"Sigyn Gletscher","source":"GeoNames 3419909","tier":3,"type":"glacier"},"type":"Feature"},{"geometry":{"coordinates":[320682.0,-2.562444e6],"type":"Point"},"properties":{"alt":"","lat":66.483,"lon":-37.867,"name":"Skaktgletscher","source":"GeoNames 3419825","tier":3,"type":"glacier"},"type":"Feature"},{"geometry":{"coordinates":[429427.0,-923714.0],"type":"Point"},"properties":{"alt":"","lat":80.617,"lon":-20.067,"name":"Skeen","source":"GeoNames 3419812","tier":3,"type":"glacier"},"type":"Feature"},{"geometry":{"coordinates":[696847.0,-1.5627e6],"type":"Point"},"properties":{"alt":"","lat":74.3,"lon":-20.967,"name":"Skillegletscher","source":"GeoNames 3426142","tier":3,"type":"glacier"},"type":"Feature"},{"geometry":{"coordinates":[153366.0,-2.926389e6],"type":"Point"},"properties":{"alt":"","lat":63.417,"lon":-42.0,"name":"Skinfaxe","source":"GeoNames 3419800","tier":3,"type":"glacier"},"type":"Feature"},{"geometry":{"coordinates":[166660.0,-2.919947e6],"type":"Point"},"properties":{"alt":"","lat":63.467,"lon":-41.733,"name":"Skjoldmøen","source":"GeoNames 3419797","tier":3,"type":"glacier"},"type":"Feature"},{"geometry":{"coordinates":[671091.0,-1.815821e6],"type":"Point"},"properties":{"alt":"","lat":72.267,"lon":-24.717,"name":"Skjoldungebræ","source":"GeoNames 3419795","tier":3,"type":"glacier"},"type":"Feature"},{"geometry":{"coordinates":[499778.0,-1.672919e6],"type":"Point"},"properties":{"alt":"Skraabra, Skraabræ, Skrabrae","lat":73.983,"lon":-28.367,"name":"Skråbræ","source":"GeoNames 3419788","tier":3,"type":"glacier"},"type":"Feature"},{"geometry":{"coordinates":[179824.0,-2.871573e6],"type":"Point"},"properties":{"alt":"","lat":63.883,"lon":-41.417,"name":"Sleipner","source":"GeoNames 3419779","tier":3,"type":"glacier"},"type":"Feature"},{"geometry":{"coordinates":[596571.0,-1.742441e6],"type":"Point"},"properties":{"alt":"","lat":73.117,"lon":-26.1,"name":"Sonklargletscher","source":"GeoNames 3419711","tier":3,"type":"glacier"},"type":"Feature"},{"geometry":{"coordinates":[-253738.0,-2.122646e6],"type":"Point"},"properties":{"alt":"Sorqaup Sermia","lat":70.45,"lon":-51.817,"name":"Soqqaap Sermia","source":"GeoNames 3419705","tier":3,"type":"glacier"},"type":"Feature"},{"geometry":{"coordinates":[589565.0,-1.383334e6],"type":"Point"},"properties":{"alt":"Soraner Glacier, Soranerbraeen","lat":76.183,"lon":-21.917,"name":"Soranerbræen","source":"GeoNames 3419710","tier":3,"type":"glacier"},"type":"Feature"},{"geometry":{"coordinates":[571212.0,-2.285348e6],"type":"Point"},"properties":{"alt":"Sorgenfri Glacier","lat":68.5,"lon":-30.967,"name":"Sorgenfri Gletscher","source":"GeoNames 3419706","tier":3,"type":"glacier"},"type":"Feature"},{"geometry":{"coordinates":[708267.0,-2.201597e6],"type":"Point"},"properties":{"alt":"Black Ice Bank, Sortebrae","lat":68.883,"lon":-27.167,"name":"Sortebræ","source":"GeoNames 3419702","tier":3,"type":"glacier"},"type":"Feature"},{"geometry":{"coordinates":[442232.0,-923701.0],"type":"Point"},"properties":{"alt":"","lat":80.567,"lon":-19.417,"name":"Spærregletscher","source":"GeoNames 2760188","tier":3,"type":"glacier"},"type":"Feature"},{"geometry":{"coordinates":[656232.0,-1.85657e6],"type":"Point"},"properties":{"alt":"","lat":71.967,"lon":-25.533,"name":"Spærregletscher","source":"GeoNames 3419684","tier":3,"type":"glacier"},"type":"Feature"},{"geometry":{"coordinates":[-129890.0,-924214.0],"type":"Point"},"properties":{"alt":"","lat":81.4,"lon":-53.0,"name":"Steensby Gletscher","source":"GeoNames 3419664","tier":3,"type":"glacier"},"type":"Feature"},{"geometry":{"coordinates":[-355165.0,-1.559071e6],"type":"Point"},"properties":{"alt":"Sermerssuak, Steenstrup Braeer, Steenstrup Bræer, Steenstrups Brae, Steenstrups Bræ, Steenstrups Glacier, Steenstrups Gletscher","lat":75.317,"lon":-57.833,"name":"Steenstrup Gletscher","source":"GeoNames 3419661","tier":3,"type":"glacier"},"type":"Feature"},{"geometry":{"coordinates":[576393.0,-1.753109e6],"type":"Point"},"properties":{"alt":"","lat":73.083,"lon":-26.8,"name":"Stejlegletscher","source":"GeoNames 3419657","tier":3,"type":"glacier"},"type":"Feature"},{"geometry":{"coordinates":[598010.0,-1.453279e6],"type":"Point"},"properties":{"alt":"","lat":75.567,"lon":-22.633,"name":"Stejlgletscher","source":"GeoNames 3419656","tier":3,"type":"glacier"},"type":"Feature"},{"geometry":{"coordinates":[530677.0,-1.754003e6],"type":"Point"},"properties":{"alt":"","lat":73.2,"lon":-28.167,"name":"Stenløgletscher","source":"GeoNames 3419653","tier":3,"type":"glacier"},"type":"Feature"},{"geometry":{"coordinates":[802640.0,-2.053368e6],"type":"Point"},"properties":{"alt":"Steno Brae, Stenos Bra, Stenos Bræ, Stenos Glacier","lat":69.85,"lon":-23.65,"name":"Steno Bræ","source":"GeoNames 3419651","tier":3,"type":"glacier"},"type":"Feature"},{"geometry":{"coordinates":[410291.0,-2.595368e6],"type":"Point"},"properties":{"alt":"","lat":66.083,"lon":-36.017,"name":"Stephan Gletscher","source":"GeoNames 3419647","tier":3,"type":"glacier"},"type":"Feature"},{"geometry":{"coordinates":[-59771.0,-820457.0],"type":"Point"},"properties":{"alt":"","lat":82.417,"lon":-49.167,"name":"Stjernen","source":"GeoNames 3419638","tier":3,"type":"glacier"},"type":"Feature"},{"geometry":{"coordinates":[750304.0,-2.193544e6],"type":"Point"},"properties":{"alt":"Big Glacier, Storbrae","lat":68.833,"lon":-26.117,"name":"Storbræ","source":"GeoNames 3419634","tier":3,"type":"glacier"},"type":"Feature"},{"geometry":{"coordinates":[-303266.0,-2.204367e6],"type":"Point"},"properties":{"alt":"Large Glacier, Storbraeen","lat":69.667,"lon":-52.833,"name":"Storbræen","source":"GeoNames 3419633","tier":3,"type":"glacier"},"type":"Feature"},{"geometry":{"coordinates":[-205251.0,-2.131609e6],"type":"Point"},"properties":{"alt":"Store Isbrae, Store Karajaks Isbrae, Store Karajaks Isbræ, Store Qarajaq Brae, Store Qarajaq Bræ","lat":70.417,"lon":-50.5,"name":"Store Gletscher","source":"GeoNames 3419622","tier":3,"type":"glacier"},"type":"Feature"},{"geometry":{"coordinates":[-573964.0,-1.352174e6],"type":"Point"},"properties":{"alt":"Great Land Brae, Great Land Gletscher","lat":76.5,"lon":-68.0,"name":"Store Gletscher","source":"GeoNames 3831117","tier":3,"type":"glacier"},"type":"Feature"},{"geometry":{"coordinates":[169239.0,-2.891236e6],"type":"Point"},"properties":{"alt":"","lat":63.717,"lon":-41.65,"name":"Storebjørn","source":"GeoNames 3419628","tier":3,"type":"glacier"},"type":"Feature"},{"geometry":{"coordinates":[-598095.0,-1.140814e6],"type":"Point"},"properties":{"alt":"","lat":78.15,"lon":-72.667,"name":"Storm Gletscher","source":"GeoNames 3831116","tier":3,"type":"glacier"},"type":"Feature"},{"geometry":{"coordinates":[592290.0,-1.441765e6],"type":"Point"},"properties":{"alt":"","lat":75.683,"lon":-22.667,"name":"Stormgletscher","source":"GeoNames 3419616","tier":3,"type":"glacier"},"type":"Feature"},{"geometry":{"coordinates":[537343.0,-1.308012e6],"type":"Point"},"properties":{"alt":"Great Stream Glacier, Storstrommen","lat":77.0,"lon":-22.667,"name":"Storstrømmen","source":"GeoNames 3419607","tier":3,"type":"glacier"},"type":"Feature"},{"geometry":{"coordinates":[508725.0,-2.279026e6],"type":"Point"},"properties":{"alt":"Syrtegletscher","lat":68.683,"lon":-32.417,"name":"Styrtegletscher","source":"GeoNames 3419594","tier":3,"type":"glacier"},"type":"Feature"},{"geometry":{"coordinates":[493227.0,-1.301851e6],"type":"Point"},"properties":{"alt":"","lat":77.2,"lon":-24.25,"name":"Suzanne Bræ","source":"GeoNames 3419549","tier":3,"type":"glacier"},"type":"Feature"},{"geometry":{"coordinates":[-353607.0,-1.525563e6],"type":"Point"},"properties":{"alt":"Sverdrup Brae, Sverdrup Bræ","lat":75.617,"lon":-58.05,"name":"Sverdrup Gletscher","source":"GeoNames 3419538","tier":3,"type":"glacier"},"type":"Feature"},{"geometry":{"coordinates":[694309.0,-2.061109e6],"type":"Point"},"properties":{"alt":"South Glacier, Syd Gletscher, Sydbrae","lat":70.117,"lon":-26.383,"name":"Sydbræ","source":"GeoNames 3419527","tier":3,"type":"glacier"},"type":"Feature"},{"geometry":{"coordinates":[-545235.0,-1.239142e6],"type":"Point"},"properties":{"alt":"South Fjord Gletscher","lat":77.55,"lon":-68.75,"name":"Sydgletscher","source":"GeoNames 3831111","tier":3,"type":"glacier"},"type":"Feature"},{"geometry":{"coordinates":[548957.0,-1.293262e6],"type":"Point"},"properties":{"alt":"","lat":77.083,"lon":-22.0,"name":"Sælsø Gletscher","source":"GeoNames 3426079","tier":3,"type":"glacier"},"type":"Feature"},{"geometry":{"coordinates":[570983.0,-1.26165e6],"type":"Point"},"properties":{"alt":"","lat":77.267,"lon":-20.65,"name":"Søgletscher","source":"GeoNames 3419736","tier":3,"type":"glacier"},"type":"Feature"},{"geometry":{"coordinates":[522281.0,-2.323842e6],"type":"Point"},"properties":{"alt":"","lat":68.267,"lon":-32.333,"name":"Søndre Syenitgletscher","source":"GeoNames 3419713","tier":3,"type":"glacier"},"type":"Feature"},{"geometry":{"coordinates":[-544032.0,-1.340535e6],"type":"Point"},"properties":{"alt":"Sonder Tvillinggletscher, Sondre Tvillinggletscher, Sønder Tvillinggletscher","lat":76.702,"lon":-67.089,"name":"Søndre Tvillinggletscher","source":"GeoNames 3831120","tier":3,"type":"glacier"},"type":"Feature"},{"geometry":{"coordinates":[-338147.0,-2.609544e6],"type":"Point"},"properties":{"alt":"Taterat Brae, Taterat Glacier, Taterat Sermiat, Tâterât Sermiat","lat":66.05,"lon":-52.383,"name":"Taateraat Sermiat","source":"GeoNames 3419492","tier":3,"type":"glacier"},"type":"Feature"},{"geometry":{"coordinates":[697510.0,-1.576493e6],"type":"Point"},"properties":{"alt":"","lat":74.183,"lon":-21.133,"name":"Taggletscher","source":"GeoNames 3419488","tier":3,"type":"glacier"},"type":"Feature"},{"geometry":{"coordinates":[-320306.0,-2.62128e6],"type":"Point"},"properties":{"alt":"","lat":65.967,"lon":-51.967,"name":"Tapa","source":"GeoNames 3419453","tier":3,"type":"glacier"},"type":"Feature"},{"geometry":{"coordinates":[93090.0,-715120.0],"type":"Point"},"properties":{"alt":"","lat":83.35,"lon":-37.583,"name":"Thomas Gletscher","source":"GeoNames 3419341","tier":3,"type":"glacier"},"type":"Feature"},{"geometry":{"coordinates":[152669.0,-2.913102e6],"type":"Point"},"properties":{"alt":"","lat":63.533,"lon":-42.0,"name":"Thrym Gletscher","source":"GeoNames 3419332","tier":3,"type":"glacier"},"type":"Feature"},{"geometry":{"coordinates":[79386.0,-3.287484e6],"type":"Point"},"properties":{"alt":"","lat":60.3,"lon":-43.617,"name":"Tikiuitsua","source":"GeoNames 3419321","tier":3,"type":"glacier"},"type":"Feature"},{"geometry":{"coordinates":[94732.0,-771528.0],"type":"Point"},"properties":{"alt":"Tjalfes Gletscher","lat":82.833,"lon":-38.0,"name":"Tjalfe Gletscher","source":"GeoNames 3419278","tier":3,"type":"glacier"},"type":"Feature"},{"geometry":{"coordinates":[194846.0,-2.895336e6],"type":"Point"},"properties":{"alt":"","lat":63.667,"lon":-41.15,"name":"Tjalfe Gletscher","source":"GeoNames 3419279","tier":3,"type":"glacier"},"type":"Feature"},{"geometry":{"coordinates":[142759.0,-2.936458e6],"type":"Point"},"properties":{"alt":"","lat":63.333,"lon":-42.217,"name":"Tjasses Gletscher","source":"GeoNames 3419277","tier":3,"type":"glacier"},"type":"Feature"},{"geometry":{"coordinates":[807110.0,-2.031613e6],"type":"Point"},"properties":{"alt":"","lat":70.017,"lon":-23.333,"name":"Torvgletscher","source":"GeoNames 3419224","tier":3,"type":"glacier"},"type":"Feature"},{"geometry":{"coordinates":[-481699.0,-1.252457e6],"type":"Point"},"properties":{"alt":"Tracy Brae","lat":77.659,"lon":-66.037,"name":"Tracy Gletscher","source":"GeoNames 3831099","tier":3,"type":"glacier"},"type":"Feature"},{"geometry":{"coordinates":[-537735.0,-1.216206e6],"type":"Point"},"properties":{"alt":"Tuktu Brae, Tuktu Bræ","lat":77.769,"lon":-68.852,"name":"Tugto Gletscher","source":"GeoNames 3831095","tier":3,"type":"glacier"},"type":"Feature"},{"geometry":{"coordinates":[427669.0,-930533.0],"type":"Point"},"properties":{"alt":"","lat":80.567,"lon":-20.317,"name":"Tungen","source":"GeoNames 3419163","tier":3,"type":"glacier"},"type":"Feature"},{"geometry":{"coordinates":[-534381.0,-1.329274e6],"type":"Point"},"properties":{"alt":"Tunnely Gletscher","lat":76.831,"lon":-66.901,"name":"Tunnelgletscher","source":"GeoNames 3831094","tier":3,"type":"glacier"},"type":"Feature"},{"geometry":{"coordinates":[631581.0,-1.524772e6],"type":"Point"},"properties":{"alt":"","lat":74.85,"lon":-22.5,"name":"Tvegegletscher","source":"GeoNames 3419091","tier":3,"type":"glacier"},"type":"Feature"},{"geometry":{"coordinates":[-544168.0,-1.241609e6],"type":"Point"},"properties":{"alt":"","lat":77.533,"lon":-68.667,"name":"Twin Gletscher","source":"GeoNames 3831090","tier":3,"type":"glacier"},"type":"Feature"},{"geometry":{"coordinates":[-608426.0,-1.260177e6],"type":"Point"},"properties":{"alt":"Tyndall Brae, Tyndall Bræ","lat":77.134,"lon":-70.772,"name":"Tyndall Gletscher","source":"GeoNames 3831089","tier":3,"type":"glacier"},"type":"Feature"},{"geometry":{"coordinates":[229456.0,-2.685685e6],"type":"Point"},"properties":{"alt":"Ulimautikajik","lat":65.483,"lon":-40.117,"name":"Ulimaatikajik","source":"GeoNames 3418986","tier":3,"type":"glacier"},"type":"Feature"},{"geometry":{"coordinates":[-103056.0,-860002.0],"type":"Point"},"properties":{"alt":"","lat":82.017,"lon":-51.833,"name":"Ulvesletten","source":"GeoNames 3418973","tier":3,"type":"glacier"},"type":"Feature"},{"geometry":{"coordinates":[-250137.0,-1.966238e6],"type":"Point"},"properties":{"alt":"Umiamako Isbra, Umiammakku Isbrae, Umimamako Brae, Umiámáko Isbræ","lat":71.85,"lon":-52.25,"name":"Umiammakku Isbræ","source":"GeoNames 3418959","tier":3,"type":"glacier"},"type":"Feature"},{"geometry":{"coordinates":[-347942.0,-2.631065e6],"type":"Point"},"properties":{"alt":"","lat":65.85,"lon":-52.533,"name":"Umingmak","source":"GeoNames 3418936","tier":3,"type":"glacier"},"type":"Feature"},{"geometry":{"coordinates":[-307627.0,-1.838305e6],"type":"Point"},"properties":{"alt":"Upernavik Isstrom, Upernaviks Isstrom, Upernaviks Isstrøm, Upernivik Brae, Upernivik Bræ","lat":72.917,"lon":-54.5,"name":"Upernavik Isstrøm","source":"GeoNames 3418908","tier":3,"type":"glacier"},"type":"Feature"},{"geometry":{"coordinates":[-322527.0,-1.72341e6],"type":"Point"},"properties":{"alt":"Ussing Braeer, Ussings Braer, Ussings Bræer, Ussings Glacier","lat":73.917,"lon":-55.6,"name":"Ussing Bræer","source":"GeoNames 3418894","tier":3,"type":"glacier"},"type":"Feature"},{"geometry":{"coordinates":[-221191.0,-2.407209e6],"type":"Point"},"properties":{"alt":"Usulluup Sermia, Poloniagletscher, Usugdlup Sermia, Usugdlûp Sermia","lat":67.95,"lon":-50.25,"name":"Usulluup Sermia (Poloniagletscher)","source":"GeoNames 3418885","tier":3,"type":"glacier"},"type":"Feature"},{"geometry":{"coordinates":[-555047.0,-1.195714e6],"type":"Point"},"properties":{"alt":"Verhoeff Brae, Verhoeff Bræ","lat":77.874,"lon":-69.901,"name":"Verhoeff Gletscher","source":"GeoNames 3831071","tier":3,"type":"glacier"},"type":"Feature"},{"geometry":{"coordinates":[785403.0,-2.030144e6],"type":"Point"},"properties":{"alt":"","lat":70.1,"lon":-23.85,"name":"Vestre Borggletscher","source":"GeoNames 3418776","tier":3,"type":"glacier"},"type":"Feature"},{"geometry":{"coordinates":[598530.0,-1.763212e6],"type":"Point"},"properties":{"alt":"","lat":72.933,"lon":-26.25,"name":"Vestre Spærregletscher","source":"GeoNames 3418774","tier":3,"type":"glacier"},"type":"Feature"},{"geometry":{"coordinates":[612443.0,-1.59964e6],"type":"Point"},"properties":{"alt":"","lat":74.283,"lon":-24.05,"name":"Vibeke Gletscher","source":"GeoNames 3418772","tier":3,"type":"glacier"},"type":"Feature"},{"geometry":{"coordinates":[508695.0,-1.754747e6],"type":"Point"},"properties":{"alt":"Victor Madsens Gletscher","lat":73.25,"lon":-28.833,"name":"Victor Madsen Gletscher","source":"GeoNames 3418768","tier":3,"type":"glacier"},"type":"Feature"},{"geometry":{"coordinates":[179478.0,-2.934442e6],"type":"Point"},"properties":{"alt":"Viggey Gletscher","lat":63.333,"lon":-41.5,"name":"Vigge Gletscher","source":"GeoNames 3418763","tier":3,"type":"glacier"},"type":"Feature"},{"geometry":{"coordinates":[660040.0,-1.831657e6],"type":"Point"},"properties":{"alt":"","lat":72.167,"lon":-25.183,"name":"Vikingebræ","source":"GeoNames 3418762","tier":3,"type":"glacier"},"type":"Feature"},{"geometry":{"coordinates":[366196.0,-2.505072e6],"type":"Point"},"properties":{"alt":"","lat":66.933,"lon":-36.683,"name":"Vinduet","source":"GeoNames 3418757","tier":3,"type":"glacier"},"type":"Feature"},{"geometry":{"coordinates":[606243.0,-1.838489e6],"type":"Point"},"properties":{"alt":"","lat":72.267,"lon":-26.75,"name":"Violingletscher","source":"GeoNames 3418752","tier":3,"type":"glacier"},"type":"Feature"},{"geometry":{"coordinates":[587584.0,-1.817382e6],"type":"Point"},"properties":{"alt":"Wahlbergs Gletscher, Wahlenbergs Gletscher","lat":72.5,"lon":-27.083,"name":"Wahlenberg Gletscher","source":"GeoNames 3418744","tier":3,"type":"glacier"},"type":"Feature"},{"geometry":{"coordinates":[617064.0,-1.643127e6],"type":"Point"},"properties":{"alt":"Walterhausen Brae, Walterhausen Bræ","lat":73.9,"lon":-24.417,"name":"Waltershausen Gletscher","source":"GeoNames 3418739","tier":3,"type":"glacier"},"type":"Feature"},{"geometry":{"coordinates":[-610712.0,-1.292813e6],"type":"Point"},"properties":{"alt":"","lat":76.857,"lon":-70.286,"name":"Witzansky Gletscher","source":"GeoNames 3831064","tier":3,"type":"glacier"},"type":"Feature"},{"geometry":{"coordinates":[641641.0,-1.592115e6],"type":"Point"},"properties":{"alt":"","lat":74.25,"lon":-23.05,"name":"Wordie Gletscher","source":"GeoNames 3418704","tier":3,"type":"glacier"},"type":"Feature"},{"geometry":{"coordinates":[211985.0,-700656.0],"type":"Point"},"properties":{"alt":"","lat":83.25,"lon":-28.167,"name":"Ydun Gletscher","source":"GeoNames 3418696","tier":3,"type":"glacier"},"type":"Feature"},{"geometry":{"coordinates":[202870.0,-2.889071e6],"type":"Point"},"properties":{"alt":"Kokajatok","lat":63.717,"lon":-40.983,"name":"Ydun Gletscher","source":"GeoNames 3418697","tier":3,"type":"glacier"},"type":"Feature"},{"geometry":{"coordinates":[139435.0,-2.938515e6],"type":"Point"},"properties":{"alt":"","lat":63.317,"lon":-42.283,"name":"Ygdrasil","source":"GeoNames 3418695","tier":3,"type":"glacier"},"type":"Feature"},{"geometry":{"coordinates":[124718.0,-787440.0],"type":"Point"},"properties":{"alt":"Ymers Gletscher","lat":82.65,"lon":-36.0,"name":"Ymer Gletscher","source":"GeoNames 3418693","tier":3,"type":"glacier"},"type":"Feature"},{"geometry":{"coordinates":[-487532.0,-1.404911e6],"type":"Point"},"properties":{"alt":"Yngvar Nielsen Brae, Yngvar Nielsen Bræ","lat":76.335,"lon":-64.138,"name":"Yngvar Nielsen Gletscher","source":"GeoNames 3831057","tier":3,"type":"glacier"},"type":"Feature"},{"geometry":{"coordinates":[486602.0,-1.10154e6],"type":"Point"},"properties":{"alt":"Zachariae Isstrom, Zachariaes Brae, Zachariaes Bræ","lat":78.917,"lon":-21.167,"name":"Zachariae Isstrøm","source":"GeoNames 3418686","tier":3,"type":"glacier"},"type":"Feature"},{"geometry":{"coordinates":[829093.0,-1.942213e6],"type":"Point"},"properties":{"alt":"","lat":70.683,"lon":-21.883,"name":"Åge Nielsen Gletscher","source":"GeoNames 3424868","tier":3,"type":"glacier"},"type":"Feature"},{"geometry":{"coordinates":[603312.0,-1.765476e6],"type":"Point"},"properties":{"alt":"","lat":72.9,"lon":-26.133,"name":"Øster Spærregletscher","source":"GeoNames 3421216","tier":3,"type":"glacier"},"type":"Feature"},{"geometry":{"coordinates":[-533679.0,-1.242171e6],"type":"Point"},"properties":{"alt":"East Branch Brae, East Branch Bræ, East Branch Gletscher, East Gletscher, Ostgletscher","lat":77.567,"lon":-68.25,"name":"Østgletscher","source":"GeoNames 3831245","tier":3,"type":"glacier"},"type":"Feature"},{"geometry":{"coordinates":[795525.0,-2.0282e6],"type":"Point"},"properties":{"alt":"","lat":70.083,"lon":-23.583,"name":"Østre Borggletscher","source":"GeoNames 3421212","tier":3,"type":"glacier"},"type":"Feature"},{"geometry":{"coordinates":[540160.0,-1.772314e6],"type":"Point"},"properties":{"alt":"","lat":73.017,"lon":-28.05,"name":"Øvre Rypegletscher","source":"GeoNames 3421201","tier":3,"type":"glacier"},"type":"Feature"}],"type":"FeatureCollection"}