{"features":[{"geometry":{"coordinates":[-182905.0,-2.273293e6],"type":"Point"},"properties":{"alt":"Sermeq Kujalleq, Jakobshavn Isbræ","lat":69.17,"lon":-49.6,"name":"Sermeq Kujalleq (Jakobshavn Isbræ)","source":"GeoNames (adj. to trunk)","tier":1,"type":"glacier"},"type":"Feature"},{"geometry":{"coordinates":[-260967.0,-1.009084e6],"type":"Point"},"properties":{"alt":"","lat":80.4,"lon":-59.5,"name":"Petermann Gletscher","source":"GeoNames (adj. to trunk)","tier":1,"type":"glacier"},"type":"Feature"},{"geometry":{"coordinates":[-352435.0,-1.084682e6],"type":"Point"},"properties":{"alt":"Sermersuaq, Humboldt Gletscher","lat":79.5,"lon":-63.0,"name":"Sermersuaq (Humboldt Gletscher)","source":"GeoNames","tier":1,"type":"glacier"},"type":"Feature"},{"geometry":{"coordinates":[-71517.0,-908707.0],"type":"Point"},"properties":{"alt":"","lat":81.6,"lon":-49.5,"name":"Ryder Gletscher","source":"GeoNames (adj.)","tier":1,"type":"glacier"},"type":"Feature"},{"geometry":{"coordinates":[12575.0,-900541.0],"type":"Point"},"properties":{"alt":"","lat":81.7,"lon":-44.2,"name":"C.H. Ostenfeld Gletscher","source":"GeoNames","tier":2,"type":"glacier"},"type":"Feature"},{"geometry":{"coordinates":[429285.0,-1.062518e6],"type":"Point"},"properties":{"alt":"","lat":79.45,"lon":-23.0,"name":"Nioghalvfjerdsfjorden (79N)","source":"GeoNames (adj. to grounding line)","tier":1,"type":"glacier"},"type":"Feature"},{"geometry":{"coordinates":[461675.0,-1.120108e6],"type":"Point"},"properties":{"alt":"","lat":78.85,"lon":-22.6,"name":"Zachariæ Isstrøm","source":"GeoNames (adj. to grounding line)","tier":1,"type":"glacier"},"type":"Feature"},{"geometry":{"coordinates":[525617.0,-1.300947e6],"type":"Point"},"properties":{"alt":"","lat":77.1,"lon":-23.0,"name":"Storstrømmen","source":"GeoNames (adj.)","tier":1,"type":"glacier"},"type":"Feature"},{"geometry":{"coordinates":[357478.0,-1.334127e6],"type":"Point"},"properties":{"alt":"","lat":77.3,"lon":-30.0,"name":"NEGIS","source":"unverified (mid-trunk from velocity maps)","tier":1,"type":"glacier"},"type":"Feature"},{"geometry":{"coordinates":[297898.0,-2.574656e6],"type":"Point"},"properties":{"alt":"","lat":66.4,"lon":-38.4,"name":"Helheim Gletscher","source":"GeoNames (adj. to trunk)","tier":1,"type":"glacier"},"type":"Feature"},{"geometry":{"coordinates":[478285.0,-2.289419e6],"type":"Point"},"properties":{"alt":"","lat":68.65,"lon":-33.2,"name":"Kangerlussuaq Gletscher","source":"GeoNames (adj. to trunk)","tier":1,"type":"glacier"},"type":"Feature"},{"geometry":{"coordinates":[546337.0,-1.905302e6],"type":"Point"},"properties":{"alt":"","lat":71.85,"lon":-29.0,"name":"Daugaard-Jensen Gletscher","source":"GeoNames (adj.)","tier":1,"type":"glacier"},"type":"Feature"},{"geometry":{"coordinates":[-297408.0,-1.836252e6],"type":"Point"},"properties":{"alt":"","lat":72.95,"lon":-54.2,"name":"Upernavik Isstrøm","source":"GeoNames (adj. to trunk)","tier":1,"type":"glacier"},"type":"Feature"},{"geometry":{"coordinates":[-208344.0,-1.982265e6],"type":"Point"},"properties":{"alt":"Kangilliup Sermia, Rink Isbræ","lat":71.75,"lon":-51.0,"name":"Kangilliup Sermia (Rink Isbræ)","source":"GeoNames (adj. to trunk); Greenlandic name: Wikipedia","tier":2,"type":"glacier"},"type":"Feature"},{"geometry":{"coordinates":[-380170.0,-1.47001e6],"type":"Point"},"properties":{"alt":"","lat":76.05,"lon":-59.5,"name":"Kong Oscar Gletscher","source":"GeoNames (adj. to trunk)","tier":2,"type":"glacier"},"type":"Feature"},{"geometry":{"coordinates":[-343759.0,-1.563507e6],"type":"Point"},"properties":{"alt":"","lat":75.3,"lon":-57.4,"name":"Steenstrup Gletscher","source":"GeoNames (adj. to trunk)","tier":2,"type":"glacier"},"type":"Feature"},{"geometry":{"coordinates":[-474659.0,-1.256149e6],"type":"Point"},"properties":{"alt":"","lat":77.65,"lon":-65.7,"name":"Tracy Gletscher","source":"GeoNames (adj. to trunk)","tier":2,"type":"glacier"},"type":"Feature"},{"geometry":{"coordinates":[-338048.0,-1.604154e6],"type":"Point"},"properties":{"alt":"","lat":74.95,"lon":-56.9,"name":"Hayes Gletscher","source":"GeoNames","tier":2,"type":"glacier"},"type":"Feature"},{"geometry":{"coordinates":[181142.0,-2.727227e6],"type":"Point"},"properties":{"alt":"","lat":65.15,"lon":-41.2,"name":"Køge Bugt Gletscher","source":"unverified (inland of GeoNames bay 64.99/-40.68)","tier":2,"type":"glacier"},"type":"Feature"},{"geometry":{"coordinates":[238437.0,-2.671638e6],"type":"Point"},"properties":{"alt":"","lat":65.6,"lon":-39.9,"name":"Ikertivaq Gletscher","source":"unverified (head of GeoNames fjord 65.48/-39.67)","tier":2,"type":"glacier"},"type":"Feature"},{"geometry":{"coordinates":[360399.0,-2.564374e6],"type":"Point"},"properties":{"alt":"","lat":66.42,"lon":-37.0,"name":"Midgård Gletscher","source":"GeoNames (adj.)","tier":2,"type":"glacier"},"type":"Feature"},{"geometry":{"coordinates":[-201705.0,-2.133817e6],"type":"Point"},"properties":{"alt":"","lat":70.4,"lon":-50.4,"name":"Store Gletscher","source":"GeoNames (adj. to trunk)","tier":2,"type":"glacier"},"type":"Feature"},{"geometry":{"coordinates":[-217097.0,-2.821423e6],"type":"Point"},"properties":{"alt":"","lat":64.3,"lon":-49.4,"name":"Kangiata Nunaata Sermia","source":"unverified","tier":2,"type":"glacier"},"type":"Feature"},{"geometry":{"coordinates":[-206329.0,-2.245465e6],"type":"Point"},"properties":{"alt":"","lat":69.4,"lon":-50.25,"name":"Sermeq Avannarleq","source":"GeoNames (Ilulissat area one)","tier":2,"type":"glacier"},"type":"Feature"},{"geometry":{"coordinates":[-387678.0,-1.340508e6],"type":"Point"},"properties":{"alt":"","lat":77.17,"lon":-61.13,"name":"Camp Century","source":"NOAA/PANGAEA","tier":1,"type":"icecore"},"type":"Feature"},{"geometry":{"coordinates":[-144076.0,-1.357124e6],"type":"Point"},"properties":{"alt":"","lat":77.45,"lon":-51.06,"name":"NEEM","source":"NEEM project","tier":1,"type":"icecore"},"type":"Feature"},{"geometry":{"coordinates":[75882.0,-1.621093e6],"type":"Point"},"properties":{"alt":"","lat":75.1,"lon":-42.32,"name":"NGRIP","source":"Copernicus CP table","tier":1,"type":"icecore"},"type":"Feature"},{"geometry":{"coordinates":[243543.0,-1.885483e6],"type":"Point"},"properties":{"alt":"","lat":72.58,"lon":-37.64,"name":"GRIP","source":"Copernicus CP table","tier":1,"type":"icecore"},"type":"Feature"},{"geometry":{"coordinates":[214965.0,-1.886724e6],"type":"Point"},"properties":{"alt":"","lat":72.6,"lon":-38.5,"name":"GISP2","source":"unverified (standard 72°36'N 38°30'W)","tier":1,"type":"icecore"},"type":"Feature"},{"geometry":{"coordinates":[245018.0,-1.54524e6],"type":"Point"},"properties":{"alt":"","lat":75.63,"lon":-35.99,"name":"EastGRIP","source":"DEIMS site record","tier":1,"type":"icecore"},"type":"Feature"},{"geometry":{"coordinates":[55740.0,-2.729266e6],"type":"Point"},"properties":{"alt":"","lat":65.18,"lon":-43.83,"name":"Dye-3","source":"Copernicus CP table / Wikipedia","tier":1,"type":"icecore"},"type":"Feature"},{"geometry":{"coordinates":[641569.0,-1.943339e6],"type":"Point"},"properties":{"alt":"","lat":71.27,"lon":-26.73,"name":"Renland","source":"Copernicus CP table","tier":2,"type":"icecore"},"type":"Feature"},{"geometry":{"coordinates":[216535.0,-1.888775e6],"type":"Point"},"properties":{"alt":"","lat":72.58,"lon":-38.46,"name":"Summit Station","source":"GeoNames","tier":2,"type":"station"},"type":"Feature"},{"geometry":{"coordinates":[-332729.0,-2.82388e6],"type":"Point"},"properties":{"alt":"Nuuk, Godthåb","lat":64.18,"lon":-51.72,"name":"Nuuk (Godthåb)","source":"GeoNames","tier":1,"type":"settlement"},"type":"Feature"},{"geometry":{"coordinates":[-241756.0,-2.262167e6],"type":"Point"},"properties":{"alt":"Ilulissat, Jakobshavn","lat":69.22,"lon":-51.1,"name":"Ilulissat (Jakobshavn)","source":"GeoNames","tier":1,"type":"settlement"},"type":"Feature"},{"geometry":{"coordinates":[-250151.0,-2.510624e6],"type":"Point"},"properties":{"alt":"Kangerlussuaq, Søndre Strømfjord","lat":67.01,"lon":-50.69,"name":"Kangerlussuaq (Søndre Strømfjord)","source":"GeoNames","tier":1,"type":"settlement"},"type":"Feature"},{"geometry":{"coordinates":[343316.0,-2.657913e6],"type":"Point"},"properties":{"alt":"","lat":65.62,"lon":-37.64,"name":"Tasiilaq","source":"GeoNames","tier":1,"type":"settlement"},"type":"Feature"},{"geometry":{"coordinates":[-559195.0,-1.242524e6],"type":"Point"},"properties":{"alt":"","lat":77.47,"lon":-69.23,"name":"Qaanaaq","source":"GeoNames","tier":1,"type":"settlement"},"type":"Feature"},{"geometry":{"coordinates":[834918.0,-1.963132e6],"type":"Point"},"properties":{"alt":"Ittoqqortoormiit, Scoresbysund","lat":70.49,"lon":-21.96,"name":"Ittoqqortoormiit (Scoresbysund)","source":"GeoNames","tier":2,"type":"settlement"},"type":"Feature"},{"geometry":{"coordinates":[-363357.0,-1.843531e6],"type":"Point"},"properties":{"alt":"","lat":72.78,"lon":-56.15,"name":"Upernavik","source":"GeoNames","tier":2,"type":"settlement"},"type":"Feature"},{"geometry":{"coordinates":[-23934.0,-3.189083e6],"type":"Point"},"properties":{"alt":"","lat":61.16,"lon":-45.43,"name":"Narsarsuaq","source":"GeoNames","tier":2,"type":"settlement"},"type":"Feature"},{"geometry":{"coordinates":[-589117.0,-1.342046e6],"type":"Point"},"properties":{"alt":"Pituffik, Thule Air Base","lat":76.53,"lon":-68.7,"name":"Pituffik (Thule Air Base)","source":"GeoNames","tier":1,"type":"settlement"},"type":"Feature"},{"geometry":{"coordinates":[638395.0,-1.289992e6],"type":"Point"},"properties":{"alt":"","lat":76.77,"lon":-18.67,"name":"Danmarkshavn","source":"GeoNames","tier":2,"type":"station"},"type":"Feature"},{"geometry":{"coordinates":[432560.0,-802344.0],"type":"Point"},"properties":{"alt":"","lat":81.6,"lon":-16.67,"name":"Station Nord","source":"GeoNames","tier":2,"type":"station"},"type":"Feature"},{"geometry":{"coordinates":[-585814.0,-1.701326e6],"type":"Point"},"properties":{"alt":"","lat":73.5,"lon":-64.0,"name":"Baffin Bay","source":"unverified (open water)","tier":1,"type":"sea"},"type":"Feature"},{"geometry":{"coordinates":[-558533.0,-2.519379e6],"type":"Point"},"properties":{"alt":"","lat":66.5,"lon":-57.5,"name":"Davis Strait","source":"unverified (open water)","tier":1,"type":"sea"},"type":"Feature"},{"geometry":{"coordinates":[-412056.0,-3.355926e6],"type":"Point"},"properties":{"alt":"","lat":59.5,"lon":-52.0,"name":"Labrador Sea","source":"unverified (open water)","tier":1,"type":"sea"},"type":"Feature"},{"geometry":{"coordinates":[483784.0,-3.054494e6],"type":"Point"},"properties":{"alt":"","lat":62.0,"lon":-36.0,"name":"Irminger Sea","source":"unverified (open water)","tier":1,"type":"sea"},"type":"Feature"},{"geometry":{"coordinates":[797433.0,-2.454247e6],"type":"Point"},"properties":{"alt":"","lat":66.5,"lon":-27.0,"name":"Denmark Strait","source":"unverified (open water)","tier":1,"type":"sea"},"type":"Feature"},{"geometry":{"coordinates":[937155.0,-1.338396e6],"type":"Point"},"properties":{"alt":"","lat":75.0,"lon":-10.0,"name":"Greenland Sea","source":"unverified (open water)","tier":1,"type":"sea"},"type":"Feature"},{"geometry":{"coordinates":[733101.0,-873675.0],"type":"Point"},"properties":{"alt":"","lat":79.5,"lon":-5.0,"name":"Fram Strait","source":"unverified (open water)","tier":1,"type":"sea"},"type":"Feature"},{"geometry":{"coordinates":[-170782.0,-739740.0],"type":"Point"},"properties":{"alt":"","lat":83.0,"lon":-58.0,"name":"Lincoln Sea","source":"GeoNames","tier":2,"type":"sea"},"type":"Feature"},{"geometry":{"coordinates":[-403039.0,-973021.0],"type":"Point"},"properties":{"alt":"","lat":80.3,"lon":-67.5,"name":"Nares Strait","source":"unverified (Kennedy Channel)","tier":2,"type":"sea"},"type":"Feature"},{"geometry":{"coordinates":[185364.0,-509282.0],"type":"Point"},"properties":{"alt":"","lat":85.0,"lon":-25.0,"name":"Arctic Ocean","source":"unverified (open water)","tier":1,"type":"sea"},"type":"Feature"},{"geometry":{"coordinates":[-282167.0,-2.265371e6],"type":"Point"},"properties":{"alt":"Qeqertarsuup Tunua, Disko Bay","lat":69.15,"lon":-52.1,"name":"Qeqertarsuup Tunua (Disko Bay)","source":"GeoNames","tier":2,"type":"sea"},"type":"Feature"},{"geometry":{"coordinates":[-433968.0,-1.485979e6],"type":"Point"},"properties":{"alt":"Qimusseriarsuaq, Melville Bay","lat":75.78,"lon":-61.28,"name":"Qimusseriarsuaq (Melville Bay)","source":"GeoNames; Greenlandic name: Wikipedia","tier":2,"type":"sea"},"type":"Feature"},{"geometry":{"coordinates":[173028.0,-780481.0],"type":"Point"},"properties":{"alt":"","lat":82.63,"lon":-32.5,"name":"Peary Land","source":"GeoNames","tier":1,"type":"region"},"type":"Feature"},{"geometry":{"coordinates":[402992.0,-949389.0],"type":"Point"},"properties":{"alt":"","lat":80.5,"lon":-22.0,"name":"Kronprins Christian Land","source":"GeoNames","tier":1,"type":"region"},"type":"Feature"},{"geometry":{"coordinates":[590707.0,-1.269087e6],"type":"Point"},"properties":{"alt":"","lat":77.13,"lon":-20.04,"name":"Germania Land","source":"GeoNames","tier":2,"type":"region"},"type":"Feature"},{"geometry":{"coordinates":[-225776.0,-1.06219e6],"type":"Point"},"properties":{"alt":"","lat":80.0,"lon":-57.0,"name":"Knud Rasmussen Land","source":"GeoNames","tier":1,"type":"region"},"type":"Feature"},{"geometry":{"coordinates":[-521520.0,-1.118912e6],"type":"Point"},"properties":{"alt":"","lat":78.64,"lon":-69.99,"name":"Inglefield Land","source":"GeoNames","tier":2,"type":"region"},"type":"Feature"},{"geometry":{"coordinates":[-379384.0,-988330.0],"type":"Point"},"properties":{"alt":"","lat":80.25,"lon":-66.0,"name":"Washington Land","source":"GeoNames","tier":2,"type":"region"},"type":"Feature"},{"geometry":{"coordinates":[754121.0,-1.914447e6],"type":"Point"},"properties":{"alt":"","lat":71.17,"lon":-23.5,"name":"Jameson Land","source":"GeoNames","tier":2,"type":"region"},"type":"Feature"},{"geometry":{"coordinates":[-327520.0,-2.19149e6],"type":"Point"},"properties":{"alt":"Qeqertarsuaq, Disko Island","lat":69.75,"lon":-53.5,"name":"Qeqertarsuaq (Disko Island)","source":"Wikipedia","tier":1,"type":"island"},"type":"Feature"},{"geometry":{"coordinates":[661446.0,-2.005898e6],"type":"Point"},"properties":{"alt":"Ilimananngip Nunaa, Milne Land","lat":70.68,"lon":-26.75,"name":"Ilimananngip Nunaa (Milne Land)","source":"GeoNames","tier":1,"type":"island"},"type":"Feature"},{"geometry":{"coordinates":[789617.0,-2.00456e6],"type":"Point"},"properties":{"alt":"Kangertittivaq, Scoresby Sund","lat":70.3,"lon":-23.5,"name":"Kangertittivaq (Scoresby Sund)","source":"GeoNames (adj. to open water)","tier":1,"type":"fjord"},"type":"Feature"},{"geometry":{"coordinates":[522855.0,-2.310688e6],"type":"Point"},"properties":{"alt":"","lat":68.38,"lon":-32.25,"name":"Kangerlussuaq Fjord","source":"GeoNames (east coast fjord)","tier":2,"type":"fjord"},"type":"Feature"},{"geometry":{"coordinates":[-218590.0,-2.27014e6],"type":"Point"},"properties":{"alt":"Ilulissat Kangerlua, Ilulissat Icefjord","lat":69.17,"lon":-50.5,"name":"Ilulissat Kangerlua (Ilulissat Icefjord)","source":"GeoNames; Greenlandic name: Wikipedia","tier":2,"type":"fjord"},"type":"Feature"},{"geometry":{"coordinates":[-311922.0,-2.789638e6],"type":"Point"},"properties":{"alt":"Nuup Kangerlua, Godthåbsfjord","lat":64.5,"lon":-51.38,"name":"Nuup Kangerlua (Godthåbsfjord)","source":"GeoNames","tier":2,"type":"fjord"},"type":"Feature"}],"type":"FeatureCollection"}