{"features":[{"geometry":{"coordinates":[30000.0,-2.13e6],"type":"Point"},"properties":{"alt":"Central west","extent":[-254000.0,-2.382e6,286000.0,-1.866e6],"name":"CW","type":"drainage region"},"type":"Feature"},{"geometry":{"coordinates":[334000.0,-1.538e6],"type":"Point"},"properties":{"alt":"Northeast","extent":[14000.0,-2.158e6,662000.0,-954000.0],"name":"NE","type":"drainage region"},"type":"Feature"},{"geometry":{"coordinates":[-98000.0,-1.114e6],"type":"Point"},"properties":{"alt":"North","extent":[-598000.0,-1.51e6,298000.0,-794000.0],"name":"NO","type":"drainage region"},"type":"Feature"},{"geometry":{"coordinates":[-182000.0,-1.594e6],"type":"Point"},"properties":{"alt":"Northwest","extent":[-606000.0,-1.986e6,242000.0,-1.154e6],"name":"NW","type":"drainage region"},"type":"Feature"},{"geometry":{"coordinates":[302000.0,-2.506e6],"type":"Point"},"properties":{"alt":"Southeast","extent":[6000.0,-3.306e6,838000.0,-2.014e6],"name":"SE","type":"drainage region"},"type":"Feature"},{"geometry":{"coordinates":[-82000.0,-2.75e6],"type":"Point"},"properties":{"alt":"Southwest","extent":[-286000.0,-3.262e6,206000.0,-2.342e6],"name":"SW","type":"drainage region"},"type":"Feature"}],"type":"FeatureCollection"}