{"features":[{"type":"Feature","properties":{"FID":0},"geometry":{"type":"MultiLineString","coordinates":[[[-762484,-1224974],[-758317,-1216641],[-691652,-1183308],[-683319,-1166642],[-616654,-1133309],[-612487,-1124976]],[[737484,-1674965],[741651,-1691631],[758317,-1708297],[766650,-1708297],[791650,-1683298],[808316,-1691631],[833316,-1666632],[841649,-1566634],[858315,-1483302],[866648,-1333305],[883315,-1266640],[891648,-1158309],[891648,-1116643],[883315,-1049978],[866648,-1024978],[858315,-933314],[841649,-866648],[833316,-774984],[816649,-749984],[808316,-716652],[816649,-674986],[833316,-649986],[838792,-589750]]]}}],"type":"FeatureCollection"}