{"features":[{"geometry":{"coordinates":[-80634.0,-921654.0],"type":"Point"},"properties":{"alt":"","lat":-81.5,"lon":-175.0,"name":"Ross Ice Shelf","source":"SCAR gaz","tier":1,"type":"iceshelf"},"type":"Feature"},{"geometry":{"coordinates":[-1.096375e6,607731.0],"type":"Point"},"properties":{"alt":"","lat":-78.5,"lon":-61.0,"name":"Ronne Ice Shelf","source":"SCAR gaz","tier":1,"type":"iceshelf"},"type":"Feature"},{"geometry":{"coordinates":[-770518.0,918267.0],"type":"Point"},"properties":{"alt":"","lat":-79.0,"lon":-40.0,"name":"Filchner Ice Shelf","source":"SCAR gaz","tier":1,"type":"iceshelf"},"type":"Feature"},{"geometry":{"coordinates":[-2.364288e6,1.283704e6],"type":"Point"},"properties":{"alt":"","lat":-65.6,"lon":-61.5,"name":"Larsen B Ice Shelf","source":"unverified (between Robertson Is. and Jason Pen.)","tier":1,"type":"iceshelf"},"type":"Feature"},{"geometry":{"coordinates":[-2.185577e6,1.162092e6],"type":"Point"},"properties":{"alt":"","lat":-67.5,"lon":-62.0,"name":"Larsen C Ice Shelf","source":"SCAR gaz (Larsen IS) / Jason Pen.-Gipps Ice Rise","tier":1,"type":"iceshelf"},"type":"Feature"},{"geometry":{"coordinates":[-1.841146e6,1.020564e6],"type":"Point"},"properties":{"alt":"","lat":-70.8,"lon":-61.0,"name":"Larsen D Ice Shelf","source":"unverified (Gipps Ice Rise to Smith Pen.)","tier":2,"type":"iceshelf"},"type":"Feature"},{"geometry":{"coordinates":[-1.853595e6,748901.0],"type":"Point"},"properties":{"alt":"","lat":-71.75,"lon":-68.0,"name":"George VI Ice Shelf","source":"SCAR gaz","tier":1,"type":"iceshelf"},"type":"Feature"},{"geometry":{"coordinates":[-2.060538e6,639814.0],"type":"Point"},"properties":{"alt":"","lat":-70.33,"lon":-72.75,"name":"Wilkins Ice Shelf","source":"SCAR gaz","tier":1,"type":"iceshelf"},"type":"Feature"},{"geometry":{"coordinates":[-1.877627e6,-197347.0],"type":"Point"},"properties":{"alt":"","lat":-72.75,"lon":-96.0,"name":"Abbot Ice Shelf","source":"SCAR gaz","tier":1,"type":"iceshelf"},"type":"Feature"},{"geometry":{"coordinates":[-1.397286e6,-1.005902e6],"type":"Point"},"properties":{"alt":"","lat":-74.25,"lon":-125.75,"name":"Getz Ice Shelf","source":"SCAR gaz","tier":1,"type":"iceshelf"},"type":"Feature"},{"geometry":{"coordinates":[-751599.0,-1.20281e6],"type":"Point"},"properties":{"alt":"","lat":-77.0,"lon":-148.0,"name":"Sulzberger Ice Shelf","source":"SCAR gaz","tier":1,"type":"iceshelf"},"type":"Feature"},{"geometry":{"coordinates":[-892488.0,-1.274605e6],"type":"Point"},"properties":{"alt":"","lat":-75.75,"lon":-145.0,"name":"Nickerson Ice Shelf","source":"SCAR gaz","tier":2,"type":"iceshelf"},"type":"Feature"},{"geometry":{"coordinates":[-1.607015e6,-321113.0],"type":"Point"},"properties":{"alt":"","lat":-75.0,"lon":-101.3,"name":"Pine Island Ice Shelf","source":"SCAR gaz (adj.)","tier":2,"type":"iceshelf"},"type":"Feature"},{"geometry":{"coordinates":[-1.5753e6,-451710.0],"type":"Point"},"properties":{"alt":"","lat":-75.0,"lon":-106.0,"name":"Thwaites Ice Shelf","source":"SCAR gaz (Thwaites Glacier Tongue; adj.)","tier":2,"type":"iceshelf"},"type":"Feature"},{"geometry":{"coordinates":[-1.549992e6,-548881.0],"type":"Point"},"properties":{"alt":"","lat":-74.95,"lon":-109.5,"name":"Crosson Ice Shelf","source":"SCAR gaz","tier":2,"type":"iceshelf"},"type":"Feature"},{"geometry":{"coordinates":[-1.576787e6,-648939.0],"type":"Point"},"properties":{"alt":"","lat":-74.4,"lon":-112.37,"name":"Dotson Ice Shelf","source":"SCAR gaz","tier":2,"type":"iceshelf"},"type":"Feature"},{"geometry":{"coordinates":[2.040741e6,710661.0],"type":"Point"},"properties":{"alt":"","lat":-70.3,"lon":70.8,"name":"Amery Ice Shelf","source":"SCAR gaz (adj. to centre)","tier":1,"type":"iceshelf"},"type":"Feature"},{"geometry":{"coordinates":[2.546893e6,222824.0],"type":"Point"},"properties":{"alt":"","lat":-66.78,"lon":85.0,"name":"West Ice Shelf","source":"SCAR gaz","tier":1,"type":"iceshelf"},"type":"Feature"},{"geometry":{"coordinates":[2.604745e6,-459287.0],"type":"Point"},"properties":{"alt":"","lat":-66.0,"lon":100.0,"name":"Shackleton Ice Shelf","source":"SCAR gaz","tier":1,"type":"iceshelf"},"type":"Feature"},{"geometry":{"coordinates":[2.298962e6,-1.12625e6],"type":"Point"},"properties":{"alt":"","lat":-66.75,"lon":116.1,"name":"Totten Ice Shelf","source":"SCAR gaz (Totten Glacier Tongue; adj.)","tier":1,"type":"iceshelf"},"type":"Feature"},{"geometry":{"coordinates":[2.17014e6,-1.303952e6],"type":"Point"},"properties":{"alt":"","lat":-67.0,"lon":121.0,"name":"Moscow University Ice Shelf","source":"SCAR gaz","tier":1,"type":"iceshelf"},"type":"Feature"},{"geometry":{"coordinates":[1.082162e6,-2.078814e6],"type":"Point"},"properties":{"alt":"","lat":-68.67,"lon":152.5,"name":"Cook Ice Shelf","source":"SCAR gaz","tier":2,"type":"iceshelf"},"type":"Feature"},{"geometry":{"coordinates":[1.423129e6,-2.070665e6],"type":"Point"},"properties":{"alt":"","lat":-67.17,"lon":145.5,"name":"Mertz Glacier Tongue","source":"SCAR gaz","tier":2,"type":"iceshelf"},"type":"Feature"},{"geometry":{"coordinates":[1.285994e6,-2.038177e6],"type":"Point"},"properties":{"alt":"","lat":-68.08,"lon":147.75,"name":"Ninnis Glacier Tongue","source":"SCAR gaz","tier":2,"type":"iceshelf"},"type":"Feature"},{"geometry":{"coordinates":[451956.0,-1.525777e6],"type":"Point"},"properties":{"alt":"","lat":-75.43,"lon":163.5,"name":"Drygalski Ice Tongue","source":"SCAR gaz","tier":1,"type":"iceshelf"},"type":"Feature"},{"geometry":{"coordinates":[478320.0,-1.58128e6],"type":"Point"},"properties":{"alt":"","lat":-74.88,"lon":163.17,"name":"Nansen Ice Shelf","source":"SCAR gaz","tier":2,"type":"iceshelf"},"type":"Feature"},{"geometry":{"coordinates":[-653079.0,1.46684e6],"type":"Point"},"properties":{"alt":"","lat":-75.3,"lon":-24.0,"name":"Brunt Ice Shelf","source":"SCAR gaz (adj.)","tier":1,"type":"iceshelf"},"type":"Feature"},{"geometry":{"coordinates":[-522844.0,1.823373e6],"type":"Point"},"properties":{"alt":"","lat":-72.67,"lon":-16.0,"name":"Riiser-Larsen Ice Shelf","source":"SCAR gaz","tier":1,"type":"iceshelf"},"type":"Feature"},{"geometry":{"coordinates":[-6345.0,2.138577e6],"type":"Point"},"properties":{"alt":"","lat":-70.5,"lon":-0.17,"name":"Fimbul Ice Shelf","source":"SCAR gaz","tier":1,"type":"iceshelf"},"type":"Feature"},{"geometry":{"coordinates":[-623524.0,1.528661e6],"type":"Point"},"properties":{"alt":"","lat":-74.89,"lon":-22.19,"name":"Stancomb-Wills Glacier Tongue","source":"SCAR gaz","tier":2,"type":"iceshelf"},"type":"Feature"},{"geometry":{"coordinates":[-295982.0,2.061622e6],"type":"Point"},"properties":{"alt":"","lat":-71.0,"lon":-8.17,"name":"Ekström Ice Shelf","source":"SCAR gaz","tier":2,"type":"iceshelf"},"type":"Feature"},{"geometry":{"coordinates":[-172843.0,2.115899e6],"type":"Point"},"properties":{"alt":"","lat":-70.64,"lon":-4.67,"name":"Jelbart Ice Shelf","source":"SCAR gaz","tier":2,"type":"iceshelf"},"type":"Feature"},{"geometry":{"coordinates":[883961.0,1.955936e6],"type":"Point"},"properties":{"alt":"","lat":-70.43,"lon":24.32,"name":"Roi Baudouin Ice Shelf","source":"Wikipedia","tier":2,"type":"iceshelf"},"type":"Feature"},{"geometry":{"coordinates":[558341.0,2.146574e6],"type":"Point"},"properties":{"alt":"","lat":-69.79,"lon":14.58,"name":"Lazarev Ice Shelf","source":"SCAR gaz","tier":2,"type":"iceshelf"},"type":"Feature"},{"geometry":{"coordinates":[-1.589079e6,-265921.0],"type":"Point"},"properties":{"alt":"","lat":-75.25,"lon":-99.5,"name":"Pine Island Glacier","source":"SCAR gaz (adj. inland of grounding line)","tier":1,"type":"glacier"},"type":"Feature"},{"geometry":{"coordinates":[-1.516394e6,-456383.0],"type":"Point"},"properties":{"alt":"","lat":-75.5,"lon":-106.75,"name":"Thwaites Glacier","source":"SCAR gaz","tier":1,"type":"glacier"},"type":"Feature"},{"geometry":{"coordinates":[-1.516513e6,-600430.0],"type":"Point"},"properties":{"alt":"","lat":-75.07,"lon":-111.6,"name":"Smith Glacier","source":"SCAR gaz","tier":2,"type":"glacier"},"type":"Feature"},{"geometry":{"coordinates":[-1.496704e6,-587456.0],"type":"Point"},"properties":{"alt":"","lat":-75.28,"lon":-111.43,"name":"Pope Glacier","source":"SCAR gaz","tier":2,"type":"glacier"},"type":"Feature"},{"geometry":{"coordinates":[-1.508086e6,-663574.0],"type":"Point"},"properties":{"alt":"","lat":-74.92,"lon":-113.75,"name":"Kohler Glacier","source":"SCAR gaz","tier":2,"type":"glacier"},"type":"Feature"},{"geometry":{"coordinates":[369942.0,-989455.0],"type":"Point"},"properties":{"alt":"","lat":-80.3,"lon":159.5,"name":"Byrd Glacier","source":"SCAR gaz","tier":1,"type":"glacier"},"type":"Feature"},{"geometry":{"coordinates":[105782.0,-643855.0],"type":"Point"},"properties":{"alt":"","lat":-84.0,"lon":170.67,"name":"Beardmore Glacier","source":"SCAR gaz","tier":1,"type":"glacier"},"type":"Feature"},{"geometry":{"coordinates":[242726.0,-793920.0],"type":"Point"},"properties":{"alt":"","lat":-82.37,"lon":163.0,"name":"Nimrod Glacier","source":"SCAR gaz","tier":2,"type":"glacier"},"type":"Feature"},{"geometry":{"coordinates":[-37416.0,-566308.0],"type":"Point"},"properties":{"alt":"","lat":-84.78,"lon":-176.22,"name":"Shackleton Glacier","source":"SCAR gaz","tier":2,"type":"glacier"},"type":"Feature"},{"geometry":{"coordinates":[-145567.0,-476128.0],"type":"Point"},"properties":{"alt":"","lat":-85.42,"lon":-163.0,"name":"Axel Heiberg Glacier","source":"SCAR gaz","tier":2,"type":"glacier"},"type":"Feature"},{"geometry":{"coordinates":[-209733.0,-411624.0],"type":"Point"},"properties":{"alt":"","lat":-85.75,"lon":-153.0,"name":"Scott Glacier","source":"SCAR gaz (Transantarctic Mts)","tier":2,"type":"glacier"},"type":"Feature"},{"geometry":{"coordinates":[-169846.0,-442465.0],"type":"Point"},"properties":{"alt":"","lat":-85.64,"lon":-159.0,"name":"Amundsen Glacier","source":"SCAR gaz","tier":2,"type":"glacier"},"type":"Feature"},{"geometry":{"coordinates":[520954.0,-1.512959e6],"type":"Point"},"properties":{"alt":"","lat":-75.35,"lon":161.0,"name":"David Glacier","source":"SCAR gaz (adj.)","tier":1,"type":"glacier"},"type":"Feature"},{"geometry":{"coordinates":[466199.0,-1.425494e6],"type":"Point"},"properties":{"alt":"","lat":-76.26,"lon":161.89,"name":"Mawson Glacier","source":"SCAR gaz","tier":2,"type":"glacier"},"type":"Feature"},{"geometry":{"coordinates":[-322407.0,-460445.0],"type":"Point"},"properties":{"alt":"","lat":-84.83,"lon":-145.0,"name":"Mercer Ice Stream","source":"SCAR gaz","tier":2,"type":"glacier"},"type":"Feature"},{"geometry":{"coordinates":[-394874.0,-563939.0],"type":"Point"},"properties":{"alt":"","lat":-83.67,"lon":-145.0,"name":"Whillans Ice Stream","source":"SCAR gaz","tier":1,"type":"glacier"},"type":"Feature"},{"geometry":{"coordinates":[-483692.0,-690783.0],"type":"Point"},"properties":{"alt":"","lat":-82.25,"lon":-145.0,"name":"Kamb Ice Stream","source":"SCAR gaz","tier":1,"type":"glacier"},"type":"Feature"},{"geometry":{"coordinates":[-603229.0,-772098.0],"type":"Point"},"properties":{"alt":"","lat":-81.0,"lon":-142.0,"name":"Bindschadler Ice Stream","source":"SCAR gaz","tier":2,"type":"glacier"},"type":"Feature"},{"geometry":{"coordinates":[-655485.0,-869857.0],"type":"Point"},"properties":{"alt":"","lat":-80.0,"lon":-143.0,"name":"MacAyeal Ice Stream","source":"SCAR gaz","tier":2,"type":"glacier"},"type":"Feature"},{"geometry":{"coordinates":[-840913.0,225322.0],"type":"Point"},"properties":{"alt":"","lat":-82.0,"lon":-75.0,"name":"Institute Ice Stream","source":"SCAR gaz","tier":1,"type":"glacier"},"type":"Feature"},{"geometry":{"coordinates":[-736873.0,391802.0],"type":"Point"},"properties":{"alt":"","lat":-82.33,"lon":-62.0,"name":"Möller Ice Stream","source":"SCAR gaz","tier":1,"type":"glacier"},"type":"Feature"},{"geometry":{"coordinates":[-1.183955e6,187520.0],"type":"Point"},"properties":{"alt":"","lat":-79.0,"lon":-81.0,"name":"Rutford Ice Stream","source":"SCAR gaz","tier":1,"type":"glacier"},"type":"Feature"},{"geometry":{"coordinates":[-1.495042e6,317781.0],"type":"Point"},"properties":{"alt":"","lat":-76.0,"lon":-78.0,"name":"Evans Ice Stream","source":"SCAR gaz","tier":2,"type":"glacier"},"type":"Feature"},{"geometry":{"coordinates":[-1.294092e6,245691.0],"type":"Point"},"properties":{"alt":"","lat":-77.92,"lon":-79.25,"name":"Carlson Inlet","source":"SCAR gaz","tier":2,"type":"glacier"},"type":"Feature"},{"geometry":{"coordinates":[-635852.0,367110.0],"type":"Point"},"properties":{"alt":"","lat":-83.25,"lon":-60.0,"name":"Foundation Ice Stream","source":"SCAR gaz","tier":1,"type":"glacier"},"type":"Feature"},{"geometry":{"coordinates":[-546861.0,303130.0],"type":"Point"},"properties":{"alt":"","lat":-84.25,"lon":-61.0,"name":"Academy Glacier","source":"SCAR gaz","tier":2,"type":"glacier"},"type":"Feature"},{"geometry":{"coordinates":[-560846.0,519895.0],"type":"Point"},"properties":{"alt":"","lat":-82.97,"lon":-47.17,"name":"Support Force Glacier","source":"SCAR gaz","tier":2,"type":"glacier"},"type":"Feature"},{"geometry":{"coordinates":[-435396.0,854513.0],"type":"Point"},"properties":{"alt":"","lat":-81.19,"lon":-27.0,"name":"Recovery Glacier","source":"SCAR gaz","tier":1,"type":"glacier"},"type":"Feature"},{"geometry":{"coordinates":[-502925.0,987047.0],"type":"Point"},"properties":{"alt":"","lat":-79.83,"lon":-27.0,"name":"Slessor Glacier","source":"SCAR gaz","tier":1,"type":"glacier"},"type":"Feature"},{"geometry":{"coordinates":[-599357.0,1.038116e6],"type":"Point"},"properties":{"alt":"","lat":-79.0,"lon":-30.0,"name":"Bailey Ice Stream","source":"SCAR gaz","tier":2,"type":"glacier"},"type":"Feature"},{"geometry":{"coordinates":[-522750.0,1.518178e6],"type":"Point"},"properties":{"alt":"","lat":-75.3,"lon":-19.0,"name":"Stancomb-Wills Glacier","source":"SCAR gaz","tier":2,"type":"glacier"},"type":"Feature"},{"geometry":{"coordinates":[-28782.0,1.986712e6],"type":"Point"},"properties":{"alt":"","lat":-71.86,"lon":-0.83,"name":"Jutulstraumen","source":"SCAR gaz","tier":1,"type":"glacier"},"type":"Feature"},{"geometry":{"coordinates":[1.711314e6,709199.0],"type":"Point"},"properties":{"alt":"","lat":-73.07,"lon":67.49,"name":"Lambert Glacier","source":"SCAR gaz (AUS entry)","tier":1,"type":"glacier"},"type":"Feature"},{"geometry":{"coordinates":[1.652923e6,721801.0],"type":"Point"},"properties":{"alt":"","lat":-73.51,"lon":66.41,"name":"Mellor Glacier","source":"SCAR gaz","tier":2,"type":"glacier"},"type":"Feature"},{"geometry":{"coordinates":[1.658508e6,774080.0],"type":"Point"},"properties":{"alt":"","lat":-73.27,"lon":64.98,"name":"Fisher Glacier","source":"SCAR gaz","tier":2,"type":"glacier"},"type":"Feature"},{"geometry":{"coordinates":[2.51227e6,-429430.0],"type":"Point"},"properties":{"alt":"","lat":-66.85,"lon":99.7,"name":"Denman Glacier","source":"SCAR gaz (adj. inland of grounding line)","tier":1,"type":"glacier"},"type":"Feature"},{"geometry":{"coordinates":[2.257608e6,-1.120686e6],"type":"Point"},"properties":{"alt":"","lat":-67.1,"lon":116.4,"name":"Totten Glacier","source":"SCAR gaz (adj. inland of grounding line)","tier":1,"type":"glacier"},"type":"Feature"},{"geometry":{"coordinates":[1.951382e6,-1.588109e6],"type":"Point"},"properties":{"alt":"","lat":-67.14,"lon":129.14,"name":"Frost Glacier","source":"SCAR gaz","tier":2,"type":"glacier"},"type":"Feature"},{"geometry":{"coordinates":[2.049397e6,-1.545453e6],"type":"Point"},"properties":{"alt":"","lat":-66.69,"lon":127.02,"name":"Holmes Glacier","source":"SCAR gaz","tier":2,"type":"glacier"},"type":"Feature"},{"geometry":{"coordinates":[1.864863e6,-1.840289e6],"type":"Point"},"properties":{"alt":"","lat":-66.22,"lon":134.62,"name":"Dibble Glacier","source":"SCAR gaz","tier":2,"type":"glacier"},"type":"Feature"},{"geometry":{"coordinates":[1.427527e6,-2.013932e6],"type":"Point"},"properties":{"alt":"","lat":-67.56,"lon":144.67,"name":"Mertz Glacier","source":"SCAR gaz","tier":2,"type":"glacier"},"type":"Feature"},{"geometry":{"coordinates":[1.285972e6,-2.006187e6],"type":"Point"},"properties":{"alt":"","lat":-68.32,"lon":147.34,"name":"Ninnis Glacier","source":"SCAR gaz","tier":2,"type":"glacier"},"type":"Feature"},{"geometry":{"coordinates":[1.082864e6,-2.036571e6],"type":"Point"},"properties":{"alt":"","lat":-69.0,"lon":152.0,"name":"Cook Glacier","source":"unverified (feeds Cook Ice Shelf)","tier":2,"type":"glacier"},"type":"Feature"},{"geometry":{"coordinates":[705072.0,-2.019016e6],"type":"Point"},"properties":{"alt":"","lat":-70.5,"lon":160.75,"name":"Rennick Glacier","source":"SCAR gaz","tier":2,"type":"glacier"},"type":"Feature"},{"geometry":{"coordinates":[582975.0,-2.025071e6],"type":"Point"},"properties":{"alt":"","lat":-70.78,"lon":163.94,"name":"Lillie Glacier","source":"SCAR gaz","tier":2,"type":"glacier"},"type":"Feature"},{"geometry":{"coordinates":[1.365192e6,1.689486e6],"type":"Point"},"properties":{"alt":"","lat":-70.2,"lon":38.94,"name":"Shirase Glacier","source":"SCAR gaz","tier":1,"type":"glacier"},"type":"Feature"},{"geometry":{"coordinates":[1.775494e6,1.695514e6],"type":"Point"},"properties":{"alt":"","lat":-67.68,"lon":46.32,"name":"Hays Glacier","source":"SCAR gaz","tier":2,"type":"glacier"},"type":"Feature"},{"geometry":{"coordinates":[1.826886e6,1.617998e6],"type":"Point"},"properties":{"alt":"","lat":-67.81,"lon":48.47,"name":"Rayner Glacier","source":"SCAR gaz","tier":2,"type":"glacier"},"type":"Feature"},{"geometry":{"coordinates":[387827.0,1.725137e6],"type":"Point"},"properties":{"alt":"","lat":-73.83,"lon":12.67,"name":"Dronning Maud Land","source":"SCAR gaz","tier":1,"type":"region"},"type":"Feature"},{"geometry":{"coordinates":[-639630.0,1.235026e6],"type":"Point"},"properties":{"alt":"","lat":-77.25,"lon":-27.38,"name":"Coats Land","source":"SCAR gaz","tier":1,"type":"region"},"type":"Feature"},{"geometry":{"coordinates":[1.855486e6,1.462747e6],"type":"Point"},"properties":{"alt":"","lat":-68.5,"lon":51.75,"name":"Enderby Land","source":"SCAR gaz","tier":1,"type":"region"},"type":"Feature"},{"geometry":{"coordinates":[2.011668e6,1.281574e6],"type":"Point"},"properties":{"alt":"","lat":-68.3,"lon":57.5,"name":"Kemp Land","source":"SCAR gaz (adj. inland)","tier":2,"type":"region"},"type":"Feature"},{"geometry":{"coordinates":[2.022034e6,914258.0],"type":"Point"},"properties":{"alt":"","lat":-69.78,"lon":65.67,"name":"Mac. Robertson Land","source":"SCAR gaz","tier":1,"type":"region"},"type":"Feature"},{"geometry":{"coordinates":[2.245128e6,388608.0],"type":"Point"},"properties":{"alt":"","lat":-69.25,"lon":80.18,"name":"Princess Elizabeth Land","source":"SCAR gaz","tier":1,"type":"region"},"type":"Feature"},{"geometry":{"coordinates":[2.362723e6,0.0],"type":"Point"},"properties":{"alt":"","lat":-68.5,"lon":90.0,"name":"Wilhelm II Land","source":"SCAR gaz (adj. inland)","tier":1,"type":"region"},"type":"Feature"},{"geometry":{"coordinates":[2.349779e6,-246972.0],"type":"Point"},"properties":{"alt":"","lat":-68.5,"lon":96.0,"name":"Queen Mary Land","source":"SCAR gaz (adj. inland)","tier":1,"type":"region"},"type":"Feature"},{"geometry":{"coordinates":[1.997539e6,-1.15328e6],"type":"Point"},"properties":{"alt":"","lat":-69.0,"lon":120.0,"name":"Wilkes Land","source":"SCAR gaz","tier":1,"type":"region"},"type":"Feature"},{"geometry":{"coordinates":[1.565587e6,-1.769575e6],"type":"Point"},"properties":{"alt":"","lat":-68.5,"lon":138.5,"name":"Adélie Land","source":"SCAR gaz (adj. inland)","tier":1,"type":"region"},"type":"Feature"},{"geometry":{"coordinates":[1.252052e6,-2.003702e6],"type":"Point"},"properties":{"alt":"","lat":-68.5,"lon":148.0,"name":"George V Land","source":"SCAR gaz","tier":1,"type":"region"},"type":"Feature"},{"geometry":{"coordinates":[797038.0,-1.924219e6],"type":"Point"},"properties":{"alt":"","lat":-71.0,"lon":157.5,"name":"Oates Land","source":"SCAR gaz (adj.)","tier":2,"type":"region"},"type":"Feature"},{"geometry":{"coordinates":[495291.0,-1.620023e6],"type":"Point"},"properties":{"alt":"","lat":-74.5,"lon":163.0,"name":"Victoria Land","source":"SCAR gaz","tier":1,"type":"region"},"type":"Feature"},{"geometry":{"coordinates":[-1.044387e6,-876345.0],"type":"Point"},"properties":{"alt":"","lat":-77.5,"lon":-130.0,"name":"Marie Byrd Land","source":"SCAR gaz (adj. to centre)","tier":1,"type":"region"},"type":"Feature"},{"geometry":{"coordinates":[-1.597392e6,210301.0],"type":"Point"},"properties":{"alt":"","lat":-75.25,"lon":-82.5,"name":"Ellsworth Land","source":"SCAR gaz","tier":2,"type":"region"},"type":"Feature"},{"geometry":{"coordinates":[-1.887622e6,880212.0],"type":"Point"},"properties":{"alt":"","lat":-71.0,"lon":-65.0,"name":"Palmer Land","source":"SCAR gaz","tier":1,"type":"region"},"type":"Feature"},{"geometry":{"coordinates":[-2.390001e6,1.217766e6],"type":"Point"},"properties":{"alt":"","lat":-65.67,"lon":-63.0,"name":"Graham Land","source":"SCAR gaz","tier":1,"type":"region"},"type":"Feature"},{"geometry":{"coordinates":[-2.17416e6,1.060409e6],"type":"Point"},"properties":{"alt":"","lat":-68.0,"lon":-64.0,"name":"Antarctic Peninsula","source":"SCAR gaz","tier":2,"type":"region"},"type":"Feature"},{"geometry":{"coordinates":[-395234.0,-775690.0],"type":"Point"},"properties":{"alt":"","lat":-82.0,"lon":-153.0,"name":"Siple Coast","source":"SCAR gaz","tier":1,"type":"region"},"type":"Feature"},{"geometry":{"coordinates":[-1.476362e6,-395590.0],"type":"Point"},"properties":{"alt":"","lat":-76.0,"lon":-105.0,"name":"Amundsen Sea Embayment","source":"unverified","tier":2,"type":"region"},"type":"Feature"},{"geometry":{"coordinates":[-47377.0,-541525.0],"type":"Point"},"properties":{"alt":"","lat":-85.0,"lon":-175.0,"name":"Transantarctic Mountains","source":"SCAR gaz","tier":1,"type":"mountains"},"type":"Feature"},{"geometry":{"coordinates":[-1.206785e6,110888.0],"type":"Point"},"properties":{"alt":"","lat":-78.88,"lon":-84.75,"name":"Ellsworth Mountains","source":"SCAR gaz","tier":1,"type":"mountains"},"type":"Feature"},{"geometry":{"coordinates":[1.003746e6,250262.0],"type":"Point"},"properties":{"alt":"","lat":-80.5,"lon":76.0,"name":"Gamburtsev Subglacial Mountains","source":"SCAR gaz","tier":1,"type":"mountains"},"type":"Feature"},{"geometry":{"coordinates":[1.835178e6,775965.0],"type":"Point"},"properties":{"alt":"","lat":-71.81,"lon":67.08,"name":"Prince Charles Mountains","source":"SCAR gaz","tier":1,"type":"mountains"},"type":"Feature"},{"geometry":{"coordinates":[1.023238e6,229658.0],"type":"Point"},"properties":{"alt":"","lat":-80.37,"lon":77.35,"name":"Dome A (Argus)","source":"Wikipedia (CHINARE GPS)","tier":1,"type":"dome"},"type":"Feature"},{"geometry":{"coordinates":[1.358914e6,-896039.0],"type":"Point"},"properties":{"alt":"","lat":-75.1,"lon":123.4,"name":"Dome C","source":"SCAR gaz (Concordia)","tier":1,"type":"dome"},"type":"Feature"},{"geometry":{"coordinates":[883503.0,1.064184e6],"type":"Point"},"properties":{"alt":"","lat":-77.32,"lon":39.7,"name":"Dome F (Fuji)","source":"SCAR gaz (Dome Fuji Stn)","tier":1,"type":"dome"},"type":"Feature"},{"geometry":{"coordinates":[1.19404e6,-77006.0],"type":"Point"},"properties":{"alt":"","lat":-79.02,"lon":93.69,"name":"Ridge B (Dome B)","source":"Antarctic Science 2021 (Dome B)","tier":1,"type":"dome"},"type":"Feature"},{"geometry":{"coordinates":[2.361546e6,-994158.0],"type":"Point"},"properties":{"alt":"","lat":-66.73,"lon":112.83,"name":"Law Dome","source":"SCAR gaz","tier":2,"type":"dome"},"type":"Feature"},{"geometry":{"coordinates":[668284.0,-1.757423e6],"type":"Point"},"properties":{"alt":"","lat":-72.82,"lon":159.18,"name":"Talos Dome","source":"TALDICE site","tier":2,"type":"dome"},"type":"Feature"},{"geometry":{"coordinates":[0.0,0.0],"type":"Point"},"properties":{"alt":"","lat":-90.0,"lon":0.0,"name":"Amundsen-Scott South Pole Station","source":"SCAR gaz","tier":1,"type":"station"},"type":"Feature"},{"geometry":{"coordinates":[1.203194e6,-363266.0],"type":"Point"},"properties":{"alt":"","lat":-78.47,"lon":106.8,"name":"Vostok Station","source":"SCAR gaz","tier":1,"type":"station"},"type":"Feature"},{"geometry":{"coordinates":[1.358914e6,-896039.0],"type":"Point"},"properties":{"alt":"","lat":-75.1,"lon":123.4,"name":"Concordia Station","source":"SCAR gaz","tier":2,"type":"station"},"type":"Feature"},{"geometry":{"coordinates":[1.016976e6,232545.0],"type":"Point"},"properties":{"alt":"","lat":-80.42,"lon":77.12,"name":"Kunlun Station","source":"SCAR gaz","tier":2,"type":"station"},"type":"Feature"},{"geometry":{"coordinates":[883503.0,1.064184e6],"type":"Point"},"properties":{"alt":"","lat":-77.32,"lon":39.7,"name":"Dome Fuji Station","source":"SCAR gaz","tier":2,"type":"station"},"type":"Feature"},{"geometry":{"coordinates":[-945788.0,-535755.0],"type":"Point"},"properties":{"alt":"","lat":-80.02,"lon":-119.53,"name":"Byrd Station","source":"SCAR gaz","tier":1,"type":"icecore"},"type":"Feature"},{"geometry":{"coordinates":[-1.062999e6,-431423.0],"type":"Point"},"properties":{"alt":"","lat":-79.47,"lon":-112.09,"name":"WAIS Divide","source":"PANGAEA / WAIS Divide project","tier":1,"type":"icecore"},"type":"Feature"},{"geometry":{"coordinates":[2002.0,1.638782e6],"type":"Point"},"properties":{"alt":"","lat":-75.0,"lon":0.07,"name":"EDML (Kohnen)","source":"SCAR gaz","tier":1,"type":"icecore"},"type":"Feature"},{"geometry":{"coordinates":[-467110.0,-779558.0],"type":"Point"},"properties":{"alt":"","lat":-81.65,"lon":-149.07,"name":"Siple Dome","source":"SCAR gaz (Siple Dome Camp)","tier":2,"type":"icecore"},"type":"Feature"},{"geometry":{"coordinates":[305467.0,-1.289202e6],"type":"Point"},"properties":{"alt":"","lat":-77.85,"lon":166.67,"name":"McMurdo Station","source":"SCAR gaz","tier":2,"type":"station"},"type":"Feature"},{"geometry":{"coordinates":[-678673.0,1.42223e6],"type":"Point"},"properties":{"alt":"","lat":-75.57,"lon":-25.51,"name":"Halley VI","source":"Wikipedia","tier":2,"type":"station"},"type":"Feature"},{"geometry":{"coordinates":[-304879.0,2.097556e6],"type":"Point"},"properties":{"alt":"","lat":-70.67,"lon":-8.27,"name":"Neumayer III","source":"Wikipedia","tier":2,"type":"station"},"type":"Feature"},{"geometry":{"coordinates":[2.447232e6,-916443.0],"type":"Point"},"properties":{"alt":"","lat":-66.28,"lon":110.53,"name":"Casey","source":"SCAR gaz","tier":2,"type":"station"},"type":"Feature"},{"geometry":{"coordinates":[2.302039e6,490574.0],"type":"Point"},"properties":{"alt":"","lat":-68.58,"lon":77.97,"name":"Davis","source":"SCAR gaz","tier":2,"type":"station"},"type":"Feature"},{"geometry":{"coordinates":[2.192935e6,1.123631e6],"type":"Point"},"properties":{"alt":"","lat":-67.6,"lon":62.87,"name":"Mawson","source":"SCAR gaz","tier":2,"type":"station"},"type":"Feature"},{"geometry":{"coordinates":[1.651017e6,-1.968302e6],"type":"Point"},"properties":{"alt":"","lat":-66.67,"lon":140.01,"name":"Dumont d'Urville","source":"SCAR gaz","tier":2,"type":"station"},"type":"Feature"},{"geometry":{"coordinates":[-2.289688e6,919520.0],"type":"Point"},"properties":{"alt":"","lat":-67.57,"lon":-68.12,"name":"Rothera","source":"SCAR gaz","tier":2,"type":"station"},"type":"Feature"},{"geometry":{"coordinates":[939967.0,-1.342413e6],"type":"Point"},"properties":{"alt":"","lat":-75.0,"lon":145.0,"name":"Wilkes Subglacial Basin","source":"SCAR gaz","tier":1,"type":"basin"},"type":"Feature"},{"geometry":{"coordinates":[1.598128e6,-711532.0],"type":"Point"},"properties":{"alt":"","lat":-74.0,"lon":114.0,"name":"Aurora Subglacial Basin","source":"SCAR gaz","tier":1,"type":"basin"},"type":"Feature"},{"geometry":{"coordinates":[-987132.0,-460307.0],"type":"Point"},"properties":{"alt":"","lat":-80.0,"lon":-115.0,"name":"Byrd Subglacial Basin","source":"SCAR gaz","tier":2,"type":"basin"},"type":"Feature"},{"geometry":{"coordinates":[-1.052067e6,-281900.0],"type":"Point"},"properties":{"alt":"","lat":-80.0,"lon":-105.0,"name":"Bentley Subglacial Trench","source":"SCAR gaz","tier":1,"type":"basin"},"type":"Feature"},{"geometry":{"coordinates":[228980.0,726233.0],"type":"Point"},"properties":{"alt":"","lat":-83.0,"lon":17.5,"name":"Recovery Subglacial Lakes","source":"Wikipedia list (Bell et al. 2007; centroid of A-D)","tier":1,"type":"lake"},"type":"Feature"},{"geometry":{"coordinates":[1.319825e6,-363045.0],"type":"Point"},"properties":{"alt":"","lat":-77.45,"lon":105.38,"name":"Lake Vostok","source":"SCAR gaz","tier":1,"type":"lake"},"type":"Feature"},{"geometry":{"coordinates":[-1.446807e6,1.498212e6],"type":"Point"},"properties":{"alt":"","lat":-71.0,"lon":-44.0,"name":"Weddell Sea","source":"SCAR gaz","tier":1,"type":"sea"},"type":"Feature"},{"geometry":{"coordinates":[59121.0,-1.693012e6],"type":"Point"},"properties":{"alt":"","lat":-74.5,"lon":178.0,"name":"Ross Sea","source":"unverified (open water N of shelf front)","tier":1,"type":"sea"},"type":"Feature"},{"geometry":{"coordinates":[-1.724761e6,-696849.0],"type":"Point"},"properties":{"alt":"","lat":-73.0,"lon":-112.0,"name":"Amundsen Sea","source":"SCAR gaz","tier":1,"type":"sea"},"type":"Feature"},{"geometry":{"coordinates":[-2.074835e6,181525.0],"type":"Point"},"properties":{"alt":"","lat":-71.0,"lon":-85.0,"name":"Bellingshausen Sea","source":"SCAR gaz","tier":1,"type":"sea"},"type":"Feature"},{"geometry":{"coordinates":[2.540887e6,-1.779148e6],"type":"Point"},"properties":{"alt":"","lat":-62.0,"lon":125.0,"name":"Southern Ocean","source":"unverified (placement)","tier":1,"type":"sea"},"type":"Feature"},{"geometry":{"coordinates":[2.681639e6,-62260.0],"type":"Point"},"properties":{"alt":"","lat":-65.67,"lon":91.33,"name":"Davis Sea","source":"SCAR gaz","tier":2,"type":"sea"},"type":"Feature"},{"geometry":{"coordinates":[1.694077e6,1.881463e6],"type":"Point"},"properties":{"alt":"","lat":-67.0,"lon":42.0,"name":"Cosmonaut Sea","source":"SCAR gaz","tier":2,"type":"sea"},"type":"Feature"},{"geometry":{"coordinates":[906164.0,2.242834e6],"type":"Point"},"properties":{"alt":"","lat":-68.0,"lon":22.0,"name":"Riiser-Larsen Sea","source":"unverified","tier":2,"type":"sea"},"type":"Feature"},{"geometry":{"coordinates":[294799.0,2.400944e6],"type":"Point"},"properties":{"alt":"","lat":-68.0,"lon":7.0,"name":"Lazarev Sea","source":"SCAR gaz","tier":2,"type":"sea"},"type":"Feature"},{"geometry":{"coordinates":[2.379074e6,865912.0],"type":"Point"},"properties":{"alt":"","lat":-67.0,"lon":70.0,"name":"Cooperation Sea","source":"SCAR gaz","tier":2,"type":"sea"},"type":"Feature"},{"geometry":{"coordinates":[1.718469e6,-2.084669e6],"type":"Point"},"properties":{"alt":"","lat":-65.5,"lon":140.5,"name":"Dumont d'Urville Sea","source":"SCAR gaz","tier":2,"type":"sea"},"type":"Feature"},{"geometry":{"coordinates":[702037.0,-2.226576e6],"type":"Point"},"properties":{"alt":"","lat":-68.75,"lon":162.5,"name":"Somov Sea","source":"SCAR gaz","tier":2,"type":"sea"},"type":"Feature"},{"geometry":{"coordinates":[2.664508e6,-713953.0],"type":"Point"},"properties":{"alt":"","lat":-65.0,"lon":105.0,"name":"Mawson Sea","source":"SCAR gaz","tier":2,"type":"sea"},"type":"Feature"},{"geometry":{"coordinates":[-2.73211e6,2.292513e6],"type":"Point"},"properties":{"alt":"","lat":-58.0,"lon":-50.0,"name":"Scotia Sea","source":"unverified (placed near Peninsula tip)","tier":2,"type":"sea"},"type":"Feature"},{"geometry":{"coordinates":[2.23309e6,577516.0],"type":"Point"},"properties":{"alt":"","lat":-69.0,"lon":75.5,"name":"Prydz Bay","source":"SCAR gaz","tier":1,"type":"sea"},"type":"Feature"},{"geometry":{"coordinates":[-852369.0,762910.0],"type":"Point"},"properties":{"alt":"","lat":-79.5,"lon":-48.17,"name":"Berkner Island","source":"SCAR gaz","tier":1,"type":"island"},"type":"Feature"},{"geometry":{"coordinates":[-355523.0,-1.094188e6],"type":"Point"},"properties":{"alt":"","lat":-79.44,"lon":-162.0,"name":"Roosevelt Island","source":"SCAR gaz","tier":1,"type":"island"},"type":"Feature"},{"geometry":{"coordinates":[-1.957154e6,712346.0],"type":"Point"},"properties":{"alt":"","lat":-71.0,"lon":-70.0,"name":"Alexander Island","source":"SCAR gaz","tier":1,"type":"island"},"type":"Feature"},{"geometry":{"coordinates":[-1.911394e6,-319858.0],"type":"Point"},"properties":{"alt":"","lat":-72.3,"lon":-99.5,"name":"Thurston Island","source":"SCAR gaz","tier":2,"type":"island"},"type":"Feature"},{"geometry":{"coordinates":[-1.464754e6,-1.025632e6],"type":"Point"},"properties":{"alt":"","lat":-73.65,"lon":-125.0,"name":"Siple Island","source":"SCAR gaz","tier":2,"type":"island"},"type":"Feature"},{"geometry":{"coordinates":[283456.0,-1.333558e6],"type":"Point"},"properties":{"alt":"","lat":-77.5,"lon":168.0,"name":"Ross Island","source":"SCAR gaz","tier":2,"type":"island"},"type":"Feature"},{"geometry":{"coordinates":[-2.329325e6,917546.0],"type":"Point"},"properties":{"alt":"","lat":-67.25,"lon":-68.5,"name":"Adelaide Island","source":"SCAR gaz","tier":2,"type":"island"},"type":"Feature"}],"type":"FeatureCollection"}