{"features":[{"geometry":{"coordinates":[576000.0,1.72e6],"type":"Point"},"properties":{"alt":"","extent":[-248000.0,1.096e6,1.264e6,2.152e6],"name":"A-Ap","type":"drainage region"},"type":"Feature"},{"geometry":{"coordinates":[1.648e6,1.384e6],"type":"Point"},"properties":{"alt":"","extent":[880000.0,808000.0,2.288e6,1.96e6],"name":"Ap-B","type":"drainage region"},"type":"Feature"},{"geometry":{"coordinates":[1.44e6,576000.0],"type":"Point"},"properties":{"alt":"","extent":[800000.0,-120000.0,2.224e6,1.192e6],"name":"B-C","type":"drainage region"},"type":"Feature"},{"geometry":{"coordinates":[2.2e6,-72000.0],"type":"Point"},"properties":{"alt":"","extent":[1.64e6,-632000.0,2.6e6,616000.0],"name":"C-Cp","type":"drainage region"},"type":"Feature"},{"geometry":{"coordinates":[1.824e6,-888000.0],"type":"Point"},"properties":{"alt":"","extent":[1.312e6,-1.816e6,2.56e6,-112000.0],"name":"Cp-D","type":"drainage region"},"type":"Feature"},{"geometry":{"coordinates":[1.272e6,-1.648e6],"type":"Point"},"properties":{"alt":"","extent":[688000.0,-2.128e6,1.888e6,-928000.0],"name":"D-Dp","type":"drainage region"},"type":"Feature"},{"geometry":{"coordinates":[720000.0,-1.576e6],"type":"Point"},"properties":{"alt":"","extent":[320000.0,-2.136e6,1.368e6,-920000.0],"name":"Dp-E","type":"drainage region"},"type":"Feature"},{"geometry":{"coordinates":[680000.0,-504000.0],"type":"Point"},"properties":{"alt":"","extent":[-280000.0,-1.256e6,1.36e6,264000.0],"name":"E-Ep","type":"drainage region"},"type":"Feature"},{"geometry":{"coordinates":[-696000.0,-616000.0],"type":"Point"},"properties":{"alt":"","extent":[-1.208e6,-1.304e6,-80000.0,-104000.0],"name":"Ep-F","type":"drainage region"},"type":"Feature"},{"geometry":{"coordinates":[-1.184e6,-1.008e6],"type":"Point"},"properties":{"alt":"","extent":[-1.576e6,-1.288e6,-800000.0,-704000.0],"name":"F-G","type":"drainage region"},"type":"Feature"},{"geometry":{"coordinates":[-1.384e6,-320000.0],"type":"Point"},"properties":{"alt":"","extent":[-1.84e6,-848000.0,-1.0e6,96000.0],"name":"G-H","type":"drainage region"},"type":"Feature"},{"geometry":{"coordinates":[-1.768e6,32000.0],"type":"Point"},"properties":{"alt":"","extent":[-1.896e6,-416000.0,-1.656e6,320000.0],"name":"H-Hp","type":"drainage region"},"type":"Feature"},{"geometry":{"coordinates":[-1.768e6,744000.0],"type":"Point"},"properties":{"alt":"","extent":[-2.136e6,304000.0,-1.568e6,960000.0],"name":"Hp-I","type":"drainage region"},"type":"Feature"},{"geometry":{"coordinates":[-2.344e6,1.176e6],"type":"Point"},"properties":{"alt":"","extent":[-2.504e6,896000.0,-2.072e6,1.608e6],"name":"I-Ipp","type":"drainage region"},"type":"Feature"},{"geometry":{"coordinates":[-1.776e6,912000.0],"type":"Point"},"properties":{"alt":"","extent":[-2.112e6,752000.0,-1.464e6,1.072e6],"name":"Ipp-J","type":"drainage region"},"type":"Feature"},{"geometry":{"coordinates":[-984000.0,160000.0],"type":"Point"},"properties":{"alt":"","extent":[-1.68e6,-184000.0,-152000.0,776000.0],"name":"J-Jpp","type":"drainage region"},"type":"Feature"},{"geometry":{"coordinates":[112000.0,768000.0],"type":"Point"},"properties":{"alt":"","extent":[-752000.0,-192000.0,896000.0,1.64e6],"name":"Jpp-K","type":"drainage region"},"type":"Feature"},{"geometry":{"coordinates":[-376000.0,1.592e6],"type":"Point"},"properties":{"alt":"","extent":[-768000.0,1.04e6,-8000.0,2.104e6],"name":"K-A","type":"drainage region"},"type":"Feature"}],"type":"FeatureCollection"}