{"features":[{"type":"Feature","properties":{"FID":0},"geometry":{"type":"MultiLineString","coordinates":[[[-1964794,3040500],[-1972527,3017298],[-1989244,3000582],[-1997602,2975508],[-2064467,2942075],[-2089542,2933717],[-2139691,2883568],[-2148049,2850135],[-2181482,2833419],[-2214914,2766553],[-2223273,2724763],[-2239989,2716404],[-2248347,2699688],[-2265063,2691330],[-2273422,2674614],[-2290138,2666255],[-2298496,2641181],[-2315212,2624465],[-2323571,2599390],[-2340287,2591032],[-2348645,2540883],[-2365361,2499092],[-2373720,2423869],[-2390436,2390436],[-2398794,2348645],[-2415510,2340287],[-2423869,2323571],[-2440585,2315212],[-2448943,2290138],[-2465659,2273422],[-2474018,2214914],[-2490734,2173124],[-2499092,2106258],[-2532525,2056109],[-2565957,1939095],[-2574316,1797006],[-2591032,1713424],[-2599390,1579694],[-2591032,1537903],[-2574316,1521186],[-2565957,1496112],[-2549241,1487754],[-2540883,1487754],[-2524167,1496112],[-2519987,1504470]],[[-2507450,1341486],[-2515808,1345665],[-2524167,1362381],[-2557599,1370739],[-2582674,1429247],[-2624465,1479396],[-2641181,1537903],[-2666255,1546261],[-2674614,1571335],[-2699688,1596410],[-2716404,1588052],[-2724763,1588052],[-2749837,1596410],[-2791628,1537903],[-2799986,1487754],[-2791628,1395814],[-2791628,1337307],[-2799986,1270441],[-2799986,1262083],[-2791628,1245367],[-2791628,1237009],[-2799986,1211934],[-2799986,1195218],[-2791628,1170143],[-2774912,1161785],[-2766553,1145069],[-2749837,1136711],[-2741479,1119994],[-2749837,1061487],[-2766553,1019696],[-2774912,911040],[-2774912,844175],[-2766553,760593],[-2766553,743877],[-2774912,702086],[-2774912,677012],[-2766553,585072],[-2749837,518206],[-2741479,434625],[-2724763,417908],[-2716404,384476],[-2699688,367759],[-2691330,309252],[-2691330,267461],[-2699688,208954],[-2691330,66865],[-2674614,-66865],[-2666255,-250745],[-2649539,-300894],[-2641181,-367759],[-2624465,-384476],[-2616106,-426267],[-2599390,-451341],[-2591032,-534923],[-2574316,-593430],[-2565957,-685370],[-2549241,-718802],[-2540883,-760593],[-2549241,-802384],[-2549241,-827459],[-2540883,-877608],[-2524167,-902682],[-2515808,-936115],[-2499092,-944473],[-2490734,-961189],[-2474018,-969547],[-2465659,-986264],[-2474018,-1036413],[-2474018,-1069845],[-2465659,-1111636],[-2448943,-1119994],[-2440585,-1136711],[-2440585,-1145069],[-2448943,-1161785],[-2448943,-1170143],[-2440585,-1195218],[-2423869,-1211934],[-2415510,-1237009],[-2398794,-1245367],[-2390436,-1262083],[-2373720,-1270441],[-2365361,-1287158],[-2365361,-1295516],[-2373720,-1312232],[-2365361,-1354023],[-2348645,-1379098],[-2340287,-1420888],[-2323571,-1437605],[-2315212,-1487754],[-2298496,-1521186],[-2290138,-1562977],[-2273422,-1571335],[-2265063,-1596410],[-2248347,-1613126],[-2239989,-1654917],[-2223273,-1679992],[-2214914,-1738499],[-2198198,-1771932],[-2189840,-1847155],[-2173124,-1888946],[-2164765,-1955811],[-2148049,-1980886],[-2139691,-2022677],[-2122975,-2039393],[-2114616,-2064467],[-2097900,-2072826],[-2089542,-2122975],[-2072826,-2164765],[-2064467,-2214914],[-2064467,-2223273],[-2072826,-2239989],[-2072826,-2248347],[-2064467,-2281780],[-2047751,-2306854],[-2039393,-2365361],[-2022677,-2398794],[-2014318,-2440585],[-1997602,-2448943],[-1989244,-2474018],[-1972528,-2490734],[-1964169,-2515808],[-1947453,-2524167],[-1939095,-2540883],[-1922379,-2549241],[-1914020,-2599390],[-1897304,-2641181],[-1888946,-2691330],[-1872229,-2699688],[-1863871,-2716404],[-1847155,-2724763],[-1838797,-2741479],[-1822080,-2749837],[-1813722,-2766553],[-1797006,-2774912],[-1788648,-2791628],[-1763573,-2799986],[-1746857,-2816702],[-1721782,-2825061],[-1713424,-2825061],[-1688350,-2816702],[-1671633,-2816702],[-1638201,-2825061],[-1621484,-2825061],[-1487754,-2799986],[-1462679,-2791628],[-1387456,-2799986],[-1345665,-2799986],[-1295516,-2791628],[-1287158,-2791628],[-1270441,-2799986],[-1262083,-2799986],[-1245367,-2791628],[-1237009,-2791628],[-1195218,-2799986],[-1161785,-2816702],[-1111636,-2825061],[-1094920,-2841777],[-986264,-2850135],[-894324,-2866851],[-768951,-2875210],[-735519,-2891926],[-677012,-2900284],[-651937,-2917000],[-593430,-2925359],[-559997,-2925359],[-493132,-2917000],[-459699,-2917000],[-409550,-2925359],[-392834,-2925359],[-142089,-2891926],[-83582,-2891926],[50149,-2900284],[125373,-2917000],[208954,-2925359],[217312,-2942075],[250745,-2950433],[275820,-2967149],[401192,-2975508],[501490,-2975508],[668653,-2967149],[1019696,-2925359],[1086562,-2891926],[1094920,-2875210],[1111636,-2866851],[1119994,-2850135],[1195218,-2825061],[1211934,-2816702],[1220292,-2799986],[1237009,-2791628],[1245367,-2791628],[1270441,-2799986],[1345665,-2791628],[1395814,-2783270],[1445963,-2758195],[1462679,-2733121],[1471037,-2699688],[1487754,-2691330],[1496112,-2674614],[1512828,-2666255],[1521186,-2649539],[1588052,-2616106],[1596410,-2599390],[1663275,-2565957],[1671633,-2549241],[1738499,-2515808],[1746857,-2490734],[1813722,-2423869],[1822081,-2398794],[1888946,-2365361],[1897304,-2348645],[1964169,-2315212],[1972528,-2298496],[2056109,-2256705],[2089542,-2223273],[2097900,-2189840],[2114616,-2173124],[2122975,-2148049],[2139691,-2139691],[2148049,-2122975],[2164765,-2114616],[2173124,-2089542],[2189840,-2072826],[2198198,-2039393],[2214914,-2022677],[2223273,-1997602],[2239989,-1989244],[2248347,-1972528],[2265063,-1964169],[2273422,-1939095],[2290138,-1922379],[2298496,-1897304],[2348645,-1872230],[2423869,-1847155],[2440585,-1838797],[2448943,-1822081],[2465659,-1813722],[2474018,-1797006],[2607748,-1730141],[2641181,-1696708],[2649539,-1671633],[2666255,-1663275],[2674614,-1646559],[2691330,-1638201],[2699688,-1621484],[2716404,-1613126],[2724763,-1596410],[2741479,-1588052],[2749837,-1562977],[2766553,-1546261],[2774912,-1512828],[2791628,-1496112],[2799986,-1462679],[2816702,-1445963],[2825061,-1412530],[2891926,-1345665],[2900284,-1320590],[2983866,-1278800],[3017298,-1245367],[3025657,-1211934],[3040500,-1197091]],[[3040500,1563914],[3025657,1571335],[3017298,1613126],[3000582,1646559],[2992224,1705066],[2975508,1730141],[2967149,1763573],[2950433,1771931],[2942075,1797006],[2925359,1813722],[2917000,1847155],[2891926,1863871],[2875210,1888946],[2850135,1897304],[2841777,1922378],[2816702,1939095],[2799986,1972527],[2766553,1989244],[2749837,2014318],[2724763,2022676],[2716404,2047751],[2699688,2064467],[2691330,2089542],[2666255,2097900],[2649539,2114616],[2624465,2122975],[2616106,2148049],[2599390,2164765],[2591032,2198198],[2574316,2214914],[2565957,2239989],[2549241,2248347],[2540883,2265063],[2515808,2273422],[2499092,2290138],[2474018,2298496],[2465659,2323571],[2448943,2340287],[2440585,2365361],[2423869,2373720],[2415510,2390436],[2398794,2398794],[2390436,2415510],[2365361,2423869],[2348645,2448943],[2323571,2465659],[2315212,2490734],[2298496,2499092],[2290138,2515808],[2273422,2524167],[2265063,2540883],[2248347,2549241],[2239989,2574316],[2223273,2591032],[2214914,2616106],[2198198,2624465],[2189840,2641181],[2173124,2649539],[2164765,2666255],[2148049,2674614],[2139691,2691330],[2122975,2699688],[2114616,2716404],[2097900,2724763],[2089542,2741479],[2064467,2749837],[2047751,2766553],[2022676,2774912],[2014318,2799986],[1989244,2816702],[1972527,2841777],[1939095,2850135],[1922378,2875210],[1897304,2891926],[1888946,2917000],[1863871,2925359],[1847155,2942075],[1797006,2950433],[1763573,2967149],[1705066,2975508],[1679992,2992224],[1646559,3000582],[1638201,3017298],[1621484,3025657],[1614063,3040500]]]}}],"type":"FeatureCollection"}