{
"type": "FeatureCollection",
"name": "median_extent_S_02_1981-2010_polyline_v4.0",
"crs": { "type": "name", "properties": { "name": "urn:ogc:def:crs:EPSG::3031" } },
"xy_coordinate_resolution": 1,
"features": [
{ "type": "Feature", "properties": { "FID": 0 }, "geometry": { "type": "MultiLineString", "coordinates": [ [ [ 2733121, -150447 ], [ 2741479, -158805 ], [ 2749837, -183880 ], [ 2766553, -192238 ], [ 2774912, -208954 ], [ 2791628, -217312 ], [ 2799986, -208954 ], [ 2799986, -192238 ], [ 2791628, -167163 ], [ 2774912, -158805 ], [ 2766553, -142089 ], [ 2749837, -133731 ], [ 2745658, -125373 ] ], [ [ -752235, 1253725 ], [ -760593, 1295516 ], [ -785668, 1337307 ], [ -794026, 1395814 ], [ -810742, 1412530 ], [ -819100, 1437605 ], [ -844175, 1445963 ], [ -860891, 1462679 ], [ -894324, 1471038 ], [ -911040, 1487754 ], [ -936115, 1496112 ], [ -944473, 1529545 ], [ -961189, 1554619 ], [ -969547, 1596410 ], [ -952831, 1604768 ], [ -919398, 1638201 ], [ -911040, 1663275 ], [ -902682, 1667454 ] ], [ [ -940294, 1679992 ], [ -952831, 1671634 ], [ -986264, 1663275 ], [ -994622, 1646559 ], [ -1019696, 1638201 ], [ -1036413, 1638201 ], [ -1044771, 1646559 ], [ -1036413, 1679992 ], [ -1044771, 1705066 ], [ -1061487, 1721783 ], [ -1094920, 1713424 ], [ -1111636, 1713424 ], [ -1145069, 1721783 ], [ -1161785, 1721783 ], [ -1195218, 1713424 ], [ -1211934, 1713424 ], [ -1270441, 1721783 ], [ -1312232, 1738499 ], [ -1379098, 1746857 ], [ -1404172, 1763573 ], [ -1454321, 1771932 ], [ -1479396, 1771932 ], [ -1512828, 1763573 ], [ -1546261, 1746857 ], [ -1571336, 1738499 ], [ -1588052, 1738499 ], [ -1613126, 1746857 ], [ -1654917, 1738499 ], [ -1763573, 1746857 ], [ -1822081, 1763573 ], [ -1897304, 1771932 ], [ -1914020, 1771932 ], [ -1955811, 1763573 ], [ -1980886, 1763573 ], [ -2014318, 1771932 ], [ -2056109, 1763573 ], [ -2081184, 1763573 ], [ -2148049, 1771932 ], [ -2189840, 1771932 ], [ -2239989, 1763573 ], [ -2248347, 1746857 ], [ -2265063, 1738499 ], [ -2273422, 1721783 ], [ -2290138, 1713424 ], [ -2298496, 1671634 ], [ -2315212, 1638201 ], [ -2323571, 1596410 ], [ -2340287, 1588052 ], [ -2348645, 1562977 ], [ -2365361, 1546261 ], [ -2369540, 1529545 ] ], [ [ -2219094, 727161 ], [ -2223273, 718802 ], [ -2239989, 710444 ], [ -2248347, 677012 ], [ -2248347, 651937 ], [ -2239989, 610146 ], [ -2214914, 585072 ], [ -2198198, 593430 ], [ -2173124, 568355 ], [ -2168945, 551639 ] ], [ [ -2156407, 514027 ], [ -2148049, 509848 ], [ -2139691, 468057 ], [ -2122975, 434625 ], [ -2114616, 392834 ], [ -2089542, 384476 ], [ -2064467, 342685 ], [ -2072826, 317610 ], [ -2072826, 309252 ], [ -2064467, 284178 ], [ -2047751, 267461 ], [ -2039393, 234029 ], [ -2039393, 217312 ], [ -2047751, 192238 ], [ -2064467, 183880 ], [ -2139691, 158805 ], [ -2148049, 133731 ], [ -2164765, 117014 ], [ -2173124, 83582 ], [ -2189840, 66865 ], [ -2198198, 25075 ], [ -2198198, 0 ], [ -2189840, -66865 ], [ -2173124, -108656 ], [ -2164765, -158805 ], [ -2164765, -167163 ], [ -2173124, -192238 ], [ -2173124, -208954 ], [ -2164765, -250745 ], [ -2148049, -275820 ], [ -2139691, -325969 ], [ -2122975, -351043 ], [ -2114616, -392834 ], [ -2097900, -409550 ], [ -2089542, -451341 ], [ -2072826, -476416 ], [ -2064467, -526565 ], [ -2047751, -551639 ], [ -2039393, -593430 ], [ -2022677, -610146 ], [ -2014318, -643579 ], [ -1997602, -660295 ], [ -1989244, -702086 ], [ -1972528, -727161 ], [ -1964169, -777310 ], [ -1947453, -802384 ], [ -1939095, -844175 ], [ -1922379, -860891 ], [ -1914020, -885966 ], [ -1897304, -894324 ], [ -1888946, -919398 ], [ -1872230, -936115 ], [ -1863871, -961189 ], [ -1847155, -969547 ], [ -1838797, -994622 ], [ -1813722, -1011338 ], [ -1797006, -1036413 ], [ -1763573, -1044771 ], [ -1738499, -1086562 ], [ -1746857, -1128353 ], [ -1746857, -1153427 ], [ -1738499, -1211934 ], [ -1721783, -1245367 ], [ -1713424, -1287158 ], [ -1713424, -1295516 ], [ -1721783, -1312232 ], [ -1721783, -1320590 ], [ -1713424, -1345665 ], [ -1696708, -1362381 ], [ -1688350, -1387456 ], [ -1663275, -1395814 ], [ -1646559, -1412530 ], [ -1604768, -1420889 ], [ -1579694, -1437605 ], [ -1496112, -1445963 ], [ -1437605, -1462679 ], [ -1337307, -1471038 ], [ -1295516, -1496112 ], [ -1220292, -1512828 ], [ -1186860, -1537903 ], [ -1128353, -1546261 ], [ -1103278, -1562977 ], [ -1069845, -1571336 ], [ -1061487, -1588052 ], [ -1044771, -1596410 ], [ -1036413, -1613126 ], [ -1011338, -1621485 ], [ -994622, -1638201 ], [ -961189, -1646559 ], [ -944473, -1663275 ], [ -911040, -1671634 ], [ -894324, -1696708 ], [ -844175, -1713424 ], [ -810742, -1738499 ], [ -760593, -1746857 ], [ -743877, -1746857 ], [ -718802, -1738499 ], [ -710444, -1738499 ], [ -693728, -1746857 ], [ -685370, -1763573 ], [ -660295, -1771932 ], [ -643579, -1788648 ], [ -610146, -1797006 ], [ -593430, -1813722 ], [ -551639, -1822081 ], [ -526565, -1838797 ], [ -476416, -1847155 ], [ -451341, -1863871 ], [ -417908, -1872230 ], [ -409550, -1888946 ], [ -376118, -1897304 ], [ -351043, -1888946 ], [ -317610, -1872230 ], [ -309252, -1830439 ], [ -292536, -1805364 ], [ -284178, -1771932 ], [ -267461, -1763573 ], [ -259103, -1746857 ], [ -259103, -1738499 ], [ -267461, -1713424 ], [ -284178, -1696708 ], [ -292536, -1663275 ], [ -309252, -1646559 ], [ -317610, -1621485 ], [ -334327, -1613126 ], [ -342685, -1596410 ], [ -359401, -1588052 ], [ -367759, -1562977 ], [ -384476, -1546261 ], [ -392834, -1521187 ], [ -409550, -1512828 ], [ -417908, -1496112 ], [ -434625, -1487754 ], [ -442983, -1462679 ], [ -459699, -1445963 ], [ -468057, -1420889 ], [ -484774, -1412530 ], [ -493132, -1379098 ], [ -509848, -1354023 ], [ -518206, -1312232 ], [ -526565, -1303874 ] ], [ [ 438804, -1454321 ], [ 417908, -1454321 ], [ 367759, -1471038 ], [ 359401, -1496112 ], [ 359401, -1512828 ], [ 367759, -1537903 ], [ 384476, -1546261 ], [ 392834, -1546261 ], [ 409550, -1537903 ], [ 413729, -1529545 ] ], [ [ 413729, -1705066 ], [ 409550, -1696708 ], [ 384476, -1688350 ], [ 367759, -1688350 ], [ 359401, -1696708 ], [ 367759, -1721783 ], [ 376118, -1730141 ] ], [ [ 501490, -2068647 ], [ 493132, -2072826 ], [ 484774, -2097900 ], [ 509848, -2148049 ], [ 534923, -2164765 ], [ 543281, -2189840 ], [ 559997, -2198198 ], [ 568355, -2214914 ], [ 568355, -2223273 ], [ 559997, -2248347 ], [ 559997, -2265063 ], [ 568355, -2290138 ], [ 593430, -2298496 ], [ 610146, -2315212 ], [ 668653, -2323571 ], [ 710444, -2340287 ], [ 768951, -2348645 ], [ 785668, -2365361 ], [ 810742, -2373720 ], [ 819100, -2390436 ], [ 852533, -2398794 ], [ 877608, -2415510 ], [ 919398, -2423869 ], [ 936115, -2440585 ], [ 1011338, -2448943 ], [ 1069845, -2448943 ], [ 1170143, -2440585 ], [ 1270441, -2423869 ], [ 1337307, -2390436 ], [ 1345665, -2373720 ], [ 1362381, -2365361 ], [ 1370739, -2348645 ], [ 1387456, -2340287 ], [ 1395814, -2323571 ], [ 1412530, -2315212 ], [ 1420888, -2298496 ], [ 1437605, -2290138 ], [ 1445963, -2273422 ], [ 1462679, -2265063 ], [ 1471037, -2248347 ], [ 1471037, -2239989 ], [ 1462679, -2223273 ], [ 1420888, -2214914 ], [ 1387456, -2198198 ], [ 1345665, -2189840 ], [ 1337307, -2173124 ], [ 1345665, -2131333 ], [ 1370739, -2089542 ], [ 1387456, -2097900 ], [ 1395814, -2097900 ], [ 1404172, -2093721 ] ], [ [ 1780290, -1918199 ], [ 1788648, -1922379 ], [ 1797006, -1939095 ], [ 1830439, -1947453 ], [ 1855513, -1964169 ], [ 1888946, -1972528 ], [ 1905662, -1980886 ], [ 1930737, -1955811 ] ], [ [ 2031035, -1730141 ], [ 2039393, -1738499 ], [ 2072826, -1746857 ], [ 2089542, -1746857 ], [ 2114616, -1738499 ], [ 2122975, -1721783 ], [ 2139691, -1713424 ], [ 2148049, -1696708 ], [ 2164765, -1688350 ], [ 2173124, -1671634 ], [ 2189840, -1663275 ], [ 2198198, -1646559 ], [ 2214914, -1638201 ], [ 2223273, -1613126 ], [ 2239989, -1596410 ], [ 2248347, -1554619 ], [ 2239989, -1529545 ], [ 2223273, -1496112 ], [ 2214914, -1487754 ], [ 2231631, -1479396 ], [ 2256705, -1441784 ] ], [ [ 2219093, -1253725 ], [ 2223273, -1262083 ], [ 2239989, -1270441 ], [ 2248347, -1287158 ], [ 2265063, -1295516 ], [ 2273422, -1312232 ], [ 2290138, -1320590 ], [ 2298496, -1337307 ], [ 2315212, -1345665 ], [ 2323571, -1345665 ], [ 2440585, -1287158 ], [ 2448943, -1270441 ], [ 2465659, -1262083 ], [ 2474018, -1237009 ], [ 2490734, -1220292 ], [ 2499092, -1170143 ], [ 2499092, -1136711 ], [ 2490734, -1094920 ], [ 2474018, -1086562 ], [ 2465659, -1069845 ], [ 2457301, -1065666 ] ], [ [ 2482376, -977906 ], [ 2490734, -986264 ], [ 2515808, -994622 ], [ 2524167, -994622 ], [ 2540883, -986264 ], [ 2549241, -944473 ], [ 2549241, -911040 ], [ 2540883, -860891 ], [ 2549241, -844175 ], [ 2565957, -835817 ], [ 2574316, -819100 ], [ 2641181, -785668 ], [ 2649539, -768951 ], [ 2666255, -760593 ], [ 2674614, -743877 ], [ 2691330, -735519 ], [ 2699688, -702086 ], [ 2699688, -677012 ], [ 2691330, -635221 ], [ 2741479, -610146 ], [ 2749837, -585072 ], [ 2766553, -568355 ], [ 2774912, -526565 ], [ 2791628, -501490 ], [ 2799986, -459699 ], [ 2808344, -451341 ] ], [ [ 2808344, -351043 ], [ 2816702, -342685 ], [ 2825061, -300894 ], [ 2808344, -275820 ], [ 2783270, -259103 ], [ 2749837, -267461 ], [ 2745658, -275820 ] ], [ [ 2595211, -50149 ], [ 2599390, -41791 ], [ 2649539, -25075 ], [ 2674614, -8358 ], [ 2674614, 8358 ], [ 2666255, 50149 ], [ 2666255, 75224 ], [ 2674614, 117014 ], [ 2666255, 150447 ], [ 2649539, 175522 ], [ 2641181, 217312 ], [ 2657897, 225671 ], [ 2691330, 275820 ], [ 2699688, 309252 ], [ 2699688, 317610 ], [ 2691330, 334327 ], [ 2699688, 376118 ], [ 2699688, 401192 ], [ 2691330, 434625 ], [ 2674614, 442983 ], [ 2666255, 459699 ], [ 2649539, 468057 ], [ 2641181, 484774 ], [ 2616106, 493132 ], [ 2599390, 509848 ], [ 2565957, 518206 ], [ 2549241, 534923 ], [ 2524167, 543281 ], [ 2515808, 543281 ], [ 2482376, 526565 ], [ 2465659, 509848 ], [ 2490734, 459699 ], [ 2524167, 442983 ], [ 2549241, 409550 ], [ 2540883, 392834 ], [ 2482376, 363580 ] ], [ [ 2194019, 1203576 ], [ 2198198, 1220292 ], [ 2214914, 1237009 ], [ 2223273, 1303874 ], [ 2223273, 1354023 ], [ 2214914, 1420888 ], [ 2198198, 1437605 ], [ 2194019, 1454321 ] ], [ [ 2031035, 1667454 ], [ 2022677, 1671634 ], [ 2014318, 1688350 ], [ 1997602, 1696708 ], [ 1989244, 1713424 ], [ 1955811, 1721783 ], [ 1930737, 1738499 ], [ 1897304, 1746857 ], [ 1888946, 1763573 ], [ 1872230, 1771932 ], [ 1863871, 1771932 ], [ 1847155, 1763573 ], [ 1838797, 1763573 ], [ 1822081, 1771932 ], [ 1813722, 1788648 ], [ 1797006, 1797006 ], [ 1788648, 1813722 ], [ 1755215, 1822081 ], [ 1730141, 1838797 ], [ 1671634, 1847155 ], [ 1638201, 1863871 ], [ 1579694, 1872230 ], [ 1554619, 1888946 ], [ 1521187, 1897304 ], [ 1512828, 1914020 ], [ 1496112, 1922379 ], [ 1487754, 1939095 ], [ 1471038, 1947453 ], [ 1462679, 1964169 ], [ 1429247, 1972528 ], [ 1404172, 1972528 ], [ 1362381, 1964169 ], [ 1354023, 1955811 ] ], [ [ 1303874, 1968348 ], [ 1295516, 1972528 ], [ 1287158, 1989244 ], [ 1270441, 1997602 ], [ 1262083, 2014318 ], [ 1237009, 2022677 ], [ 1220292, 2022677 ], [ 1178502, 2014318 ], [ 1153427, 2014318 ], [ 1103278, 2022677 ], [ 1078204, 2039393 ], [ 1028055, 2047751 ], [ 969547, 2005960 ], [ 965368, 1980886 ] ], [ [ -1529545, -965368 ], [ -1554619, -977906 ], [ -1588052, -944473 ], [ -1596410, -919398 ], [ -1613126, -911040 ], [ -1621485, -885966 ], [ -1638201, -869249 ], [ -1646559, -844175 ], [ -1663275, -835817 ], [ -1671634, -819100 ], [ -1688350, -810742 ], [ -1696708, -785668 ], [ -1713424, -768951 ], [ -1721783, -735519 ], [ -1721783, -718802 ], [ -1713424, -677012 ], [ -1663275, -626863 ], [ -1629843, -614325 ] ], [ [ -1817901, 225671 ], [ -1822081, 234029 ], [ -1838797, 242387 ], [ -1847155, 267461 ], [ -1863871, 284178 ], [ -1872230, 309252 ], [ -1888946, 317610 ], [ -1897304, 342685 ], [ -1914020, 359401 ], [ -1922379, 392834 ], [ -1947453, 409550 ], [ -1964169, 434625 ], [ -1989244, 442983 ], [ -1997602, 484774 ], [ -1997602, 518206 ], [ -1993423, 551639 ] ], [ [ -1805364, -438804 ], [ -1788648, -442983 ], [ -1771932, -459699 ], [ -1738499, -468057 ], [ -1721783, -493132 ], [ -1696708, -509848 ], [ -1692529, -526565 ] ], [ [ -1203576, -1216113 ], [ -1220292, -1220292 ], [ -1237009, -1220292 ], [ -1262083, -1211934 ], [ -1270442, -1186860 ], [ -1278800, -1178502 ] ], [ [ -1303874, -1153427 ], [ -1312232, -1145069 ], [ -1345665, -1136711 ], [ -1362381, -1119994 ], [ -1387456, -1111636 ], [ -1395814, -1094920 ], [ -1404172, -1090741 ] ] ] } }
]
}
