{
"type": "FeatureCollection",
"name": "median_extent_N_03_1981-2010_polyline_v4.0",
"crs": { "type": "name", "properties": { "name": "urn:ogc:def:crs:EPSG::3413" } },
"xy_coordinate_resolution": 1,
"features": [
{ "type": "Feature", "properties": { "FID": 0 }, "geometry": { "type": "MultiLineString", "coordinates": [ [ [ -841649, -3430250 ], [ -841649, -3291597 ], [ -833316, -3141600 ], [ -816649, -3133267 ], [ -808316, -3116601 ], [ -791650, -3108268 ], [ -783317, -3091601 ], [ -766650, -3083268 ], [ -758317, -3066602 ], [ -741651, -3058269 ], [ -733318, -3033269 ], [ -716652, -3016603 ], [ -708318, -2991603 ], [ -633320, -2966604 ], [ -616654, -2958271 ], [ -608320, -2941605 ], [ -591654, -2933271 ], [ -583321, -2916605 ], [ -566655, -2908272 ], [ -558322, -2883272 ], [ -541655, -2866606 ], [ -533322, -2841607 ], [ -466657, -2808274 ], [ -458324, -2766608 ], [ -441657, -2733276 ], [ -433324, -2683277 ], [ -408325, -2666610 ], [ -399992, -2649944 ] ], [ [ 99998, -3349929 ], [ 116664, -3366595 ], [ 133331, -3358262 ], [ 141664, -3333263 ], [ 158330, -3316597 ], [ 166663, -3274931 ], [ 183329, -3249931 ], [ 191663, -3199932 ], [ 208329, -3174933 ], [ 216662, -3108268 ], [ 233328, -3066602 ], [ 241662, -2999937 ], [ 258328, -2974937 ], [ 266661, -2933271 ], [ 283327, -2916605 ], [ 291661, -2891606 ], [ 308327, -2883272 ], [ 316660, -2866606 ], [ 333326, -2858273 ], [ 341659, -2824940 ], [ 358326, -2799941 ], [ 366659, -2766608 ], [ 483323, -2708276 ], [ 491656, -2691610 ], [ 508323, -2683277 ], [ 516656, -2666610 ], [ 633320, -2608278 ], [ 641653, -2591612 ], [ 658319, -2583279 ], [ 666653, -2558279 ], [ 683319, -2541613 ], [ 691652, -2516614 ], [ 766650, -2491614 ], [ 783317, -2483281 ], [ 791650, -2466615 ], [ 808316, -2458281 ], [ 816649, -2441615 ], [ 833316, -2433282 ], [ 841649, -2408282 ], [ 858315, -2391616 ], [ 866648, -2358284 ], [ 883315, -2341617 ], [ 891648, -2316618 ], [ 908314, -2308285 ], [ 916647, -2283285 ], [ 933314, -2266619 ], [ 941647, -2233286 ], [ 958313, -2216620 ], [ 966646, -2191620 ], [ 983313, -2183287 ], [ 991646, -2158288 ], [ 1008312, -2141621 ], [ 1016645, -2083289 ], [ 1033312, -2041624 ], [ 1041645, -1966625 ], [ 1058311, -1933293 ], [ 1066644, -1866627 ], [ 1083310, -1833295 ], [ 1091644, -1791629 ], [ 1091644, -1783296 ], [ 1083310, -1758296 ], [ 1083310, -1741630 ], [ 1091644, -1708297 ], [ 1091644, -1691631 ], [ 1083310, -1658298 ], [ 1066644, -1641632 ], [ 1058311, -1591633 ], [ 1041645, -1558300 ], [ 1033312, -1508302 ], [ 1016645, -1491635 ], [ 1008312, -1441636 ], [ 991646, -1408304 ], [ 983313, -1291639 ], [ 966646, -1208308 ], [ 958313, -1091644 ], [ 941647, -1058311 ], [ 933314, -1016645 ], [ 916647, -1008312 ], [ 908314, -983313 ], [ 891648, -966646 ], [ 883315, -899981 ], [ 866648, -849982 ], [ 858315, -758317 ], [ 858315, -716652 ], [ 866648, -666653 ], [ 883315, -658319 ], [ 891648, -641653 ], [ 908314, -633320 ], [ 912481, -624987 ] ], [ [ 949980, -674986 ], [ 958313, -683319 ], [ 966646, -708318 ], [ 999979, -716652 ], [ 1024978, -733318 ], [ 1058311, -741651 ], [ 1066644, -741651 ], [ 1091644, -733318 ], [ 1108310, -733318 ], [ 1149976, -741651 ], [ 1174975, -758317 ], [ 1233307, -766651 ], [ 1266640, -766651 ], [ 1350250, -759050 ] ] ] } }
]
}
